{"type":"Feature","properties":{"jurisdiction":"braintree-ma","name":"Braintree","source":"MassGIS, Census 2020 Towns (AGOL/Census2020_Towns, layer 2)","sourceUrl":"https://arcgisserver.digital.mass.gov/arcgisserver/rest/services/AGOL/Census2020_Towns/FeatureServer/2","sourceQuery":"TOWN20='BRAINTREE'","geoid":"2502107740","townId":40,"landAreaSqM":35646051,"waterAreaSqM":2076791,"interiorPoint":[-71.0023199,42.2061879],"retrieved":"2026-09-03","crs":"EPSG:4326","coordinatePrecision":5,"note":"Verbatim from the source apart from coordinate rounding."},"geometry":{"type":"MultiPolygon","coordinates":[[[[-70.97563,42.23775],[-70.97568,42.23776],[-70.97587,42.23786],[-70.97604,42.23801],[-70.97623,42.23817],[-70.97646,42.23826],[-70.9767,42.23836],[-70.97689,42.23841],[-70.97713,42.23842],[-70.9775,42.23838],[-70.97782,42.23828],[-70.97809,42.23817],[-70.97839,42.23793],[-70.97858,42.23772],[-70.97878,42.23738],[-70.97881,42.23735],[-70.97896,42.23713],[-70.97916,42.23694],[-70.97943,42.23676],[-70.97974,42.23648],[-70.97991,42.23622],[-70.98002,42.23594],[-70.98011,42.23569],[-70.98016,42.23545],[-70.98023,42.23542],[-70.9804,42.23533],[-70.98061,42.23559],[-70.98066,42.23565],[-70.98085,42.2357],[-70.98111,42.23576],[-70.98115,42.23575],[-70.98171,42.23566],[-70.98231,42.23555],[-70.9832,42.23541],[-70.98335,42.23538],[-70.98369,42.23531],[-70.98467,42.23514],[-70.98598,42.23492],[-70.98627,42.23487],[-70.98653,42.23483],[-70.98685,42.23478],[-70.98703,42.23475],[-70.98873,42.23446],[-70.98921,42.23438],[-70.98972,42.23429],[-70.99012,42.23425],[-70.99115,42.23406],[-70.99277,42.23379],[-70.99511,42.2334],[-70.99619,42.23321],[-70.99654,42.23316],[-70.99689,42.2331],[-70.99783,42.23294],[-70.99981,42.23261],[-71.00008,42.23257],[-71.0021,42.23223],[-71.00217,42.23222],[-71.00368,42.2316],[-71.00378,42.23155],[-71.00418,42.23139],[-71.00548,42.23086],[-71.00553,42.23084],[-71.0059,42.23068],[-71.00685,42.23029],[-71.00721,42.23014],[-71.00807,42.22979],[-71.00834,42.22968],[-71.00841,42.22965],[-71.00864,42.22955],[-71.00995,42.22902],[-71.00999,42.229],[-71.01026,42.22889],[-71.01079,42.22868],[-71.01124,42.22866],[-71.01136,42.22866],[-71.0114,42.22866],[-71.01283,42.22861],[-71.01466,42.22854],[-71.01653,42.22847],[-71.01823,42.22842],[-71.01903,42.22839],[-71.0202,42.22835],[-71.02135,42.2283],[-71.02226,42.22827],[-71.02331,42.22824],[-71.02344,42.22824],[-71.0236,42.22823],[-71.0239,42.22821],[-71.02425,42.2282],[-71.02606,42.22814],[-71.02687,42.22811],[-71.02781,42.22808],[-71.02819,42.22806],[-71.02862,42.22805],[-71.02885,42.22804],[-71.02916,42.22803],[-71.03057,42.22798],[-71.03147,42.22795],[-71.03195,42.22793],[-71.0323,42.22792],[-71.03245,42.22791],[-71.03254,42.22791],[-71.033,42.22789],[-71.03307,42.22782],[-71.0335,42.22737],[-71.03399,42.22686],[-71.03407,42.22677],[-71.03417,42.22667],[-71.03419,42.22665],[-71.03449,42.22633],[-71.03504,42.22578],[-71.03511,42.22569],[-71.03696,42.22374],[-71.04083,42.21969],[-71.04494,42.21539],[-71.04494,42.21167],[-71.04493,42.21132],[-71.04492,42.20875],[-71.04489,42.20733],[-71.04488,42.20649],[-71.04494,42.20649],[-71.04504,42.20648],[-71.04516,42.20642],[-71.04532,42.20633],[-71.04545,42.20629],[-71.0456,42.20628],[-71.04588,42.20631],[-71.04597,42.20633],[-71.04606,42.20635],[-71.04616,42.2064],[-71.04624,42.20641],[-71.04633,42.20639],[-71.04643,42.20639],[-71.04655,42.20642],[-71.04688,42.20655],[-71.04693,42.20656],[-71.04698,42.20657],[-71.04701,42.20656],[-71.04704,42.20655],[-71.04708,42.2065],[-71.0471,42.20647],[-71.04713,42.20645],[-71.04719,42.20644],[-71.04725,42.20643],[-71.04728,42.20643],[-71.04731,42.20641],[-71.04734,42.20637],[-71.04741,42.20632],[-71.04746,42.20631],[-71.04758,42.20631],[-71.04766,42.20628],[-71.04772,42.20627],[-71.04776,42.2063],[-71.04779,42.2063],[-71.04782,42.20629],[-71.04783,42.20628],[-71.04784,42.20627],[-71.04786,42.20627],[-71.04803,42.2063],[-71.04824,42.20638],[-71.04826,42.20639],[-71.04831,42.20639],[-71.04839,42.20639],[-71.04844,42.2064],[-71.04846,42.20642],[-71.04846,42.20646],[-71.04847,42.20647],[-71.04847,42.20648],[-71.04848,42.2065],[-71.0485,42.2065],[-71.04856,42.20651],[-71.04859,42.20653],[-71.0486,42.20656],[-71.04863,42.20658],[-71.04866,42.2066],[-71.04875,42.20662],[-71.04884,42.20664],[-71.04893,42.20667],[-71.04903,42.20668],[-71.04918,42.20669],[-71.04933,42.20669],[-71.04949,42.20668],[-71.0489,42.20348],[-71.04889,42.20344],[-71.0486,42.2018],[-71.04853,42.20147],[-71.0485,42.20129],[-71.04727,42.1946],[-71.04667,42.1945],[-71.04601,42.19438],[-71.04149,42.1936],[-71.03826,42.19304],[-71.03571,42.1926],[-71.02964,42.19152],[-71.02575,42.1898],[-71.02526,42.1896],[-71.02494,42.18946],[-71.02491,42.18944],[-71.02412,42.18909],[-71.0235,42.18881],[-71.02295,42.18856],[-71.02236,42.1883],[-71.02194,42.18811],[-71.02162,42.18797],[-71.02146,42.1879],[-71.02133,42.18784],[-71.02023,42.18735],[-71.01977,42.18714],[-71.01928,42.18693],[-71.01913,42.18686],[-71.01923,42.18662],[-71.0193,42.18646],[-71.01934,42.18626],[-71.01937,42.18619],[-71.01944,42.18613],[-71.01951,42.18607],[-71.01951,42.18598],[-71.01952,42.18596],[-71.01951,42.18591],[-71.01949,42.18584],[-71.01947,42.18579],[-71.01943,42.18575],[-71.01931,42.18563],[-71.0191,42.18541],[-71.01909,42.18536],[-71.01912,42.18527],[-71.01914,42.18523],[-71.01917,42.18522],[-71.01924,42.18525],[-71.01929,42.18525],[-71.01932,42.18523],[-71.01933,42.18522],[-71.01935,42.1852],[-71.01934,42.18518],[-71.01932,42.18516],[-71.01933,42.18512],[-71.01934,42.1851],[-71.01933,42.18508],[-71.01932,42.18507],[-71.01928,42.18505],[-71.01927,42.185],[-71.01928,42.18495],[-71.01931,42.18492],[-71.01935,42.1849],[-71.01942,42.18478],[-71.01945,42.18472],[-71.01946,42.1847],[-71.01947,42.18466],[-71.01944,42.1846],[-71.01937,42.18453],[-71.01935,42.18451],[-71.01933,42.18448],[-71.01931,42.18444],[-71.01932,42.18442],[-71.01935,42.1844],[-71.01939,42.18436],[-71.01942,42.18431],[-71.01941,42.18427],[-71.01935,42.1842],[-71.0192,42.18415],[-71.01907,42.18414],[-71.019,42.18412],[-71.01899,42.1841],[-71.01899,42.18407],[-71.01907,42.18401],[-71.01913,42.18396],[-71.01917,42.18394],[-71.0192,42.18392],[-71.01921,42.1839],[-71.01925,42.18389],[-71.01931,42.18391],[-71.01937,42.1839],[-71.01943,42.18385],[-71.01946,42.1838],[-71.01943,42.18373],[-71.01941,42.1837],[-71.01938,42.18368],[-71.01934,42.18363],[-71.01929,42.1836],[-71.01925,42.18358],[-71.01923,42.18356],[-71.01922,42.18354],[-71.01923,42.18352],[-71.01926,42.1835],[-71.01927,42.1835],[-71.0193,42.18349],[-71.01932,42.18347],[-71.01934,42.18345],[-71.01946,42.18325],[-71.01951,42.18312],[-71.01954,42.18301],[-71.01954,42.18298],[-71.01955,42.18288],[-71.0196,42.18273],[-71.01959,42.18264],[-71.01962,42.18258],[-71.01971,42.18254],[-71.01977,42.18242],[-71.0198,42.1823],[-71.01979,42.18223],[-71.01983,42.1821],[-71.01994,42.1819],[-71.01993,42.18181],[-71.01992,42.1818],[-71.01987,42.18172],[-71.01977,42.1816],[-71.01968,42.18152],[-71.01965,42.18149],[-71.01965,42.18144],[-71.01968,42.18133],[-71.01969,42.18127],[-71.01974,42.1812],[-71.01983,42.18114],[-71.01996,42.18109],[-71.02002,42.18103],[-71.02004,42.18102],[-71.02006,42.18102],[-71.02012,42.18102],[-71.02015,42.181],[-71.02016,42.18098],[-71.02016,42.18093],[-71.02014,42.1809],[-71.02003,42.18079],[-71.01998,42.18071],[-71.01994,42.1805],[-71.01993,42.18046],[-71.0199,42.1804],[-71.0199,42.1803],[-71.01996,42.18019],[-71.01999,42.18011],[-71.01999,42.18005],[-71.02004,42.17986],[-71.02014,42.17976],[-71.02018,42.17969],[-71.02017,42.17963],[-71.02012,42.1796],[-71.0201,42.17959],[-71.01999,42.17958],[-71.01992,42.17956],[-71.01984,42.17945],[-71.01981,42.17938],[-71.01975,42.17933],[-71.01972,42.17927],[-71.01968,42.17918],[-71.0197,42.17914],[-71.01975,42.17909],[-71.01975,42.17905],[-71.01975,42.17902],[-71.01966,42.17895],[-71.01958,42.17887],[-71.01955,42.1788],[-71.01958,42.17872],[-71.01961,42.17865],[-71.01964,42.17857],[-71.01967,42.17854],[-71.01973,42.17853],[-71.01975,42.17853],[-71.01978,42.17853],[-71.01983,42.17854],[-71.01994,42.17855],[-71.01999,42.17852],[-71.01999,42.17848],[-71.01995,42.17844],[-71.01992,42.1784],[-71.01988,42.17834],[-71.01991,42.17818],[-71.0199,42.17811],[-71.01984,42.17805],[-71.01984,42.178],[-71.01988,42.17795],[-71.01997,42.17787],[-71.02007,42.17783],[-71.02016,42.17782],[-71.02027,42.17778],[-71.02036,42.1777],[-71.0204,42.17768],[-71.02047,42.17765],[-71.02053,42.17765],[-71.02057,42.17764],[-71.0206,42.17762],[-71.02063,42.17758],[-71.02063,42.17752],[-71.02064,42.17747],[-71.02064,42.17745],[-71.02062,42.17737],[-71.02061,42.17718],[-71.02061,42.17716],[-71.0206,42.17712],[-71.02061,42.1771],[-71.02061,42.17709],[-71.02061,42.17708],[-71.02062,42.17705],[-71.02064,42.17702],[-71.02067,42.17695],[-71.02069,42.17691],[-71.02061,42.17675],[-71.02057,42.17664],[-71.02057,42.17657],[-71.02062,42.17651],[-71.02076,42.17643],[-71.02078,42.1764],[-71.02086,42.17631],[-71.0209,42.17629],[-71.021,42.17628],[-71.02105,42.17622],[-71.0211,42.17614],[-71.02109,42.17609],[-71.02109,42.17607],[-71.0211,42.17601],[-71.02106,42.17585],[-71.02101,42.17577],[-71.02099,42.17573],[-71.02096,42.17559],[-71.02094,42.17556],[-71.02093,42.17549],[-71.02088,42.17539],[-71.02084,42.17525],[-71.02084,42.17521],[-71.02086,42.17504],[-71.02093,42.17485],[-71.021,42.17473],[-71.02106,42.17464],[-71.02109,42.17461],[-71.02114,42.17455],[-71.02118,42.17449],[-71.02125,42.17444],[-71.02136,42.17439],[-71.02144,42.17432],[-71.02156,42.17419],[-71.02161,42.17411],[-71.02162,42.17401],[-71.02159,42.17393],[-71.02148,42.17381],[-71.02138,42.17372],[-71.02135,42.17369],[-71.02133,42.17367],[-71.02133,42.17363],[-71.02134,42.17356],[-71.0213,42.17347],[-71.02129,42.17344],[-71.0213,42.17342],[-71.02132,42.1734],[-71.02137,42.17336],[-71.0214,42.17329],[-71.02141,42.17319],[-71.02141,42.17316],[-71.02142,42.17314],[-71.02144,42.17312],[-71.02145,42.17311],[-71.02146,42.1731],[-71.02148,42.17309],[-71.02152,42.17303],[-71.02153,42.17302],[-71.02154,42.173],[-71.02154,42.17298],[-71.02154,42.17294],[-71.02155,42.17291],[-71.02156,42.17289],[-71.02157,42.17287],[-71.02158,42.17286],[-71.0216,42.17285],[-71.02164,42.17281],[-71.02172,42.17259],[-71.02176,42.17244],[-71.02179,42.17227],[-71.02183,42.17214],[-71.02184,42.17208],[-71.02185,42.17201],[-71.0219,42.17189],[-71.02191,42.17185],[-71.02205,42.17144],[-71.02216,42.17127],[-71.02221,42.17108],[-71.02243,42.17055],[-71.02242,42.17051],[-71.02234,42.17049],[-71.02214,42.1705],[-71.02206,42.17048],[-71.02194,42.17045],[-71.0217,42.17043],[-71.02167,42.17041],[-71.02161,42.17031],[-71.02162,42.17017],[-71.0217,42.17011],[-71.02181,42.16982],[-71.02191,42.16954],[-71.02198,42.16943],[-71.02198,42.16934],[-71.02195,42.16928],[-71.02194,42.16923],[-71.02194,42.16917],[-71.02199,42.16901],[-71.02166,42.169],[-71.02026,42.16892],[-71.01702,42.16876],[-71.01689,42.16875],[-71.01479,42.16864],[-71.01392,42.1686],[-71.01205,42.1685],[-71.01098,42.16848],[-71.00904,42.16845],[-71.0078,42.16842],[-71.00725,42.16841],[-71.00705,42.16842],[-71.00702,42.16841],[-71.00645,42.16833],[-71.00639,42.16832],[-71.00476,42.16834],[-71.00371,42.16836],[-71.00272,42.16837],[-71.00185,42.16837],[-71.00169,42.16837],[-71.00053,42.16837],[-70.99896,42.16837],[-70.99718,42.16836],[-70.99666,42.16836],[-70.9962,42.16836],[-70.99572,42.16836],[-70.99388,42.16836],[-70.99316,42.16835],[-70.99077,42.16835],[-70.99048,42.16835],[-70.98776,42.16835],[-70.98614,42.16835],[-70.98477,42.16835],[-70.98326,42.16834],[-70.98197,42.16834],[-70.97888,42.16834],[-70.97648,42.16833],[-70.97616,42.17046],[-70.97611,42.17069],[-70.97591,42.17212],[-70.97587,42.17238],[-70.9757,42.17346],[-70.97558,42.17431],[-70.97547,42.175],[-70.97497,42.17836],[-70.97484,42.1792],[-70.97478,42.17958],[-70.97454,42.18117],[-70.9743,42.18275],[-70.97406,42.18435],[-70.974,42.18476],[-70.97398,42.1849],[-70.97392,42.1853],[-70.97367,42.187],[-70.97364,42.1872],[-70.97331,42.18938],[-70.97322,42.18993],[-70.97305,42.19105],[-70.97264,42.19378],[-70.97224,42.19646],[-70.97215,42.19707],[-70.97201,42.19797],[-70.97172,42.19989],[-70.9717,42.20003],[-70.97164,42.2004],[-70.97133,42.20247],[-70.97113,42.20376],[-70.97096,42.20493],[-70.9708,42.206],[-70.97059,42.20738],[-70.9703,42.20932],[-70.9701,42.21065],[-70.96994,42.21168],[-70.96991,42.21189],[-70.96989,42.212],[-70.96956,42.21424],[-70.96946,42.21493],[-70.96932,42.21588],[-70.96922,42.21655],[-70.96911,42.21716],[-70.96908,42.21739],[-70.96907,42.21742],[-70.96893,42.21838],[-70.96874,42.2196],[-70.9687,42.21989],[-70.96865,42.21992],[-70.96858,42.21998],[-70.96814,42.22028],[-70.96803,42.22036],[-70.96768,42.22067],[-70.96782,42.22091],[-70.96791,42.22105],[-70.96802,42.22121],[-70.96806,42.22136],[-70.9681,42.22148],[-70.96809,42.22153],[-70.96807,42.2217],[-70.96799,42.2217],[-70.96795,42.22171],[-70.96792,42.22176],[-70.9679,42.22184],[-70.96786,42.22192],[-70.96783,42.22202],[-70.96782,42.2221],[-70.96777,42.22218],[-70.96777,42.2222],[-70.96773,42.22227],[-70.96768,42.22235],[-70.96765,42.22243],[-70.96762,42.22246],[-70.96759,42.22254],[-70.96739,42.2228],[-70.96725,42.22293],[-70.96702,42.22336],[-70.96732,42.22312],[-70.96745,42.223],[-70.96755,42.22276],[-70.96782,42.22268],[-70.96782,42.2227],[-70.96777,42.22274],[-70.96777,42.22278],[-70.96745,42.22324],[-70.96748,42.2234],[-70.96762,42.22346],[-70.96775,42.22346],[-70.96781,42.22346],[-70.9679,42.22346],[-70.96812,42.22343],[-70.96832,42.22336],[-70.96848,42.22324],[-70.96884,42.22319],[-70.96893,42.22319],[-70.96912,42.22318],[-70.96924,42.22284],[-70.96933,42.22272],[-70.96951,42.22253],[-70.96972,42.22233],[-70.96988,42.22226],[-70.9702,42.22221],[-70.97078,42.2222],[-70.97106,42.22225],[-70.97129,42.22236],[-70.97145,42.22241],[-70.97216,42.22246],[-70.97017,42.22285],[-70.9701,42.22292],[-70.97004,42.223],[-70.96987,42.22305],[-70.96984,42.22317],[-70.96978,42.22321],[-70.96931,42.2235],[-70.96921,42.2235],[-70.96919,42.22337],[-70.96917,42.22334],[-70.96895,42.22337],[-70.9689,42.22337],[-70.96885,42.22353],[-70.9688,42.22361],[-70.96871,42.22365],[-70.96824,42.22381],[-70.96803,42.2239],[-70.96797,42.22396],[-70.96797,42.22417],[-70.96799,42.22419],[-70.968,42.22426],[-70.96797,42.22426],[-70.96791,42.22425],[-70.96764,42.22413],[-70.96722,42.22418],[-70.96719,42.22419],[-70.9671,42.22426],[-70.967,42.22428],[-70.96674,42.22431],[-70.96633,42.22451],[-70.96601,42.22474],[-70.96578,42.22489],[-70.96554,42.22499],[-70.96535,42.22512],[-70.96494,42.22546],[-70.96458,42.22573],[-70.96445,42.2258],[-70.96436,42.22583],[-70.96411,42.22587],[-70.96387,42.22594],[-70.96335,42.22619],[-70.9631,42.22628],[-70.963,42.22636],[-70.96283,42.22652],[-70.96277,42.22661],[-70.96277,42.22664],[-70.96274,42.2267],[-70.96252,42.22683],[-70.96238,42.22694],[-70.96222,42.22708],[-70.96218,42.22708],[-70.96213,42.22703],[-70.96214,42.22701],[-70.96212,42.22699],[-70.96202,42.22703],[-70.96202,42.22709],[-70.9621,42.22719],[-70.96225,42.2273],[-70.9623,42.22731],[-70.96244,42.22735],[-70.96257,42.22737],[-70.96261,42.2274],[-70.96255,42.22751],[-70.96245,42.22759],[-70.96242,42.2277],[-70.96219,42.22852],[-70.96212,42.22896],[-70.96211,42.22921],[-70.9621,42.22953],[-70.96211,42.22986],[-70.96213,42.23],[-70.96216,42.23007],[-70.96217,42.23013],[-70.96219,42.23016],[-70.96223,42.23024],[-70.96224,42.23039],[-70.96213,42.23049],[-70.96213,42.23074],[-70.96213,42.23097],[-70.96239,42.23113],[-70.96239,42.2312],[-70.96245,42.23124],[-70.96268,42.23129],[-70.96271,42.23134],[-70.96274,42.23137],[-70.96285,42.23157],[-70.96278,42.23156],[-70.96265,42.2315],[-70.96258,42.23149],[-70.96251,42.23152],[-70.96229,42.23171],[-70.96216,42.23183],[-70.96199,42.23204],[-70.96191,42.23208],[-70.96153,42.23216],[-70.9615,42.23219],[-70.9615,42.23231],[-70.96152,42.23232],[-70.96153,42.23237],[-70.96159,42.23244],[-70.9616,42.23251],[-70.96163,42.23255],[-70.96169,42.23273],[-70.96172,42.23291],[-70.96169,42.23311],[-70.96169,42.23315],[-70.96171,42.23328],[-70.96174,42.23334],[-70.96176,42.23344],[-70.96182,42.2336],[-70.96184,42.23361],[-70.96184,42.23364],[-70.9619,42.2337],[-70.96192,42.2338],[-70.96191,42.23389],[-70.96182,42.23411],[-70.96183,42.23424],[-70.96185,42.23425],[-70.96186,42.2343],[-70.96192,42.23436],[-70.96202,42.23441],[-70.96227,42.2344],[-70.96232,42.23439],[-70.96242,42.23436],[-70.96267,42.2343],[-70.96289,42.23431],[-70.96329,42.23442],[-70.96375,42.23457],[-70.96422,42.23455],[-70.9643,42.23446],[-70.96445,42.23437],[-70.96462,42.23433],[-70.9648,42.23433],[-70.96499,42.23437],[-70.96513,42.23443],[-70.9653,42.23459],[-70.96536,42.23466],[-70.9663,42.23535],[-70.9663,42.23537],[-70.9664,42.23552],[-70.96663,42.23549],[-70.96689,42.23549],[-70.96714,42.23564],[-70.9675,42.23584],[-70.96802,42.23588],[-70.96827,42.23591],[-70.96838,42.2359],[-70.96898,42.23598],[-70.97056,42.23594],[-70.97061,42.23598],[-70.97061,42.23601],[-70.97065,42.23606],[-70.97068,42.23615],[-70.9707,42.23616],[-70.97073,42.23624],[-70.97073,42.23667],[-70.97081,42.23673],[-70.97089,42.23677],[-70.97144,42.23684],[-70.97215,42.23691],[-70.97218,42.23706],[-70.97236,42.23707],[-70.97276,42.23715],[-70.97303,42.2372],[-70.97303,42.23725],[-70.97304,42.2373],[-70.97311,42.23733],[-70.97321,42.23734],[-70.97333,42.23735],[-70.97341,42.23737],[-70.97348,42.23737],[-70.97376,42.23739],[-70.97377,42.2373],[-70.97497,42.23737],[-70.97563,42.23775]]]]}}
