{"type":"Feature","properties":{"jurisdiction":"hull-ma","name":"Hull","source":"MassGIS, Census 2020 Towns (AGOL/Census2020_Towns, layer 2)","sourceUrl":"https://arcgisserver.digital.mass.gov/arcgisserver/rest/services/AGOL/Census2020_Towns/FeatureServer/2","sourceQuery":"TOWN20='HULL'","geoid":"2502331645","townId":142,"landAreaSqM":7437835,"waterAreaSqM":65626323,"interiorPoint":[-70.8833012,42.3402327],"retrieved":"2026-08-29","crs":"EPSG:4326","coordinatePrecision":5,"note":"Verbatim from the source apart from coordinate rounding."},"geometry":{"type":"MultiPolygon","coordinates":[[[[-70.88183,42.30975],[-70.88186,42.3098],[-70.88187,42.30985],[-70.88194,42.30993],[-70.88194,42.30995],[-70.88207,42.31008],[-70.88211,42.31015],[-70.8823,42.31029],[-70.88246,42.31034],[-70.88268,42.3104],[-70.88297,42.31044],[-70.883,42.31045],[-70.8835,42.31037],[-70.88382,42.31032],[-70.8839,42.31031],[-70.88396,42.31029],[-70.88441,42.31021],[-70.88478,42.31017],[-70.88501,42.31012],[-70.88536,42.31007],[-70.88583,42.30998],[-70.88664,42.30984],[-70.88742,42.30978],[-70.8875,42.3098],[-70.88773,42.3098],[-70.8878,42.30982],[-70.88841,42.30983],[-70.88858,42.3098],[-70.88951,42.30976],[-70.88974,42.30974],[-70.89005,42.30971],[-70.89017,42.30968],[-70.89041,42.30966],[-70.89071,42.30961],[-70.89084,42.30956],[-70.89098,42.30948],[-70.89123,42.3093],[-70.89129,42.30927],[-70.89149,42.30913],[-70.89152,42.30908],[-70.89159,42.30906],[-70.89165,42.30898],[-70.89173,42.30892],[-70.89207,42.30861],[-70.89214,42.30855],[-70.89216,42.30853],[-70.89246,42.30829],[-70.89256,42.30818],[-70.89279,42.30796],[-70.8929,42.30786],[-70.89307,42.30768],[-70.89316,42.30764],[-70.89364,42.30719],[-70.89387,42.30702],[-70.89412,42.30676],[-70.89444,42.30651],[-70.89494,42.30623],[-70.89555,42.306],[-70.89586,42.30594],[-70.89633,42.30593],[-70.89696,42.30596],[-70.89775,42.30612],[-70.89807,42.30618],[-70.89892,42.30639],[-70.89921,42.30647],[-70.89936,42.3065],[-70.89956,42.30657],[-70.9003,42.30672],[-70.90063,42.30683],[-70.90173,42.30705],[-70.90202,42.30707],[-70.90234,42.30711],[-70.90264,42.30719],[-70.90292,42.30723],[-70.90322,42.3073],[-70.90347,42.30738],[-70.90386,42.30745],[-70.90412,42.30753],[-70.90462,42.30763],[-70.90527,42.30775],[-70.90571,42.30786],[-70.90604,42.30789],[-70.90643,42.30796],[-70.90647,42.30797],[-70.90712,42.30794],[-70.90952,42.30777],[-70.90982,42.3077],[-70.91014,42.30756],[-70.91045,42.3074],[-70.91081,42.30713],[-70.91087,42.30709],[-70.91088,42.30707],[-70.91094,42.30704],[-70.91105,42.30695],[-70.91118,42.30687],[-70.9114,42.30672],[-70.91167,42.30652],[-70.91171,42.30648],[-70.91191,42.30633],[-70.91213,42.30622],[-70.91251,42.306],[-70.91258,42.30595],[-70.91275,42.30586],[-70.91294,42.30581],[-70.91315,42.30577],[-70.91328,42.30577],[-70.91362,42.30573],[-70.91417,42.3057],[-70.91466,42.30572],[-70.91472,42.30574],[-70.91496,42.30574],[-70.91525,42.30577],[-70.91683,42.3058],[-70.91751,42.30581],[-70.91867,42.30586],[-70.9191,42.30587],[-70.91925,42.30583],[-70.91962,42.30561],[-70.91975,42.30558],[-70.91979,42.30554],[-70.92007,42.30541],[-70.92032,42.30526],[-70.92073,42.30508],[-70.92123,42.30491],[-70.92178,42.30474],[-70.9221,42.30465],[-70.92228,42.30457],[-70.92233,42.30449],[-70.92244,42.30427],[-70.92254,42.30398],[-70.92259,42.30391],[-70.92265,42.30374],[-70.92266,42.30351],[-70.92264,42.30338],[-70.92261,42.30331],[-70.92259,42.30328],[-70.92255,42.30322],[-70.92235,42.30309],[-70.92172,42.30294],[-70.92154,42.30294],[-70.92141,42.30301],[-70.9214,42.30305],[-70.92135,42.30313],[-70.92125,42.30317],[-70.92099,42.30319],[-70.92077,42.30323],[-70.92062,42.30328],[-70.92024,42.3034],[-70.92012,42.30341],[-70.92009,42.3034],[-70.92008,42.30336],[-70.92009,42.30325],[-70.92014,42.30319],[-70.92016,42.30312],[-70.92016,42.30309],[-70.92011,42.30307],[-70.91993,42.30309],[-70.91972,42.30316],[-70.91966,42.30323],[-70.91966,42.30343],[-70.91976,42.30353],[-70.91979,42.30354],[-70.91984,42.3036],[-70.91985,42.30367],[-70.91967,42.30377],[-70.91952,42.30383],[-70.91944,42.30389],[-70.91928,42.30395],[-70.9191,42.30404],[-70.91855,42.30428],[-70.91844,42.30429],[-70.91782,42.30448],[-70.91751,42.30451],[-70.91737,42.30447],[-70.91715,42.30443],[-70.91676,42.30428],[-70.9165,42.30424],[-70.91617,42.30408],[-70.91603,42.30403],[-70.91586,42.30392],[-70.91583,42.30393],[-70.91564,42.30408],[-70.91564,42.3041],[-70.91557,42.30417],[-70.91545,42.30423],[-70.91529,42.30424],[-70.91509,42.30417],[-70.91488,42.30404],[-70.91477,42.30398],[-70.91448,42.30377],[-70.91446,42.30374],[-70.9143,42.30364],[-70.91429,42.30362],[-70.91425,42.3036],[-70.91422,42.30357],[-70.91411,42.3035],[-70.91402,42.30339],[-70.91399,42.30333],[-70.914,42.30318],[-70.91402,42.30309],[-70.91414,42.30286],[-70.91416,42.3028],[-70.91424,42.30269],[-70.91425,42.30257],[-70.91403,42.30222],[-70.91389,42.30208],[-70.91376,42.30188],[-70.91366,42.30181],[-70.91357,42.30168],[-70.91347,42.30157],[-70.91332,42.30143],[-70.91328,42.30137],[-70.91308,42.30121],[-70.91298,42.30114],[-70.91239,42.30074],[-70.91237,42.30073],[-70.91207,42.30054],[-70.91158,42.30027],[-70.91139,42.30022],[-70.91133,42.3002],[-70.91124,42.30014],[-70.91114,42.30002],[-70.9111,42.29995],[-70.91108,42.29987],[-70.91103,42.29981],[-70.91084,42.29983],[-70.91068,42.29988],[-70.91039,42.30009],[-70.91035,42.3001],[-70.91028,42.30014],[-70.90996,42.3002],[-70.90975,42.30021],[-70.90964,42.30026],[-70.90938,42.30028],[-70.90935,42.30031],[-70.90887,42.30038],[-70.90846,42.30048],[-70.90829,42.30051],[-70.90827,42.30053],[-70.90808,42.30057],[-70.90794,42.30061],[-70.90775,42.30063],[-70.90747,42.30067],[-70.90725,42.30068],[-70.90707,42.30064],[-70.90687,42.30078],[-70.90649,42.30074],[-70.90641,42.30077],[-70.90634,42.30079],[-70.90617,42.30095],[-70.90567,42.30116],[-70.90554,42.30129],[-70.90542,42.30166],[-70.90529,42.30191],[-70.90521,42.30203],[-70.90501,42.30214],[-70.90473,42.3022],[-70.90343,42.30243],[-70.90317,42.30248],[-70.90234,42.30278],[-70.90172,42.30303],[-70.90116,42.30326],[-70.90039,42.30356],[-70.89993,42.30384],[-70.89978,42.30408],[-70.89971,42.30413],[-70.89961,42.30411],[-70.89954,42.30407],[-70.89933,42.30383],[-70.89777,42.30204],[-70.89751,42.30175],[-70.89758,42.30167],[-70.89756,42.30158],[-70.89733,42.30134],[-70.89732,42.3012],[-70.89745,42.30071],[-70.89741,42.30048],[-70.89722,42.30021],[-70.89686,42.29994],[-70.89638,42.2997],[-70.89598,42.2996],[-70.89542,42.29968],[-70.89508,42.2997],[-70.89462,42.29969],[-70.8938,42.29979],[-70.89354,42.29981],[-70.8934,42.29985],[-70.89318,42.29998],[-70.8925,42.30022],[-70.89225,42.3003],[-70.89145,42.30047],[-70.89128,42.30055],[-70.89121,42.30057],[-70.89099,42.30073],[-70.89082,42.30088],[-70.89082,42.30097],[-70.89084,42.30105],[-70.89094,42.30111],[-70.8912,42.30107],[-70.89305,42.3004],[-70.89343,42.30031],[-70.89351,42.30036],[-70.89329,42.30054],[-70.89328,42.30061],[-70.89338,42.30062],[-70.89346,42.30062],[-70.89392,42.30052],[-70.89437,42.30061],[-70.89634,42.30133],[-70.8965,42.30144],[-70.89695,42.30196],[-70.89705,42.30201],[-70.89714,42.30201],[-70.89727,42.30197],[-70.89874,42.30366],[-70.89905,42.30402],[-70.89907,42.30404],[-70.89908,42.30408],[-70.89912,42.30414],[-70.89914,42.30422],[-70.8992,42.30426],[-70.8992,42.30428],[-70.89931,42.30437],[-70.89934,42.30444],[-70.89936,42.30455],[-70.89934,42.30468],[-70.89918,42.30486],[-70.8991,42.30497],[-70.8989,42.30514],[-70.8987,42.30533],[-70.89845,42.30549],[-70.89834,42.30548],[-70.89772,42.30538],[-70.8974,42.30532],[-70.89723,42.30529],[-70.89626,42.30531],[-70.89582,42.30537],[-70.89542,42.30544],[-70.89503,42.30566],[-70.89477,42.30576],[-70.89448,42.30584],[-70.89441,42.30587],[-70.89412,42.30599],[-70.89407,42.30607],[-70.89402,42.30611],[-70.89385,42.3063],[-70.89372,42.30645],[-70.89361,42.30655],[-70.89337,42.30661],[-70.89312,42.3066],[-70.89287,42.30656],[-70.89265,42.3065],[-70.89249,42.30649],[-70.89203,42.30644],[-70.89164,42.30644],[-70.89142,42.30647],[-70.89124,42.30653],[-70.89106,42.30667],[-70.89095,42.30676],[-70.89076,42.30695],[-70.89062,42.307],[-70.89045,42.307],[-70.89025,42.30697],[-70.89016,42.30692],[-70.89009,42.30687],[-70.89005,42.30683],[-70.89,42.30678],[-70.88999,42.30671],[-70.88987,42.30657],[-70.88986,42.30653],[-70.88982,42.30649],[-70.88974,42.30639],[-70.88964,42.30629],[-70.88964,42.30627],[-70.88949,42.30613],[-70.88925,42.30594],[-70.88915,42.3058],[-70.88905,42.30574],[-70.88895,42.30565],[-70.88858,42.30541],[-70.88843,42.30534],[-70.88821,42.30526],[-70.88802,42.3052],[-70.88785,42.30514],[-70.88761,42.30512],[-70.88695,42.30505],[-70.88687,42.30503],[-70.88664,42.305],[-70.8863,42.305],[-70.88609,42.30503],[-70.88597,42.305],[-70.88575,42.30491],[-70.88559,42.30481],[-70.8855,42.30475],[-70.88549,42.30473],[-70.88543,42.3047],[-70.88542,42.30466],[-70.88538,42.30463],[-70.88531,42.30456],[-70.8853,42.30454],[-70.88524,42.30448],[-70.88524,42.30446],[-70.88513,42.30434],[-70.8851,42.30426],[-70.88502,42.30405],[-70.885,42.30385],[-70.88507,42.30371],[-70.88537,42.30316],[-70.8854,42.30301],[-70.88548,42.3028],[-70.88559,42.30239],[-70.8856,42.30229],[-70.88564,42.30216],[-70.88568,42.30177],[-70.88575,42.30153],[-70.88595,42.301],[-70.88605,42.3008],[-70.88607,42.30071],[-70.88616,42.30049],[-70.88629,42.29999],[-70.88631,42.29973],[-70.88631,42.29956],[-70.88632,42.29952],[-70.88632,42.2993],[-70.88635,42.29878],[-70.88636,42.29869],[-70.88639,42.29851],[-70.88644,42.29834],[-70.88649,42.29807],[-70.88648,42.29776],[-70.88647,42.29694],[-70.88649,42.29683],[-70.8865,42.29671],[-70.88656,42.29648],[-70.88657,42.29632],[-70.8866,42.29621],[-70.88661,42.29618],[-70.88687,42.29543],[-70.88688,42.29534],[-70.88694,42.29517],[-70.88709,42.29471],[-70.8872,42.29427],[-70.8872,42.29389],[-70.88716,42.29376],[-70.88687,42.29344],[-70.88671,42.29336],[-70.88652,42.29329],[-70.88649,42.29326],[-70.88631,42.29318],[-70.88611,42.29313],[-70.88565,42.29304],[-70.88543,42.29295],[-70.88522,42.29291],[-70.88488,42.29281],[-70.88476,42.29276],[-70.88474,42.29273],[-70.88463,42.29268],[-70.8846,42.29266],[-70.88454,42.29262],[-70.8845,42.2926],[-70.88438,42.29255],[-70.88418,42.29236],[-70.88415,42.29233],[-70.88401,42.29218],[-70.88398,42.29212],[-70.88383,42.29197],[-70.8838,42.29192],[-70.88376,42.29185],[-70.88372,42.29176],[-70.88367,42.29167],[-70.88365,42.29164],[-70.88364,42.29154],[-70.88362,42.29151],[-70.88358,42.29126],[-70.88358,42.29104],[-70.88357,42.29089],[-70.88351,42.29068],[-70.88344,42.29056],[-70.88341,42.29054],[-70.88337,42.2905],[-70.8833,42.29043],[-70.88328,42.29036],[-70.88322,42.28995],[-70.8832,42.28992],[-70.88319,42.2897],[-70.88307,42.28905],[-70.88304,42.28899],[-70.883,42.28884],[-70.88299,42.28872],[-70.88296,42.28866],[-70.88287,42.28854],[-70.88261,42.2883],[-70.8823,42.28808],[-70.88211,42.28796],[-70.88168,42.2878],[-70.88147,42.2877],[-70.88141,42.28763],[-70.8813,42.28759],[-70.88114,42.28746],[-70.88114,42.28744],[-70.88111,42.28742],[-70.88099,42.28718],[-70.88094,42.28706],[-70.88093,42.28697],[-70.8809,42.28687],[-70.88088,42.28674],[-70.88088,42.28636],[-70.88084,42.28613],[-70.88083,42.28573],[-70.88077,42.28524],[-70.88076,42.28496],[-70.88073,42.28469],[-70.88085,42.28444],[-70.8811,42.28409],[-70.88112,42.28403],[-70.88115,42.284],[-70.88114,42.28371],[-70.88109,42.28352],[-70.88106,42.28343],[-70.88094,42.2832],[-70.88091,42.28318],[-70.88091,42.28316],[-70.88058,42.28286],[-70.88056,42.28281],[-70.88052,42.28276],[-70.8804,42.2826],[-70.88035,42.28244],[-70.88029,42.28234],[-70.8802,42.28228],[-70.88013,42.28226],[-70.87998,42.28223],[-70.87987,42.28224],[-70.87965,42.28218],[-70.87952,42.28213],[-70.8795,42.2821],[-70.87943,42.28208],[-70.87906,42.28182],[-70.87906,42.2818],[-70.87898,42.28177],[-70.87892,42.28172],[-70.87839,42.28146],[-70.87777,42.28107],[-70.87777,42.28105],[-70.8777,42.28098],[-70.87759,42.28081],[-70.87742,42.28057],[-70.87729,42.28031],[-70.87723,42.28025],[-70.87704,42.28017],[-70.87703,42.28015],[-70.87702,42.28012],[-70.87705,42.28004],[-70.87728,42.27905],[-70.87746,42.27834],[-70.87755,42.27796],[-70.87759,42.27787],[-70.87774,42.27772],[-70.87787,42.27767],[-70.87843,42.27767],[-70.87894,42.27755],[-70.87917,42.27754],[-70.87987,42.27764],[-70.88004,42.27762],[-70.88017,42.27758],[-70.88068,42.27755],[-70.88158,42.27753],[-70.88194,42.27752],[-70.88232,42.27745],[-70.88257,42.27738],[-70.88275,42.27731],[-70.88316,42.27721],[-70.8834,42.27716],[-70.88433,42.27714],[-70.88463,42.27716],[-70.88511,42.27723],[-70.88564,42.27735],[-70.88596,42.27739],[-70.88661,42.27748],[-70.88699,42.27752],[-70.88712,42.27753],[-70.88757,42.27746],[-70.88777,42.2774],[-70.88779,42.27737],[-70.88822,42.2773],[-70.88834,42.27725],[-70.88854,42.2772],[-70.88879,42.27712],[-70.88903,42.27702],[-70.88914,42.27695],[-70.88919,42.27688],[-70.88922,42.27682],[-70.88922,42.27665],[-70.88911,42.27657],[-70.88899,42.27654],[-70.88872,42.27649],[-70.88813,42.27659],[-70.88775,42.27662],[-70.88758,42.27664],[-70.88746,42.27663],[-70.8871,42.27659],[-70.88692,42.27656],[-70.88643,42.27636],[-70.88624,42.27631],[-70.8853,42.27614],[-70.88517,42.2761],[-70.88505,42.27609],[-70.88489,42.27604],[-70.88459,42.27597],[-70.88411,42.27597],[-70.88378,42.27601],[-70.88337,42.27608],[-70.88329,42.27612],[-70.88312,42.27616],[-70.8831,42.27617],[-70.88289,42.27624],[-70.88275,42.27633],[-70.8827,42.27636],[-70.88259,42.27642],[-70.88252,42.27649],[-70.88201,42.27667],[-70.88195,42.27671],[-70.88181,42.27673],[-70.88134,42.2767],[-70.88108,42.27666],[-70.88033,42.27665],[-70.88004,42.27663],[-70.87992,42.2766],[-70.87988,42.27658],[-70.87949,42.27652],[-70.87909,42.27645],[-70.87867,42.27639],[-70.87834,42.27633],[-70.87807,42.2763],[-70.87801,42.27627],[-70.87749,42.27624],[-70.87697,42.2761],[-70.87673,42.27606],[-70.87657,42.27608],[-70.87645,42.27609],[-70.87631,42.27606],[-70.8761,42.27604],[-70.87594,42.27602],[-70.87559,42.27599],[-70.87523,42.27599],[-70.87499,42.27597],[-70.87478,42.27593],[-70.87449,42.27592],[-70.87389,42.2759],[-70.87345,42.27595],[-70.87322,42.27601],[-70.87308,42.27606],[-70.87301,42.2761],[-70.87244,42.27628],[-70.87194,42.27642],[-70.87041,42.27673],[-70.86969,42.27678],[-70.86913,42.27681],[-70.86856,42.27685],[-70.86786,42.27696],[-70.86753,42.27705],[-70.86736,42.27707],[-70.86712,42.27704],[-70.86698,42.27703],[-70.86687,42.27704],[-70.86649,42.27716],[-70.86629,42.27718],[-70.86605,42.27718],[-70.86575,42.27707],[-70.86544,42.27688],[-70.86536,42.27678],[-70.86536,42.27676],[-70.86532,42.2767],[-70.86517,42.27654],[-70.86495,42.27637],[-70.86478,42.27619],[-70.86478,42.27617],[-70.86475,42.27614],[-70.86475,42.2761],[-70.86472,42.27609],[-70.86472,42.27599],[-70.86468,42.27586],[-70.86465,42.27582],[-70.86461,42.27574],[-70.86455,42.27562],[-70.8645,42.27545],[-70.86458,42.27515],[-70.86475,42.27499],[-70.86494,42.27484],[-70.8652,42.2747],[-70.86565,42.27451],[-70.86591,42.27437],[-70.86611,42.27423],[-70.86637,42.27393],[-70.8665,42.27375],[-70.86658,42.2736],[-70.86662,42.27347],[-70.86663,42.27317],[-70.86661,42.27282],[-70.86658,42.27261],[-70.86658,42.27232],[-70.86662,42.27222],[-70.86684,42.27199],[-70.86687,42.27193],[-70.86696,42.27183],[-70.86717,42.27174],[-70.86752,42.27156],[-70.86788,42.27134],[-70.868,42.27124],[-70.86809,42.27114],[-70.86817,42.27102],[-70.86817,42.27079],[-70.86814,42.27074],[-70.86778,42.27033],[-70.86716,42.26985],[-70.86657,42.26947],[-70.86592,42.26921],[-70.86518,42.26904],[-70.86443,42.26902],[-70.86364,42.26912],[-70.86208,42.26988],[-70.86192,42.27005],[-70.86202,42.27018],[-70.86269,42.27044],[-70.86368,42.27079],[-70.86387,42.27092],[-70.8639,42.27112],[-70.86375,42.27135],[-70.86327,42.27167],[-70.86152,42.27209],[-70.86121,42.27208],[-70.86028,42.27189],[-70.85936,42.2717],[-70.85934,42.27169],[-70.85897,42.27141],[-70.85884,42.27134],[-70.85867,42.27122],[-70.85852,42.27107],[-70.85851,42.27096],[-70.85854,42.27089],[-70.85858,42.27084],[-70.8586,42.27076],[-70.85857,42.27072],[-70.85842,42.27062],[-70.85831,42.27052],[-70.85828,42.27047],[-70.85831,42.27026],[-70.85871,42.27012],[-70.85889,42.27],[-70.85904,42.26992],[-70.85941,42.26981],[-70.85954,42.26975],[-70.85968,42.26966],[-70.85968,42.26959],[-70.85966,42.26956],[-70.85951,42.26944],[-70.85936,42.26936],[-70.85934,42.26935],[-70.85907,42.26939],[-70.85893,42.26942],[-70.85874,42.26951],[-70.8584,42.26964],[-70.85766,42.26979],[-70.8575,42.2698],[-70.85743,42.26978],[-70.85738,42.26974],[-70.85713,42.26954],[-70.85683,42.26945],[-70.85668,42.26947],[-70.85649,42.26947],[-70.85636,42.26938],[-70.85609,42.26897],[-70.85609,42.26895],[-70.85606,42.26892],[-70.85596,42.26874],[-70.85593,42.2687],[-70.85591,42.26865],[-70.85588,42.26862],[-70.85573,42.26826],[-70.85573,42.26817],[-70.85569,42.26801],[-70.85566,42.26771],[-70.85569,42.26736],[-70.85573,42.26721],[-70.85583,42.26697],[-70.85596,42.2667],[-70.8561,42.26646],[-70.85623,42.2663],[-70.85646,42.26608],[-70.85694,42.2657],[-70.85696,42.26567],[-70.85701,42.26561],[-70.85791,42.26495],[-70.85841,42.26463],[-70.85859,42.26462],[-70.85869,42.26465],[-70.85877,42.26469],[-70.85883,42.265],[-70.85885,42.26538],[-70.85886,42.2655],[-70.85889,42.26551],[-70.85891,42.26557],[-70.85895,42.2656],[-70.85901,42.26568],[-70.85901,42.2658],[-70.8589,42.26587],[-70.8589,42.26599],[-70.85895,42.26604],[-70.85893,42.26611],[-70.85892,42.26618],[-70.85893,42.26623],[-70.85904,42.2663],[-70.85913,42.26633],[-70.85944,42.26631],[-70.85967,42.26638],[-70.85974,42.26639],[-70.85997,42.2663],[-70.86019,42.2663],[-70.86032,42.26631],[-70.86054,42.26626],[-70.86106,42.26616],[-70.86155,42.26608],[-70.86164,42.26607],[-70.86179,42.26606],[-70.86277,42.26596],[-70.8629,42.26603],[-70.86303,42.26612],[-70.86318,42.26629],[-70.86318,42.26646],[-70.86297,42.2666],[-70.86267,42.26673],[-70.86258,42.2668],[-70.86257,42.2669],[-70.86261,42.26696],[-70.86316,42.26699],[-70.86333,42.26698],[-70.86351,42.26702],[-70.86367,42.26707],[-70.86383,42.2671],[-70.86396,42.26711],[-70.86397,42.26709],[-70.86413,42.26704],[-70.8643,42.26701],[-70.86448,42.26696],[-70.86449,42.2668],[-70.86441,42.26673],[-70.86386,42.2667],[-70.8638,42.26668],[-70.8637,42.26661],[-70.86368,42.2665],[-70.86374,42.26638],[-70.8638,42.26633],[-70.86391,42.26631],[-70.86395,42.26633],[-70.86411,42.26632],[-70.86457,42.26612],[-70.86464,42.26607],[-70.86468,42.266],[-70.86445,42.26586],[-70.86444,42.26579],[-70.86447,42.26575],[-70.86448,42.26568],[-70.86444,42.26563],[-70.86428,42.2655],[-70.86393,42.26529],[-70.86387,42.26524],[-70.86387,42.26514],[-70.86394,42.26502],[-70.86396,42.26492],[-70.86402,42.26483],[-70.86417,42.26475],[-70.86444,42.26471],[-70.86481,42.26464],[-70.86516,42.26449],[-70.86545,42.26428],[-70.866,42.26408],[-70.86644,42.2639],[-70.86689,42.26362],[-70.86705,42.2635],[-70.86718,42.26343],[-70.86736,42.2633],[-70.86746,42.26326],[-70.86747,42.26321],[-70.8676,42.26308],[-70.8677,42.26295],[-70.8677,42.26284],[-70.86765,42.26275],[-70.86766,42.26256],[-70.86767,42.26252],[-70.86769,42.26238],[-70.86769,42.26231],[-70.86766,42.26224],[-70.86765,42.2622],[-70.86761,42.26216],[-70.86751,42.26211],[-70.86727,42.26213],[-70.86687,42.26215],[-70.86671,42.26218],[-70.86656,42.26218],[-70.86641,42.26213],[-70.86613,42.26192],[-70.86609,42.26185],[-70.86604,42.26174],[-70.86603,42.26166],[-70.86607,42.26158],[-70.86613,42.26149],[-70.86649,42.26135],[-70.86661,42.26125],[-70.86661,42.26116],[-70.86653,42.26106],[-70.86642,42.26103],[-70.86623,42.26104],[-70.86581,42.26116],[-70.86568,42.26118],[-70.8655,42.26114],[-70.86541,42.26109],[-70.86523,42.26104],[-70.86513,42.26104],[-70.86466,42.26118],[-70.86452,42.26118],[-70.86434,42.26111],[-70.86413,42.26108],[-70.8639,42.26111],[-70.86372,42.26071],[-70.86436,42.26061],[-70.86455,42.2606],[-70.86483,42.26063],[-70.86506,42.26065],[-70.86528,42.26061],[-70.86546,42.26056],[-70.86556,42.26049],[-70.86563,42.26039],[-70.86566,42.2603],[-70.86567,42.26019],[-70.8656,42.26013],[-70.86553,42.26011],[-70.86542,42.26011],[-70.86513,42.26018],[-70.86493,42.2602],[-70.86474,42.26013],[-70.86455,42.25999],[-70.86442,42.25984],[-70.86435,42.2598],[-70.86425,42.25977],[-70.86384,42.25975],[-70.86373,42.25972],[-70.86365,42.25967],[-70.86362,42.25962],[-70.86362,42.25956],[-70.8636,42.25949],[-70.86352,42.25944],[-70.86319,42.25938],[-70.86315,42.25938],[-70.86305,42.25937],[-70.86296,42.2594],[-70.86281,42.25951],[-70.86267,42.2596],[-70.86241,42.25965],[-70.86198,42.25972],[-70.86135,42.25989],[-70.86118,42.26004],[-70.86103,42.26008],[-70.86082,42.26011],[-70.86063,42.2601],[-70.86041,42.25999],[-70.86025,42.25993],[-70.86008,42.25994],[-70.85966,42.26007],[-70.85968,42.26032],[-70.85966,42.26035],[-70.85955,42.26044],[-70.85934,42.26052],[-70.85905,42.26057],[-70.85895,42.26056],[-70.85896,42.26048],[-70.85898,42.26046],[-70.85898,42.26037],[-70.85888,42.26027],[-70.85869,42.26023],[-70.85859,42.26025],[-70.85834,42.26037],[-70.85824,42.26028],[-70.85826,42.26018],[-70.85828,42.26015],[-70.8583,42.26002],[-70.85826,42.25998],[-70.85808,42.25993],[-70.85807,42.25987],[-70.85821,42.25971],[-70.85846,42.25938],[-70.8585,42.25934],[-70.85852,42.25925],[-70.85847,42.2592],[-70.85839,42.25919],[-70.85831,42.25921],[-70.85817,42.25931],[-70.85786,42.25948],[-70.85771,42.2596],[-70.85758,42.2597],[-70.85744,42.25985],[-70.85737,42.2599],[-70.85737,42.25991],[-70.85722,42.26002],[-70.85712,42.26003],[-70.85711,42.25997],[-70.85719,42.25991],[-70.85719,42.25989],[-70.85726,42.25982],[-70.85725,42.25969],[-70.85718,42.25961],[-70.85704,42.25954],[-70.8569,42.2595],[-70.85683,42.25945],[-70.85676,42.25934],[-70.85666,42.25931],[-70.85649,42.25932],[-70.8562,42.25941],[-70.85596,42.25949],[-70.85586,42.25958],[-70.85587,42.2597],[-70.85592,42.2598],[-70.85594,42.25993],[-70.8559,42.26004],[-70.85572,42.26025],[-70.85569,42.2603],[-70.85556,42.26045],[-70.8555,42.26054],[-70.85548,42.26059],[-70.8555,42.26086],[-70.85544,42.26098],[-70.85545,42.26114],[-70.85544,42.26138],[-70.85537,42.26155],[-70.85527,42.26164],[-70.85508,42.26183],[-70.85487,42.262],[-70.85487,42.26207],[-70.85489,42.2621],[-70.85488,42.26221],[-70.85481,42.26231],[-70.8545,42.26253],[-70.85435,42.2626],[-70.85427,42.26259],[-70.85426,42.26255],[-70.85427,42.26248],[-70.85431,42.26241],[-70.85431,42.26227],[-70.85424,42.26218],[-70.85398,42.262],[-70.85389,42.2619],[-70.85388,42.26188],[-70.85377,42.26185],[-70.85349,42.26185],[-70.85343,42.26183],[-70.85334,42.26174],[-70.85323,42.26162],[-70.85314,42.26159],[-70.85305,42.2616],[-70.85295,42.26169],[-70.85277,42.26187],[-70.85269,42.2619],[-70.85258,42.26191],[-70.8525,42.26187],[-70.85233,42.26173],[-70.8522,42.26168],[-70.85194,42.2617],[-70.85178,42.26176],[-70.85168,42.26181],[-70.85153,42.26174],[-70.85157,42.26164],[-70.85159,42.26153],[-70.85164,42.26147],[-70.8517,42.26143],[-70.85206,42.26144],[-70.8523,42.26141],[-70.8524,42.26144],[-70.85261,42.26157],[-70.85268,42.26156],[-70.85273,42.26154],[-70.85289,42.26124],[-70.85298,42.26117],[-70.85306,42.26114],[-70.85318,42.26112],[-70.85326,42.26092],[-70.85324,42.26068],[-70.85313,42.26045],[-70.8531,42.26039],[-70.85295,42.26022],[-70.85293,42.26018],[-70.85287,42.26012],[-70.85282,42.26004],[-70.85279,42.26002],[-70.85276,42.25983],[-70.85269,42.25984],[-70.85257,42.25982],[-70.85248,42.25976],[-70.85245,42.25971],[-70.85247,42.25964],[-70.85251,42.25961],[-70.85254,42.25961],[-70.85256,42.25955],[-70.85254,42.25949],[-70.8525,42.25942],[-70.85246,42.25937],[-70.85235,42.25935],[-70.85221,42.25937],[-70.85206,42.25937],[-70.85188,42.25934],[-70.85179,42.25935],[-70.85166,42.25932],[-70.85152,42.25929],[-70.85141,42.25927],[-70.85115,42.2592],[-70.8511,42.25918],[-70.85103,42.25914],[-70.85096,42.25911],[-70.85089,42.25909],[-70.85082,42.25907],[-70.85071,42.25908],[-70.85065,42.2591],[-70.85055,42.25915],[-70.85042,42.25917],[-70.85032,42.25917],[-70.85029,42.2592],[-70.85023,42.25918],[-70.85015,42.25917],[-70.85009,42.25914],[-70.84998,42.25911],[-70.84992,42.25908],[-70.8498,42.25905],[-70.8497,42.25901],[-70.8496,42.25898],[-70.84953,42.25897],[-70.84946,42.25899],[-70.8494,42.25902],[-70.84937,42.25903],[-70.84929,42.25901],[-70.84917,42.25899],[-70.84908,42.25898],[-70.84898,42.25897],[-70.84892,42.25893],[-70.84882,42.25888],[-70.84874,42.25884],[-70.84864,42.2588],[-70.84856,42.25876],[-70.84843,42.25873],[-70.84836,42.25871],[-70.8483,42.2587],[-70.84822,42.25872],[-70.84812,42.25875],[-70.84803,42.25881],[-70.84794,42.25887],[-70.84782,42.25897],[-70.84773,42.25906],[-70.8477,42.25912],[-70.84768,42.25921],[-70.84771,42.25931],[-70.84773,42.25939],[-70.84773,42.25948],[-70.84774,42.25953],[-70.84773,42.25958],[-70.8477,42.25962],[-70.84764,42.25968],[-70.84758,42.25974],[-70.84751,42.2598],[-70.84744,42.25989],[-70.84738,42.25995],[-70.84734,42.25997],[-70.84728,42.25998],[-70.84723,42.25998],[-70.84717,42.25998],[-70.84708,42.25998],[-70.84702,42.25999],[-70.84697,42.25998],[-70.8469,42.26001],[-70.84685,42.26004],[-70.84682,42.26004],[-70.84677,42.26002],[-70.84673,42.26003],[-70.84668,42.26003],[-70.84663,42.26002],[-70.84658,42.26005],[-70.84653,42.26007],[-70.84649,42.26008],[-70.84646,42.26008],[-70.84643,42.26011],[-70.8464,42.26013],[-70.84636,42.26013],[-70.84615,42.26014],[-70.84595,42.26018],[-70.84584,42.26017],[-70.84579,42.26019],[-70.84576,42.26022],[-70.84574,42.26026],[-70.84572,42.26029],[-70.84567,42.26033],[-70.84562,42.26038],[-70.84558,42.26043],[-70.84554,42.26047],[-70.8456,42.26002],[-70.8455,42.26009],[-70.84522,42.26026],[-70.84517,42.26026],[-70.84515,42.26025],[-70.84514,42.26024],[-70.84476,42.26044],[-70.84463,42.26043],[-70.84459,42.26043],[-70.84442,42.26042],[-70.84419,42.26042],[-70.84377,42.26045],[-70.84374,42.26048],[-70.84371,42.2605],[-70.84371,42.26052],[-70.8436,42.26052],[-70.8431,42.26054],[-70.84308,42.26054],[-70.84305,42.26054],[-70.84257,42.26056],[-70.8424,42.26056],[-70.84211,42.26061],[-70.8421,42.26061],[-70.84154,42.26071],[-70.841,42.26088],[-70.84098,42.26089],[-70.84066,42.26099],[-70.84063,42.261],[-70.84048,42.26109],[-70.84018,42.26128],[-70.84017,42.26129],[-70.83971,42.26179],[-70.83961,42.26189],[-70.83931,42.26241],[-70.83927,42.26248],[-70.839,42.26315],[-70.8389,42.26325],[-70.83864,42.26351],[-70.8381,42.26379],[-70.83701,42.26431],[-70.837,42.26431],[-70.83698,42.26432],[-70.83696,42.26433],[-70.83624,42.26467],[-70.8362,42.26468],[-70.83574,42.2648],[-70.8351,42.26484],[-70.83502,42.26485],[-70.83251,42.2647],[-70.83226,42.26468],[-70.83222,42.26468],[-70.83221,42.26468],[-70.83218,42.26468],[-70.8305,42.26457],[-70.83046,42.26457],[-70.82751,42.26441],[-70.82699,42.26438],[-70.82674,42.26441],[-70.82637,42.2645],[-70.82629,42.26452],[-70.82591,42.26459],[-70.82574,42.26462],[-70.82574,42.26465],[-70.8258,42.26469],[-70.82582,42.2647],[-70.8259,42.26479],[-70.82593,42.26483],[-70.82596,42.26485],[-70.826,42.26493],[-70.82613,42.26509],[-70.82616,42.26514],[-70.82641,42.26549],[-70.82642,42.26551],[-70.82645,42.26554],[-70.82645,42.26556],[-70.82654,42.26565],[-70.82659,42.26573],[-70.82663,42.26575],[-70.82664,42.2658],[-70.82674,42.26591],[-70.82686,42.26603],[-70.82718,42.26633],[-70.82808,42.26707],[-70.82818,42.26718],[-70.82842,42.26734],[-70.82865,42.2675],[-70.82868,42.26751],[-70.82888,42.26764],[-70.82899,42.2677],[-70.82919,42.26781],[-70.82946,42.26792],[-70.82952,42.26795],[-70.82961,42.26798],[-70.8299,42.26803],[-70.83007,42.26801],[-70.83024,42.26796],[-70.8303,42.26791],[-70.83064,42.26774],[-70.83139,42.26758],[-70.83169,42.26747],[-70.83185,42.2674],[-70.83205,42.26728],[-70.83232,42.26707],[-70.83252,42.26688],[-70.83261,42.26683],[-70.83271,42.2668],[-70.83304,42.26682],[-70.83342,42.26689],[-70.83379,42.26692],[-70.83449,42.26709],[-70.83466,42.26712],[-70.83507,42.26721],[-70.83559,42.26733],[-70.83603,42.26747],[-70.83666,42.26772],[-70.83672,42.26776],[-70.8368,42.26779],[-70.8369,42.26784],[-70.83708,42.26791],[-70.83734,42.26803],[-70.83753,42.26815],[-70.83751,42.26819],[-70.83745,42.26827],[-70.83744,42.2683],[-70.83748,42.26834],[-70.83754,42.26837],[-70.83754,42.26842],[-70.83737,42.26853],[-70.83737,42.2686],[-70.83745,42.26866],[-70.83778,42.26874],[-70.83787,42.26872],[-70.83793,42.26864],[-70.83793,42.26861],[-70.83809,42.26859],[-70.83836,42.26873],[-70.83868,42.26871],[-70.83876,42.26877],[-70.83886,42.26884],[-70.8389,42.2689],[-70.83914,42.26904],[-70.83915,42.26908],[-70.83918,42.26912],[-70.83929,42.26916],[-70.83937,42.26916],[-70.83946,42.26912],[-70.83966,42.26906],[-70.83973,42.26898],[-70.83973,42.26873],[-70.83969,42.26863],[-70.83962,42.26852],[-70.83944,42.26832],[-70.83942,42.26821],[-70.83951,42.2681],[-70.83972,42.26795],[-70.83988,42.26783],[-70.84011,42.2677],[-70.84033,42.26762],[-70.84062,42.26759],[-70.84106,42.26749],[-70.84144,42.26738],[-70.84169,42.26736],[-70.84185,42.26736],[-70.84221,42.26738],[-70.84227,42.2674],[-70.8424,42.2675],[-70.84245,42.26758],[-70.84256,42.26766],[-70.84256,42.26768],[-70.84267,42.26774],[-70.84278,42.26778],[-70.84282,42.26783],[-70.84281,42.2679],[-70.84292,42.26798],[-70.84309,42.26807],[-70.84321,42.26806],[-70.84324,42.26805],[-70.84331,42.268],[-70.84334,42.26796],[-70.84339,42.26793],[-70.84355,42.26795],[-70.8438,42.26818],[-70.8439,42.26821],[-70.84406,42.26818],[-70.84416,42.26819],[-70.84429,42.26825],[-70.84458,42.2684],[-70.84491,42.26848],[-70.84518,42.2685],[-70.84539,42.26856],[-70.84551,42.26862],[-70.84565,42.26867],[-70.84573,42.26869],[-70.84586,42.26864],[-70.84591,42.26858],[-70.84596,42.26841],[-70.846,42.26838],[-70.84612,42.26836],[-70.84619,42.26838],[-70.84628,42.26843],[-70.84645,42.26865],[-70.8467,42.26874],[-70.84707,42.26873],[-70.8472,42.26867],[-70.84755,42.26858],[-70.84782,42.26857],[-70.84813,42.26861],[-70.84817,42.26865],[-70.84817,42.26885],[-70.84816,42.26891],[-70.8481,42.26898],[-70.8476,42.26901],[-70.84757,42.269],[-70.84744,42.26901],[-70.84735,42.26905],[-70.84732,42.2691],[-70.84733,42.26917],[-70.84743,42.26925],[-70.84746,42.26933],[-70.84748,42.26949],[-70.84753,42.26956],[-70.84769,42.26961],[-70.84791,42.26959],[-70.84814,42.26955],[-70.84835,42.2696],[-70.84853,42.26957],[-70.84858,42.26954],[-70.84864,42.26949],[-70.84868,42.26941],[-70.84868,42.26924],[-70.84865,42.26916],[-70.84846,42.26901],[-70.84846,42.26892],[-70.8485,42.26879],[-70.84854,42.26873],[-70.84855,42.26869],[-70.84865,42.26862],[-70.84911,42.26849],[-70.84926,42.26843],[-70.84939,42.26831],[-70.84949,42.26822],[-70.84987,42.26794],[-70.85005,42.26781],[-70.85018,42.26771],[-70.85046,42.26765],[-70.85068,42.2677],[-70.85107,42.26787],[-70.85139,42.26805],[-70.85158,42.26817],[-70.85242,42.2686],[-70.85315,42.26906],[-70.85329,42.26917],[-70.85332,42.26918],[-70.85357,42.26934],[-70.85391,42.26949],[-70.85424,42.2697],[-70.85429,42.26971],[-70.85528,42.27033],[-70.85543,42.27041],[-70.85555,42.27054],[-70.85557,42.27072],[-70.85572,42.27081],[-70.85608,42.271],[-70.85639,42.2712],[-70.85733,42.27192],[-70.85788,42.27234],[-70.85815,42.27254],[-70.85815,42.27256],[-70.85825,42.27263],[-70.85835,42.27274],[-70.85838,42.27278],[-70.85867,42.27305],[-70.85905,42.27334],[-70.85908,42.27338],[-70.86028,42.27429],[-70.8609,42.27484],[-70.86096,42.27487],[-70.86103,42.27497],[-70.86148,42.27531],[-70.86196,42.27583],[-70.86204,42.27593],[-70.86206,42.27594],[-70.86209,42.27597],[-70.86211,42.27601],[-70.86219,42.27607],[-70.86219,42.27609],[-70.86235,42.27624],[-70.86266,42.27657],[-70.86288,42.27676],[-70.86304,42.27691],[-70.86322,42.27707],[-70.86351,42.27736],[-70.86395,42.27774],[-70.86415,42.27792],[-70.86429,42.27808],[-70.8644,42.27818],[-70.86463,42.27841],[-70.86466,42.27845],[-70.86492,42.27873],[-70.86592,42.27981],[-70.86703,42.28099],[-70.86778,42.28189],[-70.86785,42.28196],[-70.86791,42.28202],[-70.86791,42.28204],[-70.86792,42.28206],[-70.86805,42.28219],[-70.86805,42.28221],[-70.86808,42.28224],[-70.86813,42.28228],[-70.86812,42.2823],[-70.86818,42.28235],[-70.8682,42.28238],[-70.86852,42.28274],[-70.86857,42.28282],[-70.86866,42.28291],[-70.86869,42.28296],[-70.86879,42.28305],[-70.86882,42.2831],[-70.86899,42.2833],[-70.86967,42.28411],[-70.87078,42.28549],[-70.87084,42.28555],[-70.87084,42.28558],[-70.87099,42.28574],[-70.87101,42.28579],[-70.87112,42.28591],[-70.87117,42.286],[-70.87121,42.28602],[-70.87125,42.28609],[-70.87128,42.28612],[-70.87131,42.28616],[-70.87145,42.28636],[-70.87152,42.28642],[-70.87158,42.2865],[-70.87158,42.28652],[-70.87172,42.28668],[-70.87175,42.28674],[-70.87182,42.28682],[-70.87183,42.28686],[-70.87194,42.28698],[-70.87194,42.287],[-70.87197,42.28703],[-70.87205,42.28716],[-70.87209,42.2872],[-70.87212,42.28726],[-70.87218,42.28732],[-70.87225,42.28743],[-70.87234,42.28754],[-70.87234,42.28756],[-70.87252,42.28782],[-70.87252,42.28784],[-70.87299,42.28852],[-70.87299,42.28855],[-70.87313,42.28875],[-70.87313,42.28878],[-70.8732,42.28886],[-70.87339,42.28915],[-70.87339,42.28917],[-70.87343,42.2892],[-70.87346,42.28927],[-70.87348,42.28929],[-70.87348,42.28931],[-70.87377,42.28975],[-70.87384,42.28986],[-70.87391,42.28998],[-70.87417,42.29037],[-70.87422,42.29044],[-70.87435,42.29065],[-70.87439,42.29072],[-70.87449,42.29088],[-70.87462,42.29109],[-70.87484,42.2914],[-70.87521,42.29199],[-70.87533,42.29218],[-70.87547,42.29245],[-70.87573,42.29284],[-70.87576,42.29289],[-70.87588,42.29305],[-70.87653,42.29405],[-70.87733,42.29526],[-70.8775,42.29553],[-70.8776,42.29571],[-70.87766,42.29577],[-70.87788,42.29612],[-70.87794,42.29619],[-70.87801,42.2963],[-70.87801,42.29632],[-70.87812,42.29648],[-70.87818,42.29657],[-70.87828,42.29672],[-70.87828,42.29674],[-70.87849,42.29704],[-70.87849,42.29706],[-70.87852,42.29709],[-70.87856,42.29716],[-70.87859,42.29718],[-70.87864,42.29728],[-70.87882,42.29754],[-70.87885,42.29756],[-70.87892,42.29768],[-70.87896,42.29774],[-70.87896,42.29776],[-70.87904,42.29786],[-70.87914,42.29799],[-70.87914,42.29801],[-70.87961,42.29865],[-70.87969,42.29872],[-70.87971,42.29877],[-70.87976,42.2988],[-70.87979,42.29885],[-70.87986,42.29891],[-70.87986,42.29894],[-70.87989,42.29896],[-70.88009,42.29924],[-70.88031,42.29954],[-70.88036,42.29963],[-70.88041,42.29967],[-70.88045,42.29973],[-70.88048,42.29983],[-70.88052,42.2999],[-70.88057,42.30001],[-70.8806,42.30005],[-70.8806,42.30008],[-70.88064,42.30011],[-70.88064,42.30015],[-70.88068,42.30021],[-70.8808,42.30049],[-70.88085,42.30061],[-70.88087,42.30062],[-70.88087,42.30065],[-70.88089,42.30066],[-70.8809,42.30071],[-70.88092,42.30073],[-70.88092,42.30075],[-70.88097,42.30086],[-70.88099,42.30087],[-70.88101,42.30095],[-70.88104,42.30098],[-70.88104,42.30101],[-70.88106,42.30102],[-70.88109,42.3011],[-70.88116,42.30124],[-70.88117,42.3013],[-70.88122,42.30136],[-70.88123,42.30141],[-70.88125,42.30142],[-70.88126,42.30147],[-70.88129,42.30153],[-70.88135,42.30167],[-70.88136,42.30169],[-70.88139,42.30179],[-70.88142,42.30181],[-70.88145,42.30192],[-70.88148,42.30196],[-70.8815,42.30201],[-70.88154,42.30212],[-70.88157,42.30216],[-70.88158,42.30221],[-70.88161,42.30225],[-70.88162,42.30229],[-70.88164,42.30232],[-70.88165,42.30237],[-70.88167,42.30239],[-70.88167,42.30243],[-70.88173,42.30258],[-70.88186,42.30287],[-70.88186,42.30289],[-70.88188,42.30291],[-70.88197,42.30317],[-70.88208,42.30344],[-70.8821,42.30345],[-70.88211,42.30351],[-70.88213,42.30352],[-70.88215,42.30362],[-70.88217,42.30364],[-70.88219,42.3037],[-70.88231,42.304],[-70.88232,42.30401],[-70.88233,42.30405],[-70.88238,42.30419],[-70.8824,42.30427],[-70.88242,42.30429],[-70.88248,42.30448],[-70.88255,42.30464],[-70.88255,42.30469],[-70.88258,42.30471],[-70.88259,42.30479],[-70.88267,42.30498],[-70.88268,42.30502],[-70.88268,42.30506],[-70.88274,42.3052],[-70.88275,42.30527],[-70.88277,42.30529],[-70.8828,42.30544],[-70.88282,42.30545],[-70.88284,42.30559],[-70.88288,42.30575],[-70.88291,42.30589],[-70.88297,42.30614],[-70.88298,42.30623],[-70.88305,42.30658],[-70.88324,42.30747],[-70.88323,42.30774],[-70.88318,42.30789],[-70.88307,42.30815],[-70.88289,42.30839],[-70.8828,42.30849],[-70.88264,42.30859],[-70.88233,42.30875],[-70.88221,42.30882],[-70.8821,42.30888],[-70.88195,42.30902],[-70.88178,42.30929],[-70.88175,42.3094],[-70.88176,42.30947],[-70.88177,42.30955],[-70.8818,42.30958],[-70.88181,42.3097],[-70.88184,42.30971],[-70.88183,42.30975]]],[[[-70.85201,42.25892],[-70.85192,42.25894],[-70.85203,42.25893],[-70.85206,42.25891],[-70.85201,42.25892]]],[[[-70.83097,42.26899],[-70.83342,42.26926],[-70.83343,42.26928],[-70.8335,42.26928],[-70.83372,42.26935],[-70.83384,42.26935],[-70.83389,42.26924],[-70.83376,42.26916],[-70.8336,42.26911],[-70.83089,42.26877],[-70.8304,42.26879],[-70.83002,42.26885],[-70.82998,42.26887],[-70.82999,42.26898],[-70.83009,42.26908],[-70.83023,42.26914],[-70.83037,42.26918],[-70.83052,42.26915],[-70.83059,42.26911],[-70.83065,42.26904],[-70.83077,42.26898],[-70.83097,42.26899]]],[[[-70.8235,42.26982],[-70.82373,42.26995],[-70.8239,42.26992],[-70.82403,42.26982],[-70.82417,42.26978],[-70.82441,42.26972],[-70.82457,42.26962],[-70.82463,42.26957],[-70.82463,42.26954],[-70.8247,42.26947],[-70.82474,42.26944],[-70.8249,42.26944],[-70.82509,42.26951],[-70.82527,42.26953],[-70.82552,42.26951],[-70.82563,42.26947],[-70.82567,42.26939],[-70.82567,42.26908],[-70.82564,42.26903],[-70.8256,42.269],[-70.82545,42.26896],[-70.82508,42.26898],[-70.8248,42.26902],[-70.82466,42.26901],[-70.82457,42.26898],[-70.82447,42.2689],[-70.8244,42.26889],[-70.8242,42.2689],[-70.82407,42.26896],[-70.82374,42.26898],[-70.82353,42.26903],[-70.82346,42.26906],[-70.82338,42.26917],[-70.82336,42.2692],[-70.82337,42.26926],[-70.82344,42.2693],[-70.82354,42.26932],[-70.82358,42.26935],[-70.82358,42.26942],[-70.82344,42.26947],[-70.82327,42.26952],[-70.82309,42.26964],[-70.8231,42.26968],[-70.82313,42.26973],[-70.82319,42.26977],[-70.82336,42.26977],[-70.8235,42.26982]]],[[[-70.8394,42.26961],[-70.8394,42.26971],[-70.83953,42.26986],[-70.8397,42.26999],[-70.83989,42.27019],[-70.83992,42.27025],[-70.84004,42.27033],[-70.84012,42.27031],[-70.84012,42.27023],[-70.84006,42.27015],[-70.83993,42.27004],[-70.83989,42.27],[-70.83973,42.26987],[-70.83955,42.26964],[-70.83948,42.2696],[-70.8394,42.26961]]],[[[-70.82401,42.27112],[-70.82373,42.2712],[-70.82347,42.27124],[-70.82285,42.27126],[-70.8227,42.27131],[-70.82263,42.27135],[-70.8226,42.27141],[-70.8226,42.27146],[-70.82269,42.27157],[-70.82276,42.2716],[-70.82286,42.2716],[-70.82292,42.2716],[-70.823,42.27162],[-70.82306,42.27167],[-70.82309,42.27174],[-70.82314,42.27178],[-70.82334,42.27175],[-70.82362,42.27169],[-70.82364,42.27165],[-70.82367,42.27164],[-70.8237,42.27153],[-70.82375,42.27149],[-70.82386,42.27145],[-70.82402,42.27144],[-70.82423,42.27137],[-70.82437,42.27128],[-70.82446,42.27121],[-70.82446,42.27109],[-70.8244,42.27105],[-70.82431,42.27104],[-70.82401,42.27112]]],[[[-70.89544,42.28014],[-70.89537,42.2802],[-70.89543,42.28029],[-70.89566,42.28052],[-70.89579,42.2807],[-70.89603,42.28091],[-70.89622,42.28107],[-70.89646,42.28119],[-70.89673,42.28136],[-70.89723,42.28153],[-70.89738,42.28165],[-70.89755,42.28173],[-70.89784,42.28178],[-70.89801,42.28184],[-70.89824,42.28187],[-70.89836,42.28191],[-70.89863,42.282],[-70.89901,42.28205],[-70.89931,42.28212],[-70.89953,42.28215],[-70.89981,42.28222],[-70.90017,42.28227],[-70.90033,42.28231],[-70.90087,42.28237],[-70.90105,42.28237],[-70.90137,42.28231],[-70.90188,42.28225],[-70.90201,42.28222],[-70.90231,42.28212],[-70.9026,42.28196],[-70.90286,42.28179],[-70.90305,42.28164],[-70.90316,42.2815],[-70.90321,42.28141],[-70.90324,42.28139],[-70.90325,42.28134],[-70.90331,42.28118],[-70.90331,42.28095],[-70.90325,42.28087],[-70.90299,42.28069],[-70.90256,42.28051],[-70.90214,42.2804],[-70.90187,42.28033],[-70.9016,42.28027],[-70.90137,42.2802],[-70.90121,42.2801],[-70.90115,42.28009],[-70.90106,42.28012],[-70.90096,42.28015],[-70.90089,42.28013],[-70.90009,42.28001],[-70.89944,42.27989],[-70.89894,42.27984],[-70.89847,42.2798],[-70.89797,42.2798],[-70.89753,42.27978],[-70.89724,42.27978],[-70.89684,42.27988],[-70.89646,42.27992],[-70.89636,42.27992],[-70.89618,42.27994],[-70.89561,42.27991],[-70.89532,42.2799],[-70.89529,42.27993],[-70.89529,42.28],[-70.8953,42.28002],[-70.8954,42.28008],[-70.89544,42.28014]]],[[[-70.93684,42.29068],[-70.93681,42.2907],[-70.93646,42.29094],[-70.93632,42.29108],[-70.93626,42.29119],[-70.93624,42.29126],[-70.93621,42.29128],[-70.93619,42.29137],[-70.93615,42.29142],[-70.93611,42.29154],[-70.93604,42.29168],[-70.93593,42.29209],[-70.9359,42.29235],[-70.93586,42.29288],[-70.9358,42.29321],[-70.93576,42.29333],[-70.93573,42.29348],[-70.93566,42.29364],[-70.93564,42.29365],[-70.93563,42.2937],[-70.9356,42.29372],[-70.93534,42.2944],[-70.93531,42.29444],[-70.9353,42.29449],[-70.93525,42.29458],[-70.93524,42.29463],[-70.9352,42.29466],[-70.93519,42.29469],[-70.93514,42.29476],[-70.93514,42.2948],[-70.93509,42.29483],[-70.93503,42.29495],[-70.93499,42.295],[-70.93497,42.29503],[-70.93497,42.29506],[-70.93494,42.29509],[-70.93492,42.29514],[-70.93487,42.29521],[-70.93487,42.29523],[-70.93479,42.29533],[-70.93479,42.29535],[-70.93476,42.29538],[-70.93457,42.29562],[-70.93443,42.29578],[-70.93434,42.29587],[-70.93406,42.29608],[-70.93346,42.2964],[-70.93325,42.29648],[-70.932,42.29675],[-70.93124,42.29682],[-70.93059,42.29694],[-70.93019,42.29706],[-70.92976,42.29726],[-70.92924,42.2976],[-70.9288,42.29795],[-70.92869,42.29807],[-70.92868,42.2981],[-70.92862,42.29816],[-70.92842,42.29843],[-70.92836,42.2985],[-70.9283,42.29857],[-70.92829,42.2986],[-70.92784,42.29901],[-70.92775,42.29908],[-70.92775,42.2991],[-70.92763,42.29918],[-70.92744,42.29928],[-70.92726,42.29937],[-70.92717,42.29944],[-70.92711,42.2995],[-70.92713,42.29958],[-70.92718,42.29966],[-70.92719,42.2999],[-70.92715,42.29999],[-70.92713,42.30007],[-70.92708,42.30015],[-70.92704,42.30031],[-70.92701,42.30033],[-70.927,42.30038],[-70.92698,42.30039],[-70.92696,42.30047],[-70.92693,42.3005],[-70.92691,42.30057],[-70.92679,42.30083],[-70.92674,42.30096],[-70.92673,42.30126],[-70.92676,42.30133],[-70.92678,42.30153],[-70.9268,42.30158],[-70.92689,42.3018],[-70.92695,42.30187],[-70.92696,42.30191],[-70.92702,42.30199],[-70.92705,42.30207],[-70.92708,42.30209],[-70.92713,42.30217],[-70.92734,42.30234],[-70.92768,42.30254],[-70.92798,42.30268],[-70.9283,42.30275],[-70.9285,42.30278],[-70.92893,42.30287],[-70.9298,42.30298],[-70.93028,42.303],[-70.93066,42.30298],[-70.93103,42.30294],[-70.9316,42.30285],[-70.93228,42.30277],[-70.93335,42.30259],[-70.93356,42.30252],[-70.93391,42.30233],[-70.93426,42.30207],[-70.9347,42.30174],[-70.93504,42.30142],[-70.93518,42.30126],[-70.93535,42.30101],[-70.93543,42.30082],[-70.93549,42.3006],[-70.93552,42.30032],[-70.93554,42.30026],[-70.93555,42.29992],[-70.93552,42.29975],[-70.9355,42.29957],[-70.93532,42.29915],[-70.9353,42.29913],[-70.93524,42.29903],[-70.93521,42.29899],[-70.93519,42.29894],[-70.93518,42.2989],[-70.93516,42.29888],[-70.93508,42.2986],[-70.93497,42.29838],[-70.93493,42.29834],[-70.93489,42.29818],[-70.93482,42.29778],[-70.9348,42.29756],[-70.93485,42.29737],[-70.935,42.29682],[-70.93512,42.29648],[-70.93514,42.29643],[-70.93516,42.29641],[-70.93516,42.29638],[-70.9355,42.29579],[-70.93562,42.29565],[-70.93574,42.29547],[-70.93577,42.29545],[-70.9358,42.2954],[-70.93632,42.29481],[-70.93674,42.29437],[-70.93701,42.2941],[-70.93741,42.29379],[-70.93779,42.29351],[-70.93796,42.2934],[-70.93826,42.29328],[-70.939,42.29302],[-70.93934,42.29285],[-70.93937,42.29283],[-70.93983,42.29255],[-70.93992,42.29251],[-70.94,42.29244],[-70.9408,42.29199],[-70.94113,42.29182],[-70.94147,42.2916],[-70.94178,42.29147],[-70.94237,42.29119],[-70.94287,42.29098],[-70.94334,42.29083],[-70.94387,42.29073],[-70.94431,42.29069],[-70.94481,42.29071],[-70.94511,42.29078],[-70.94557,42.29094],[-70.94571,42.29101],[-70.94634,42.29124],[-70.94649,42.29128],[-70.94733,42.29133],[-70.94809,42.29126],[-70.94836,42.29122],[-70.94885,42.29111],[-70.94923,42.29097],[-70.94966,42.29073],[-70.94966,42.29072],[-70.9498,42.29061],[-70.94997,42.29035],[-70.95004,42.2902],[-70.95005,42.28999],[-70.95001,42.28982],[-70.94995,42.28968],[-70.94989,42.2896],[-70.94979,42.28937],[-70.94976,42.28933],[-70.94972,42.28921],[-70.94945,42.28868],[-70.94938,42.28852],[-70.94936,42.2885],[-70.94932,42.2884],[-70.9493,42.28838],[-70.94926,42.2883],[-70.94923,42.28827],[-70.94919,42.28816],[-70.94914,42.28809],[-70.94913,42.28805],[-70.94909,42.288],[-70.949,42.28779],[-70.94896,42.28774],[-70.94895,42.28768],[-70.94893,42.28765],[-70.94893,42.28762],[-70.94886,42.28753],[-70.94884,42.28745],[-70.94878,42.28737],[-70.94875,42.28728],[-70.9487,42.28723],[-70.94858,42.28705],[-70.94849,42.28696],[-70.94848,42.28693],[-70.94822,42.28671],[-70.94806,42.28667],[-70.9479,42.28667],[-70.94786,42.28668],[-70.94764,42.28672],[-70.94718,42.28691],[-70.94675,42.28721],[-70.94641,42.28751],[-70.94638,42.28752],[-70.94629,42.28763],[-70.94623,42.28777],[-70.94622,42.28785],[-70.9462,42.2879],[-70.94619,42.28815],[-70.94617,42.2882],[-70.94608,42.28833],[-70.94596,42.28841],[-70.94577,42.2885],[-70.945,42.28878],[-70.94434,42.28899],[-70.94367,42.28916],[-70.94317,42.28937],[-70.94283,42.2895],[-70.94235,42.28966],[-70.94206,42.28978],[-70.94193,42.28982],[-70.94167,42.28984],[-70.94132,42.28975],[-70.94132,42.28961],[-70.94131,42.2896],[-70.94129,42.28955],[-70.94063,42.28891],[-70.9406,42.28887],[-70.94056,42.28884],[-70.94056,42.28882],[-70.94049,42.28873],[-70.94049,42.28871],[-70.94046,42.28869],[-70.9404,42.28859],[-70.94027,42.2882],[-70.94025,42.28809],[-70.94007,42.28745],[-70.94002,42.28737],[-70.93999,42.2873],[-70.93939,42.28625],[-70.93936,42.28622],[-70.93936,42.2862],[-70.93933,42.28617],[-70.93931,42.28611],[-70.93928,42.28609],[-70.93926,42.28605],[-70.93884,42.28561],[-70.93822,42.28512],[-70.93801,42.28487],[-70.93788,42.28457],[-70.93785,42.28452],[-70.93774,42.28447],[-70.93766,42.2845],[-70.93765,42.28465],[-70.93771,42.28484],[-70.93776,42.2851],[-70.93779,42.28518],[-70.93779,42.28522],[-70.93787,42.28537],[-70.93788,42.28544],[-70.93791,42.28548],[-70.93797,42.28563],[-70.93801,42.28568],[-70.93805,42.28577],[-70.93817,42.28594],[-70.93854,42.28625],[-70.93884,42.28642],[-70.93901,42.28652],[-70.93922,42.28667],[-70.93925,42.28671],[-70.93935,42.28678],[-70.93935,42.2868],[-70.93945,42.2869],[-70.93956,42.28707],[-70.93957,42.28711],[-70.93965,42.28718],[-70.93972,42.28745],[-70.93975,42.28757],[-70.93975,42.28779],[-70.93972,42.28802],[-70.9397,42.28805],[-70.93969,42.28819],[-70.93964,42.28831],[-70.93959,42.28847],[-70.93959,42.28853],[-70.93954,42.2886],[-70.93936,42.28899],[-70.93935,42.28905],[-70.93929,42.28913],[-70.93929,42.28915],[-70.93925,42.2892],[-70.93923,42.28925],[-70.93919,42.28928],[-70.93919,42.2893],[-70.93903,42.28945],[-70.93901,42.28946],[-70.93897,42.28952],[-70.93873,42.28971],[-70.9382,42.28998],[-70.93798,42.29007],[-70.93763,42.29023],[-70.93684,42.29068]]],[[[-70.88885,42.32859],[-70.88884,42.32874],[-70.88892,42.3288],[-70.88905,42.32879],[-70.88933,42.32873],[-70.88972,42.32861],[-70.88991,42.32857],[-70.89017,42.32857],[-70.89027,42.32858],[-70.89034,42.32857],[-70.89056,42.32846],[-70.89111,42.32845],[-70.8913,42.32841],[-70.89142,42.32835],[-70.89158,42.32828],[-70.8919,42.32824],[-70.89204,42.32826],[-70.89228,42.32828],[-70.89235,42.32827],[-70.8924,42.32824],[-70.89242,42.32819],[-70.89237,42.32813],[-70.89229,42.3281],[-70.89226,42.32803],[-70.89241,42.32793],[-70.89228,42.32791],[-70.89212,42.32788],[-70.89198,42.32782],[-70.89193,42.32779],[-70.89185,42.32761],[-70.89185,42.32759],[-70.89189,42.32752],[-70.89192,42.32744],[-70.89195,42.32735],[-70.89192,42.32731],[-70.89183,42.32729],[-70.89175,42.32729],[-70.89171,42.32729],[-70.89161,42.32732],[-70.89155,42.32731],[-70.8915,42.32736],[-70.89145,42.32736],[-70.8914,42.32744],[-70.89134,42.32756],[-70.8912,42.32774],[-70.89102,42.32776],[-70.89086,42.32777],[-70.89073,42.32773],[-70.8907,42.32771],[-70.89069,42.32766],[-70.89078,42.32764],[-70.89077,42.32762],[-70.8906,42.3276],[-70.89055,42.32764],[-70.89051,42.32765],[-70.89047,42.32758],[-70.89041,42.32756],[-70.89032,42.32757],[-70.89029,42.3276],[-70.89024,42.32763],[-70.89017,42.32763],[-70.89005,42.32762],[-70.88998,42.32763],[-70.88988,42.32766],[-70.88979,42.32769],[-70.88967,42.32768],[-70.88958,42.3277],[-70.88944,42.32771],[-70.88938,42.32771],[-70.88929,42.32773],[-70.88926,42.32774],[-70.88927,42.3278],[-70.88929,42.32788],[-70.88937,42.32789],[-70.88949,42.32791],[-70.88955,42.32795],[-70.88951,42.32807],[-70.8894,42.3282],[-70.88935,42.32832],[-70.88927,42.32832],[-70.88923,42.32834],[-70.88921,42.32837],[-70.88918,42.32837],[-70.8891,42.32833],[-70.88908,42.32826],[-70.88902,42.32823],[-70.88893,42.32825],[-70.88888,42.32828],[-70.88889,42.32834],[-70.88886,42.32835],[-70.88881,42.32835],[-70.88879,42.32837],[-70.88878,42.3284],[-70.88879,42.32843],[-70.88879,42.32846],[-70.88878,42.32847],[-70.88878,42.32853],[-70.88885,42.32859]]],[[[-70.896,42.33102],[-70.896,42.33121],[-70.89592,42.33145],[-70.89589,42.33156],[-70.89584,42.33164],[-70.89579,42.33178],[-70.89576,42.3318],[-70.89574,42.33188],[-70.89569,42.33195],[-70.89553,42.33232],[-70.8955,42.33242],[-70.89542,42.33261],[-70.89542,42.33265],[-70.89539,42.33267],[-70.89538,42.33272],[-70.89532,42.33294],[-70.89523,42.33316],[-70.8952,42.33327],[-70.89514,42.33344],[-70.89511,42.33357],[-70.89509,42.33361],[-70.89504,42.33372],[-70.89501,42.33382],[-70.89498,42.33386],[-70.89497,42.33395],[-70.89487,42.33405],[-70.89467,42.33419],[-70.89453,42.33427],[-70.89398,42.33467],[-70.89398,42.33481],[-70.89407,42.33499],[-70.89417,42.33509],[-70.89427,42.33512],[-70.89447,42.33512],[-70.89489,42.33507],[-70.89497,42.33505],[-70.89507,42.33504],[-70.89524,42.33498],[-70.89532,42.33497],[-70.89536,42.33494],[-70.89543,42.33492],[-70.89547,42.33487],[-70.89551,42.33475],[-70.89554,42.33469],[-70.89565,42.33463],[-70.89599,42.33457],[-70.89623,42.3345],[-70.89643,42.33441],[-70.89678,42.33416],[-70.89688,42.33402],[-70.89694,42.3339],[-70.89701,42.33375],[-70.89704,42.33354],[-70.89702,42.33327],[-70.89698,42.33314],[-70.89694,42.33306],[-70.89694,42.33287],[-70.89713,42.33262],[-70.89716,42.3326],[-70.89718,42.33256],[-70.89723,42.3325],[-70.89724,42.33247],[-70.89733,42.33237],[-70.8974,42.33225],[-70.89746,42.33218],[-70.8975,42.33205],[-70.89755,42.33198],[-70.89756,42.33194],[-70.89766,42.33179],[-70.89802,42.33142],[-70.8982,42.33127],[-70.89863,42.33094],[-70.89888,42.33077],[-70.89944,42.33036],[-70.89952,42.33029],[-70.89952,42.33023],[-70.89948,42.33021],[-70.89938,42.3302],[-70.89926,42.33025],[-70.89897,42.33046],[-70.89888,42.3305],[-70.89863,42.33066],[-70.89839,42.33079],[-70.89821,42.33082],[-70.89807,42.33079],[-70.89761,42.33057],[-70.8976,42.33053],[-70.8975,42.33043],[-70.89746,42.33041],[-70.89733,42.33038],[-70.89703,42.33035],[-70.89669,42.33037],[-70.89666,42.33035],[-70.89641,42.3304],[-70.89618,42.33041],[-70.8961,42.33044],[-70.89605,42.33057],[-70.896,42.33102]]],[[[-70.88667,42.33974],[-70.88671,42.33978],[-70.88674,42.33983],[-70.88679,42.33986],[-70.88732,42.33986],[-70.8874,42.33984],[-70.88744,42.33973],[-70.88752,42.33972],[-70.88761,42.33974],[-70.8877,42.33975],[-70.88779,42.33972],[-70.88783,42.33968],[-70.88784,42.33964],[-70.88796,42.33962],[-70.88808,42.3396],[-70.88824,42.33951],[-70.88833,42.33949],[-70.8884,42.33954],[-70.88845,42.33957],[-70.88871,42.33957],[-70.88887,42.33954],[-70.88903,42.33949],[-70.88925,42.33935],[-70.88946,42.33933],[-70.88957,42.3393],[-70.88971,42.33928],[-70.88978,42.33931],[-70.88994,42.33929],[-70.89051,42.33911],[-70.89062,42.33902],[-70.89081,42.33901],[-70.89107,42.33893],[-70.89127,42.3389],[-70.89153,42.33881],[-70.89169,42.33872],[-70.8917,42.33866],[-70.89159,42.3386],[-70.89161,42.33853],[-70.89172,42.3385],[-70.8918,42.33847],[-70.89191,42.33838],[-70.89192,42.33832],[-70.89182,42.3383],[-70.89123,42.33828],[-70.8909,42.3382],[-70.8908,42.33819],[-70.89059,42.3382],[-70.89006,42.33832],[-70.88998,42.33832],[-70.88995,42.33834],[-70.88982,42.33835],[-70.88974,42.33838],[-70.8888,42.33844],[-70.8882,42.33841],[-70.88737,42.33837],[-70.88716,42.33833],[-70.887,42.33834],[-70.88662,42.33846],[-70.88628,42.33848],[-70.88605,42.33857],[-70.88598,42.33862],[-70.88593,42.33868],[-70.88579,42.33882],[-70.88569,42.33889],[-70.88541,42.33896],[-70.88522,42.33903],[-70.88498,42.33923],[-70.88498,42.33927],[-70.88498,42.33933],[-70.88501,42.3394],[-70.88508,42.33943],[-70.88528,42.33949],[-70.88534,42.3395],[-70.88541,42.33955],[-70.88552,42.33959],[-70.88571,42.33953],[-70.88582,42.33954],[-70.88593,42.3396],[-70.88605,42.33971],[-70.88615,42.33981],[-70.88624,42.33983],[-70.88639,42.33981],[-70.88654,42.3397],[-70.88661,42.33971],[-70.88667,42.33974]]],[[[-70.88338,42.34005],[-70.88328,42.34013],[-70.88317,42.34016],[-70.8831,42.34031],[-70.88309,42.34041],[-70.88317,42.34042],[-70.88332,42.34037],[-70.88343,42.34034],[-70.88347,42.34029],[-70.88347,42.34017],[-70.8835,42.34013],[-70.8835,42.34007],[-70.88347,42.34004],[-70.88338,42.34005]]],[[[-70.88266,42.34025],[-70.88244,42.34029],[-70.8822,42.3403],[-70.88205,42.34033],[-70.88179,42.34052],[-70.88183,42.34067],[-70.88185,42.34072],[-70.88189,42.34074],[-70.88206,42.34079],[-70.88215,42.34078],[-70.88237,42.34071],[-70.88257,42.34058],[-70.88263,42.34053],[-70.88274,42.34043],[-70.88293,42.34029],[-70.88295,42.34024],[-70.88286,42.34023],[-70.88266,42.34025]]],[[[-70.89357,42.34188],[-70.89355,42.34194],[-70.89356,42.34202],[-70.89359,42.34202],[-70.89367,42.34201],[-70.89372,42.34199],[-70.89378,42.34194],[-70.89378,42.34184],[-70.8936,42.34182],[-70.89357,42.34188]]],[[[-70.87487,42.34356],[-70.875,42.3436],[-70.8752,42.34367],[-70.87534,42.3437],[-70.87546,42.34369],[-70.87549,42.34368],[-70.87565,42.34368],[-70.8759,42.3436],[-70.87599,42.34351],[-70.87601,42.34345],[-70.876,42.34334],[-70.87597,42.34322],[-70.876,42.3432],[-70.876,42.34317],[-70.87605,42.34309],[-70.87608,42.34281],[-70.87616,42.34282],[-70.8762,42.34289],[-70.87623,42.34306],[-70.87629,42.34313],[-70.87631,42.34313],[-70.87637,42.34324],[-70.87639,42.34334],[-70.87644,42.34339],[-70.87653,42.34339],[-70.87667,42.34336],[-70.87673,42.34339],[-70.87686,42.34337],[-70.87697,42.34332],[-70.87717,42.34331],[-70.87721,42.34329],[-70.87725,42.34325],[-70.87729,42.34311],[-70.87738,42.34305],[-70.87741,42.34305],[-70.87742,42.34302],[-70.87749,42.34297],[-70.87758,42.34288],[-70.8776,42.34279],[-70.87752,42.34272],[-70.87751,42.34262],[-70.8776,42.34252],[-70.87777,42.34246],[-70.87791,42.34245],[-70.87798,42.34248],[-70.87802,42.34253],[-70.87814,42.34254],[-70.8783,42.34259],[-70.87849,42.34258],[-70.87865,42.34254],[-70.87875,42.34255],[-70.87876,42.3426],[-70.87882,42.34261],[-70.87893,42.34259],[-70.87904,42.3426],[-70.87906,42.34262],[-70.8791,42.34257],[-70.87942,42.34252],[-70.87977,42.34241],[-70.88015,42.34225],[-70.88027,42.34216],[-70.88065,42.34211],[-70.88059,42.34204],[-70.88058,42.342],[-70.88066,42.34195],[-70.88084,42.34188],[-70.88111,42.34169],[-70.88111,42.3415],[-70.88114,42.34147],[-70.8813,42.34142],[-70.8816,42.34138],[-70.88168,42.34134],[-70.88168,42.34119],[-70.8817,42.34116],[-70.88184,42.34106],[-70.88184,42.34099],[-70.88178,42.34097],[-70.88165,42.34097],[-70.8814,42.34103],[-70.88098,42.34119],[-70.88074,42.34121],[-70.88062,42.34117],[-70.88036,42.341],[-70.88023,42.34095],[-70.88009,42.34097],[-70.87995,42.34102],[-70.87991,42.34108],[-70.8799,42.34113],[-70.87985,42.34118],[-70.87975,42.34123],[-70.87964,42.34123],[-70.87926,42.34106],[-70.87906,42.34103],[-70.87858,42.34107],[-70.87819,42.34105],[-70.87789,42.34103],[-70.8776,42.34103],[-70.87729,42.34109],[-70.87697,42.34123],[-70.87677,42.34127],[-70.87659,42.34122],[-70.87655,42.34122],[-70.8764,42.3412],[-70.87628,42.34115],[-70.87615,42.34116],[-70.87605,42.34124],[-70.87604,42.34127],[-70.87598,42.34133],[-70.87582,42.34134],[-70.87573,42.34133],[-70.8756,42.34134],[-70.87553,42.34139],[-70.87547,42.34156],[-70.87549,42.34158],[-70.87562,42.34168],[-70.87565,42.34173],[-70.87565,42.34177],[-70.8756,42.34179],[-70.87549,42.3418],[-70.87526,42.34177],[-70.87514,42.34182],[-70.87511,42.3419],[-70.8751,42.34201],[-70.87497,42.34214],[-70.87475,42.34233],[-70.87466,42.34236],[-70.87449,42.34251],[-70.87439,42.34262],[-70.87438,42.34276],[-70.87439,42.34284],[-70.87443,42.34292],[-70.87465,42.34307],[-70.8747,42.34315],[-70.87469,42.34319],[-70.87459,42.34323],[-70.87424,42.34327],[-70.87401,42.34333],[-70.87396,42.34342],[-70.874,42.3435],[-70.87395,42.34355],[-70.87392,42.34359],[-70.87395,42.34364],[-70.87401,42.34365],[-70.87415,42.34365],[-70.87425,42.34364],[-70.87438,42.34365],[-70.87446,42.34365],[-70.87458,42.34358],[-70.87465,42.34356],[-70.87477,42.34355],[-70.87487,42.34356]]],[[[-70.89518,42.34408],[-70.89525,42.34407],[-70.89528,42.34408],[-70.8956,42.3439],[-70.8958,42.34377],[-70.89599,42.3437],[-70.89628,42.34366],[-70.8965,42.34358],[-70.8966,42.34352],[-70.89686,42.3433],[-70.89711,42.34307],[-70.89727,42.34289],[-70.89734,42.34284],[-70.89736,42.34277],[-70.89735,42.3427],[-70.89729,42.34264],[-70.89726,42.34261],[-70.89728,42.34256],[-70.89726,42.34253],[-70.89721,42.34249],[-70.89718,42.34249],[-70.89719,42.34236],[-70.89723,42.34233],[-70.89726,42.34229],[-70.89727,42.34224],[-70.89724,42.34221],[-70.89715,42.34218],[-70.89712,42.34204],[-70.89718,42.34201],[-70.89722,42.34195],[-70.89724,42.34186],[-70.89717,42.34183],[-70.89692,42.3418],[-70.89687,42.34173],[-70.89687,42.34158],[-70.89692,42.34146],[-70.89716,42.34127],[-70.89721,42.34109],[-70.89725,42.34098],[-70.89734,42.34081],[-70.89737,42.34071],[-70.89738,42.34062],[-70.89751,42.3406],[-70.8977,42.34064],[-70.89785,42.34061],[-70.89812,42.34043],[-70.89835,42.34033],[-70.89841,42.34027],[-70.89844,42.34021],[-70.89844,42.3401],[-70.8984,42.34005],[-70.89836,42.34003],[-70.89825,42.34002],[-70.89815,42.34002],[-70.89805,42.34007],[-70.89786,42.34009],[-70.89772,42.34006],[-70.89768,42.33996],[-70.89776,42.3399],[-70.89778,42.33985],[-70.89779,42.3398],[-70.89774,42.33974],[-70.89768,42.33969],[-70.89761,42.33965],[-70.89753,42.33963],[-70.89745,42.33962],[-70.89742,42.3396],[-70.89744,42.33956],[-70.89741,42.33952],[-70.89735,42.3395],[-70.89728,42.33945],[-70.89723,42.33939],[-70.89716,42.33934],[-70.89715,42.33928],[-70.89707,42.33922],[-70.89682,42.33905],[-70.89679,42.339],[-70.89675,42.33883],[-70.8968,42.33865],[-70.89677,42.33855],[-70.89671,42.33848],[-70.89662,42.33848],[-70.89651,42.33851],[-70.89644,42.33858],[-70.89622,42.3387],[-70.89603,42.33877],[-70.89573,42.33882],[-70.89546,42.33874],[-70.89528,42.33874],[-70.89516,42.33889],[-70.89516,42.33899],[-70.89532,42.33925],[-70.89534,42.3394],[-70.89535,42.33956],[-70.89535,42.33965],[-70.89537,42.33971],[-70.89536,42.33986],[-70.8953,42.33989],[-70.89512,42.33991],[-70.89506,42.33994],[-70.89504,42.33999],[-70.89502,42.34],[-70.89499,42.34006],[-70.89495,42.34012],[-70.89479,42.34016],[-70.89476,42.34026],[-70.89479,42.34042],[-70.89478,42.34101],[-70.89475,42.34119],[-70.89479,42.34123],[-70.89484,42.34126],[-70.89489,42.34134],[-70.89492,42.3416],[-70.89502,42.34169],[-70.89507,42.34177],[-70.895,42.3421],[-70.89496,42.3422],[-70.89485,42.34225],[-70.89482,42.3423],[-70.89463,42.34257],[-70.89464,42.34262],[-70.89472,42.34267],[-70.89514,42.34269],[-70.89541,42.34285],[-70.89542,42.34292],[-70.89549,42.34295],[-70.89561,42.34314],[-70.89561,42.34322],[-70.89559,42.34332],[-70.89553,42.34338],[-70.89538,42.34348],[-70.89535,42.3436],[-70.89535,42.34378],[-70.89533,42.34386],[-70.89519,42.34393],[-70.89512,42.34395],[-70.89509,42.34397],[-70.89511,42.34402],[-70.89518,42.34408]]],[[[-70.8819,42.35505],[-70.88186,42.35509],[-70.88184,42.35516],[-70.88177,42.35522],[-70.88177,42.35525],[-70.88177,42.35527],[-70.88189,42.35528],[-70.882,42.35517],[-70.882,42.35509],[-70.88194,42.35505],[-70.8819,42.35505]]],[[[-70.87963,42.35662],[-70.87963,42.35676],[-70.87965,42.35677],[-70.87965,42.35679],[-70.87971,42.35679],[-70.87977,42.35679],[-70.8799,42.35671],[-70.87986,42.35665],[-70.87977,42.35659],[-70.87963,42.35662]]],[[[-70.86848,42.3649],[-70.86855,42.36497],[-70.86855,42.36501],[-70.86855,42.36506],[-70.86856,42.36511],[-70.86858,42.36516],[-70.86866,42.36534],[-70.86866,42.36544],[-70.86873,42.36546],[-70.86888,42.36549],[-70.86889,42.36554],[-70.8689,42.36559],[-70.86885,42.36563],[-70.86875,42.36567],[-70.86863,42.36576],[-70.86862,42.36583],[-70.86858,42.36603],[-70.86864,42.36612],[-70.86876,42.3662],[-70.86879,42.36632],[-70.86873,42.36638],[-70.86863,42.36643],[-70.86855,42.36645],[-70.86849,42.36646],[-70.86844,42.36647],[-70.86845,42.36655],[-70.86841,42.36658],[-70.86835,42.3666],[-70.86832,42.3667],[-70.86828,42.36674],[-70.86833,42.36677],[-70.86847,42.36676],[-70.8685,42.3667],[-70.86873,42.36658],[-70.86882,42.36647],[-70.86897,42.36641],[-70.86904,42.36633],[-70.86909,42.36628],[-70.86908,42.36624],[-70.86908,42.36618],[-70.86912,42.36614],[-70.86924,42.36603],[-70.86919,42.36592],[-70.86914,42.36589],[-70.86911,42.36585],[-70.86909,42.36578],[-70.86913,42.36573],[-70.86919,42.36569],[-70.86923,42.36566],[-70.86927,42.36561],[-70.86926,42.36552],[-70.86928,42.36545],[-70.86931,42.36544],[-70.86936,42.36543],[-70.86939,42.36536],[-70.86934,42.36527],[-70.86935,42.36522],[-70.86946,42.3652],[-70.86959,42.36519],[-70.86965,42.36514],[-70.8697,42.36499],[-70.86971,42.36496],[-70.86972,42.36485],[-70.86974,42.3648],[-70.86975,42.36474],[-70.86978,42.36468],[-70.86977,42.36454],[-70.86976,42.36446],[-70.86978,42.36432],[-70.86981,42.3642],[-70.86979,42.36406],[-70.86973,42.36398],[-70.86973,42.36395],[-70.86972,42.36393],[-70.8697,42.36392],[-70.86964,42.36394],[-70.86959,42.36397],[-70.86949,42.36402],[-70.86943,42.36415],[-70.86943,42.36418],[-70.86945,42.36426],[-70.86945,42.36435],[-70.86944,42.36444],[-70.86942,42.36452],[-70.86939,42.36459],[-70.86935,42.36465],[-70.86931,42.36469],[-70.86925,42.36472],[-70.8692,42.36473],[-70.86913,42.36474],[-70.86907,42.36474],[-70.86901,42.36473],[-70.8689,42.36473],[-70.86886,42.36476],[-70.86885,42.36477],[-70.86877,42.36481],[-70.86866,42.36475],[-70.86863,42.36473],[-70.86856,42.36472],[-70.86852,42.36476],[-70.86847,42.3648],[-70.86848,42.3649]]]]}}
