{"type":"Feature","properties":{"jurisdiction":"milton-ma","name":"Milton","source":"MassGIS, Census 2020 Towns (AGOL/Census2020_Towns, layer 2)","sourceUrl":"https://arcgisserver.digital.mass.gov/arcgisserver/rest/services/AGOL/Census2020_Towns/FeatureServer/2","sourceQuery":"TOWN20='MILTON'","geoid":"2502141690","townId":189,"landAreaSqM":33697978,"waterAreaSqM":780022,"interiorPoint":[-71.0824369,42.2415589],"retrieved":"2026-08-23","crs":"EPSG:4326","coordinatePrecision":5,"note":"Verbatim from the source apart from coordinate rounding."},"geometry":{"type":"MultiPolygon","coordinates":[[[[-71.04995,42.27735],[-71.05003,42.27738],[-71.05031,42.2774],[-71.05045,42.27742],[-71.05059,42.27747],[-71.05065,42.27749],[-71.05072,42.27748],[-71.05094,42.27735],[-71.05115,42.27745],[-71.05145,42.27744],[-71.05156,42.27744],[-71.052,42.27738],[-71.05228,42.27734],[-71.0527,42.27721],[-71.05277,42.27722],[-71.05294,42.27732],[-71.05299,42.27732],[-71.05306,42.27728],[-71.05308,42.27727],[-71.0532,42.27718],[-71.05319,42.27703],[-71.05338,42.27691],[-71.05341,42.27677],[-71.05356,42.27666],[-71.05379,42.27658],[-71.05409,42.2764],[-71.0543,42.27625],[-71.05453,42.27604],[-71.05475,42.27577],[-71.05491,42.27538],[-71.05491,42.27528],[-71.05486,42.27516],[-71.05469,42.27503],[-71.05469,42.27494],[-71.05472,42.27489],[-71.05471,42.27475],[-71.05391,42.27403],[-71.0536,42.2738],[-71.0534,42.27375],[-71.05334,42.27371],[-71.05323,42.27348],[-71.0529,42.27317],[-71.05285,42.27305],[-71.05284,42.27291],[-71.05281,42.27285],[-71.0527,42.27276],[-71.05267,42.27269],[-71.05268,42.27261],[-71.05268,42.2725],[-71.05255,42.27231],[-71.05247,42.27209],[-71.05249,42.27194],[-71.05241,42.27187],[-71.05199,42.2718],[-71.05196,42.2718],[-71.05162,42.27179],[-71.05118,42.27175],[-71.05115,42.27169],[-71.05122,42.27163],[-71.05122,42.27159],[-71.05116,42.27154],[-71.05079,42.27146],[-71.05062,42.27133],[-71.05029,42.27083],[-71.05029,42.27077],[-71.05043,42.27061],[-71.05058,42.27036],[-71.05058,42.27023],[-71.05049,42.27014],[-71.05046,42.27007],[-71.05048,42.26984],[-71.05055,42.26966],[-71.05063,42.26955],[-71.05074,42.26947],[-71.05108,42.2693],[-71.05134,42.26911],[-71.05143,42.269],[-71.05142,42.26888],[-71.05119,42.26871],[-71.05107,42.26866],[-71.05096,42.26866],[-71.0507,42.26874],[-71.05046,42.26885],[-71.04963,42.26907],[-71.04937,42.26882],[-71.04876,42.26838],[-71.04874,42.2683],[-71.04879,42.26823],[-71.04896,42.26811],[-71.04916,42.26788],[-71.04918,42.26771],[-71.04912,42.26748],[-71.04913,42.26741],[-71.04922,42.26731],[-71.04952,42.26715],[-71.04962,42.26697],[-71.04961,42.26685],[-71.04944,42.26668],[-71.04981,42.2668],[-71.04981,42.26694],[-71.04968,42.26735],[-71.0495,42.26745],[-71.04938,42.26756],[-71.04941,42.26766],[-71.04954,42.26783],[-71.04954,42.268],[-71.0495,42.26813],[-71.04951,42.26826],[-71.04956,42.26833],[-71.04982,42.2685],[-71.05003,42.26851],[-71.0503,42.26843],[-71.0511,42.26802],[-71.05118,42.26803],[-71.05118,42.26812],[-71.05114,42.26817],[-71.05116,42.26829],[-71.05141,42.26848],[-71.05167,42.2686],[-71.05182,42.26872],[-71.05188,42.26892],[-71.05185,42.26922],[-71.05177,42.26936],[-71.05157,42.26953],[-71.05134,42.26965],[-71.05108,42.2698],[-71.051,42.26992],[-71.051,42.27003],[-71.05109,42.27034],[-71.05107,42.27057],[-71.05101,42.27068],[-71.05072,42.27092],[-71.0507,42.27101],[-71.05075,42.27111],[-71.05093,42.27124],[-71.05119,42.27131],[-71.05139,42.27132],[-71.05193,42.27118],[-71.05207,42.2711],[-71.05229,42.27097],[-71.05255,42.27088],[-71.05278,42.27084],[-71.05345,42.2708],[-71.05358,42.27077],[-71.05371,42.27068],[-71.05378,42.27053],[-71.05384,42.27048],[-71.05391,42.27041],[-71.05433,42.27021],[-71.05457,42.27018],[-71.05463,42.27015],[-71.05465,42.27009],[-71.05457,42.27004],[-71.0544,42.27003],[-71.05409,42.27007],[-71.05406,42.27002],[-71.05433,42.26987],[-71.05442,42.26983],[-71.0546,42.26981],[-71.05467,42.26971],[-71.05484,42.26964],[-71.05494,42.26956],[-71.05494,42.26934],[-71.05505,42.26924],[-71.05687,42.26861],[-71.05744,42.26853],[-71.05767,42.26853],[-71.05777,42.2685],[-71.05795,42.26842],[-71.05809,42.26832],[-71.05811,42.26823],[-71.05803,42.26818],[-71.05766,42.26819],[-71.05717,42.26798],[-71.05691,42.26797],[-71.05643,42.26785],[-71.05629,42.26785],[-71.05603,42.26793],[-71.05555,42.26793],[-71.05568,42.26769],[-71.05592,42.26769],[-71.05614,42.26761],[-71.05632,42.26746],[-71.05638,42.26736],[-71.05645,42.26733],[-71.05649,42.26737],[-71.05649,42.26746],[-71.05655,42.26751],[-71.05672,42.2675],[-71.05718,42.26765],[-71.05745,42.26769],[-71.05766,42.26776],[-71.0578,42.26776],[-71.05787,42.26772],[-71.05791,42.26765],[-71.05792,42.26741],[-71.05797,42.26725],[-71.05802,42.26717],[-71.05813,42.26707],[-71.0585,42.26703],[-71.0587,42.26704],[-71.05883,42.2671],[-71.05899,42.2672],[-71.05903,42.2672],[-71.0591,42.26716],[-71.05917,42.267],[-71.05927,42.26693],[-71.05942,42.26688],[-71.05956,42.26685],[-71.05988,42.26688],[-71.06033,42.26701],[-71.06047,42.2669],[-71.06065,42.26684],[-71.06139,42.26667],[-71.06185,42.26661],[-71.06224,42.26662],[-71.06272,42.26671],[-71.06306,42.26684],[-71.06362,42.2671],[-71.06392,42.26727],[-71.06415,42.26744],[-71.06425,42.26753],[-71.06452,42.26778],[-71.0653,42.26834],[-71.06533,42.26839],[-71.06533,42.2685],[-71.0652,42.26863],[-71.0652,42.2687],[-71.06537,42.26905],[-71.06537,42.26931],[-71.0654,42.26937],[-71.06543,42.26942],[-71.0658,42.26967],[-71.0658,42.2697],[-71.06576,42.26973],[-71.06515,42.26989],[-71.065,42.26996],[-71.06498,42.27008],[-71.06514,42.27044],[-71.06532,42.27065],[-71.06543,42.27073],[-71.06547,42.27077],[-71.06563,42.27089],[-71.06597,42.27106],[-71.06627,42.27113],[-71.06675,42.27116],[-71.06746,42.27134],[-71.06771,42.27133],[-71.06786,42.27111],[-71.06807,42.27093],[-71.0681,42.2709],[-71.06812,42.27088],[-71.06834,42.27074],[-71.06843,42.27069],[-71.06868,42.27064],[-71.06897,42.27055],[-71.06899,42.27054],[-71.06933,42.27054],[-71.0698,42.27051],[-71.07062,42.27051],[-71.07097,42.27057],[-71.07137,42.27067],[-71.07176,42.27069],[-71.07224,42.27059],[-71.07253,42.27047],[-71.07295,42.27025],[-71.07319,42.27024],[-71.07323,42.27024],[-71.07372,42.27018],[-71.07447,42.27019],[-71.07567,42.27001],[-71.07589,42.27002],[-71.07597,42.27007],[-71.07689,42.26986],[-71.07715,42.26975],[-71.0776,42.26964],[-71.07869,42.26941],[-71.07953,42.2692],[-71.07973,42.26917],[-71.07999,42.26909],[-71.08037,42.26899],[-71.08125,42.26864],[-71.08283,42.2682],[-71.08299,42.26818],[-71.0833,42.26824],[-71.08373,42.26833],[-71.08412,42.26859],[-71.08441,42.26868],[-71.08573,42.26888],[-71.08579,42.26889],[-71.08623,42.26899],[-71.08681,42.26907],[-71.08686,42.26908],[-71.0871,42.26911],[-71.08846,42.26936],[-71.08892,42.26942],[-71.0892,42.26942],[-71.0893,42.2694],[-71.08944,42.26936],[-71.08958,42.26928],[-71.08983,42.26894],[-71.08991,42.26848],[-71.08985,42.26834],[-71.08982,42.26824],[-71.08978,42.26814],[-71.08969,42.26797],[-71.08974,42.26765],[-71.08987,42.26725],[-71.09012,42.26663],[-71.09022,42.26646],[-71.09033,42.26638],[-71.0905,42.26633],[-71.09069,42.26631],[-71.09138,42.26646],[-71.09259,42.26662],[-71.09298,42.26673],[-71.09321,42.26689],[-71.09347,42.26701],[-71.09358,42.26703],[-71.09372,42.26703],[-71.09374,42.26703],[-71.09376,42.26703],[-71.09386,42.26703],[-71.09391,42.26703],[-71.09398,42.26702],[-71.09412,42.26699],[-71.09424,42.26695],[-71.09446,42.2668],[-71.09469,42.26653],[-71.09473,42.26646],[-71.09498,42.26602],[-71.09517,42.26577],[-71.09563,42.26527],[-71.09602,42.26496],[-71.09631,42.26467],[-71.09653,42.2643],[-71.09672,42.26384],[-71.09709,42.26325],[-71.09732,42.26299],[-71.09757,42.26284],[-71.09794,42.26271],[-71.09838,42.2626],[-71.09868,42.26249],[-71.09882,42.26241],[-71.09906,42.26223],[-71.09932,42.26196],[-71.09985,42.26151],[-71.10016,42.26119],[-71.10031,42.26109],[-71.10059,42.26096],[-71.10218,42.26002],[-71.10264,42.25979],[-71.10297,42.25969],[-71.10327,42.25964],[-71.10369,42.25964],[-71.10404,42.2597],[-71.10432,42.25985],[-71.1046,42.26005],[-71.10477,42.26019],[-71.10478,42.26021],[-71.10495,42.26041],[-71.10509,42.26052],[-71.1052,42.2606],[-71.10522,42.26062],[-71.10535,42.26068],[-71.10557,42.26076],[-71.10587,42.26077],[-71.10674,42.26062],[-71.10748,42.26053],[-71.10764,42.26057],[-71.10837,42.26086],[-71.10861,42.26101],[-71.10875,42.26109],[-71.10892,42.26116],[-71.10915,42.26121],[-71.10954,42.26121],[-71.10983,42.26116],[-71.11011,42.26107],[-71.11028,42.26095],[-71.11038,42.2608],[-71.11051,42.26073],[-71.11074,42.26067],[-71.11111,42.26065],[-71.11129,42.26059],[-71.11146,42.26049],[-71.11188,42.26006],[-71.11241,42.25946],[-71.11272,42.25916],[-71.11256,42.25944],[-71.11263,42.25957],[-71.11276,42.25947],[-71.11301,42.25926],[-71.11328,42.25904],[-71.11333,42.259],[-71.11326,42.25893],[-71.11315,42.25884],[-71.11312,42.25881],[-71.11311,42.25879],[-71.11301,42.2587],[-71.11295,42.25864],[-71.11262,42.25833],[-71.11258,42.25829],[-71.1125,42.25821],[-71.11247,42.25818],[-71.11243,42.25816],[-71.1124,42.25813],[-71.11239,42.25812],[-71.11237,42.25809],[-71.11139,42.25716],[-71.11086,42.25666],[-71.11043,42.25626],[-71.10973,42.2556],[-71.10954,42.25542],[-71.10953,42.25476],[-71.10952,42.25466],[-71.1095,42.25379],[-71.10949,42.25334],[-71.10947,42.25242],[-71.10946,42.25211],[-71.10943,42.25102],[-71.10941,42.25024],[-71.10938,42.24913],[-71.10937,42.24856],[-71.10936,42.2484],[-71.10935,42.24805],[-71.10935,42.248],[-71.10993,42.24769],[-71.11029,42.24751],[-71.11094,42.24719],[-71.11178,42.24674],[-71.11206,42.24659],[-71.11216,42.24654],[-71.11261,42.2463],[-71.11299,42.24611],[-71.11327,42.24596],[-71.11345,42.24587],[-71.11446,42.24535],[-71.11456,42.24529],[-71.11465,42.24525],[-71.11507,42.24503],[-71.1152,42.24496],[-71.1154,42.24486],[-71.11616,42.24447],[-71.11641,42.24434],[-71.11653,42.24428],[-71.11942,42.24277],[-71.11964,42.24266],[-71.11993,42.24251],[-71.12052,42.2422],[-71.12139,42.24175],[-71.12212,42.24138],[-71.12255,42.24115],[-71.12567,42.23954],[-71.1258,42.23946],[-71.12638,42.23917],[-71.1263,42.23907],[-71.12614,42.23893],[-71.12608,42.2388],[-71.12603,42.23871],[-71.12595,42.23857],[-71.12587,42.23842],[-71.12577,42.23821],[-71.1257,42.23798],[-71.12568,42.23791],[-71.12554,42.23779],[-71.12548,42.23775],[-71.12538,42.23769],[-71.12524,42.23763],[-71.12509,42.23757],[-71.12504,42.23756],[-71.12501,42.23755],[-71.12485,42.23748],[-71.12476,42.23744],[-71.12469,42.23737],[-71.12461,42.23727],[-71.12455,42.23716],[-71.12446,42.23687],[-71.12424,42.23655],[-71.12408,42.2364],[-71.12381,42.23619],[-71.12348,42.23593],[-71.12334,42.23586],[-71.12327,42.23579],[-71.12297,42.23558],[-71.12276,42.23543],[-71.12267,42.23541],[-71.12264,42.23539],[-71.12262,42.23532],[-71.12252,42.23521],[-71.12248,42.23506],[-71.12246,42.23494],[-71.12248,42.23486],[-71.12257,42.23477],[-71.12258,42.23472],[-71.1226,42.23465],[-71.1226,42.23452],[-71.1226,42.23445],[-71.12264,42.23438],[-71.12274,42.23432],[-71.12283,42.23429],[-71.12287,42.23428],[-71.12289,42.23427],[-71.12294,42.23426],[-71.12313,42.23424],[-71.12338,42.23426],[-71.12361,42.2343],[-71.12381,42.23433],[-71.12405,42.23433],[-71.12423,42.23429],[-71.1244,42.23421],[-71.12446,42.23417],[-71.1245,42.23413],[-71.12459,42.23402],[-71.12468,42.23385],[-71.12472,42.23375],[-71.12472,42.23365],[-71.12466,42.23351],[-71.12461,42.23332],[-71.12453,42.23323],[-71.12451,42.23317],[-71.1245,42.2331],[-71.12452,42.23291],[-71.12458,42.23279],[-71.12475,42.23263],[-71.12485,42.23257],[-71.12488,42.23255],[-71.12497,42.23248],[-71.12506,42.23237],[-71.12512,42.23224],[-71.12523,42.23207],[-71.12535,42.23195],[-71.12544,42.23191],[-71.12548,42.23189],[-71.12564,42.23188],[-71.12581,42.23188],[-71.12595,42.23183],[-71.12605,42.23176],[-71.12616,42.23164],[-71.12622,42.23154],[-71.12639,42.23138],[-71.12661,42.23127],[-71.12678,42.23123],[-71.127,42.23124],[-71.12722,42.23122],[-71.12742,42.23118],[-71.12753,42.23112],[-71.12764,42.23097],[-71.12776,42.23079],[-71.12796,42.23055],[-71.12808,42.23038],[-71.12825,42.23019],[-71.1285,42.23001],[-71.12868,42.22989],[-71.12875,42.22984],[-71.1288,42.22981],[-71.12886,42.22973],[-71.12889,42.22966],[-71.12891,42.22952],[-71.12895,42.22932],[-71.12907,42.22915],[-71.1292,42.22898],[-71.12936,42.22886],[-71.12946,42.22881],[-71.12949,42.22879],[-71.12967,42.22876],[-71.12996,42.22874],[-71.1301,42.22868],[-71.13019,42.2286],[-71.13027,42.22851],[-71.13035,42.22832],[-71.13053,42.2281],[-71.13066,42.22799],[-71.13075,42.22792],[-71.13077,42.22793],[-71.13074,42.22784],[-71.13069,42.22781],[-71.1302,42.22739],[-71.12916,42.22638],[-71.12693,42.22427],[-71.12372,42.22118],[-71.12143,42.21899],[-71.12013,42.21774],[-71.11957,42.21721],[-71.11942,42.21707],[-71.11745,42.21518],[-71.1148,42.21266],[-71.114,42.21187],[-71.11362,42.21147],[-71.11174,42.20958],[-71.11033,42.20816],[-71.10972,42.20754],[-71.10861,42.20643],[-71.10858,42.2064],[-71.10845,42.20626],[-71.10761,42.20541],[-71.10585,42.20363],[-71.10564,42.20342],[-71.10427,42.20204],[-71.10381,42.20158],[-71.10326,42.20099],[-71.10312,42.20088],[-71.10296,42.20072],[-71.10269,42.20081],[-71.10188,42.2011],[-71.10163,42.20122],[-71.10142,42.20127],[-71.10083,42.20148],[-71.10076,42.20144],[-71.10057,42.20151],[-71.10048,42.20151],[-71.1002,42.20145],[-71.10013,42.20141],[-71.10012,42.20139],[-71.10005,42.20134],[-71.09993,42.20129],[-71.09985,42.2013],[-71.09979,42.20133],[-71.09971,42.20133],[-71.0996,42.20133],[-71.09951,42.20129],[-71.09943,42.20124],[-71.09933,42.20123],[-71.09917,42.20128],[-71.09896,42.20131],[-71.09891,42.20132],[-71.09873,42.20131],[-71.09859,42.20141],[-71.09855,42.20149],[-71.09847,42.20154],[-71.0983,42.20162],[-71.09821,42.20167],[-71.09807,42.20165],[-71.09798,42.20166],[-71.09792,42.20168],[-71.09791,42.20173],[-71.09789,42.20178],[-71.09779,42.20179],[-71.09772,42.20179],[-71.09766,42.20182],[-71.09757,42.20187],[-71.09744,42.20188],[-71.09739,42.20187],[-71.09726,42.20185],[-71.09719,42.20185],[-71.09716,42.20188],[-71.097,42.20194],[-71.09684,42.20204],[-71.09674,42.20213],[-71.09659,42.20216],[-71.09643,42.20218],[-71.096,42.20216],[-71.09588,42.20215],[-71.09552,42.20216],[-71.09537,42.2022],[-71.09489,42.20234],[-71.09483,42.20234],[-71.09458,42.20241],[-71.09432,42.20244],[-71.09377,42.20246],[-71.09309,42.20246],[-71.09284,42.20248],[-71.09261,42.20248],[-71.09194,42.20245],[-71.09102,42.20243],[-71.09041,42.2024],[-71.08975,42.20237],[-71.08945,42.20235],[-71.08922,42.20231],[-71.08912,42.20229],[-71.08898,42.20226],[-71.08869,42.20223],[-71.08847,42.20227],[-71.08836,42.20234],[-71.08831,42.20237],[-71.08822,42.2025],[-71.08822,42.20252],[-71.08818,42.20261],[-71.08798,42.20298],[-71.08787,42.20318],[-71.08767,42.20338],[-71.08748,42.20344],[-71.08739,42.20348],[-71.08736,42.20355],[-71.0874,42.20377],[-71.08739,42.20389],[-71.08735,42.20396],[-71.0871,42.20409],[-71.08686,42.20418],[-71.08677,42.20418],[-71.08663,42.20417],[-71.08644,42.20419],[-71.08637,42.20421],[-71.08632,42.20418],[-71.0863,42.20412],[-71.08628,42.20408],[-71.08623,42.20406],[-71.08612,42.20403],[-71.08602,42.20401],[-71.08595,42.20402],[-71.08573,42.20403],[-71.08553,42.20405],[-71.08532,42.20397],[-71.08516,42.204],[-71.08495,42.20399],[-71.08467,42.20395],[-71.08427,42.20393],[-71.08411,42.20393],[-71.08401,42.204],[-71.08391,42.20399],[-71.0838,42.20395],[-71.08371,42.20398],[-71.0837,42.20406],[-71.08365,42.20408],[-71.08361,42.20409],[-71.08348,42.20406],[-71.08346,42.204],[-71.08342,42.20396],[-71.08335,42.20398],[-71.08327,42.20403],[-71.08321,42.20404],[-71.08313,42.20401],[-71.08295,42.20406],[-71.08287,42.20409],[-71.08285,42.20417],[-71.08277,42.20426],[-71.08275,42.20427],[-71.08273,42.2043],[-71.08276,42.20434],[-71.083,42.20458],[-71.08403,42.20552],[-71.08448,42.20594],[-71.08621,42.20752],[-71.08757,42.20878],[-71.08843,42.20957],[-71.089,42.2101],[-71.08925,42.21033],[-71.09076,42.21171],[-71.09199,42.21284],[-71.092,42.21285],[-71.09204,42.21289],[-71.09319,42.21394],[-71.08559,42.21683],[-71.08319,42.21774],[-71.08127,42.21847],[-71.08016,42.21887],[-71.07462,42.22099],[-71.07339,42.22147],[-71.0705,42.22253],[-71.06595,42.22427],[-71.06524,42.22453],[-71.06059,42.22627],[-71.05302,42.22918],[-71.05325,42.22954],[-71.05463,42.23182],[-71.05733,42.23624],[-71.05797,42.23725],[-71.05978,42.24025],[-71.06057,42.24155],[-71.061,42.24226],[-71.06109,42.24239],[-71.05925,42.24339],[-71.059,42.24353],[-71.05574,42.24532],[-71.05246,42.24715],[-71.05127,42.24779],[-71.04896,42.24906],[-71.04724,42.25001],[-71.04548,42.25097],[-71.04429,42.25163],[-71.04375,42.25192],[-71.0429,42.25239],[-71.04279,42.25245],[-71.04219,42.25279],[-71.04209,42.25284],[-71.04168,42.25307],[-71.04136,42.25324],[-71.04013,42.25392],[-71.03991,42.25404],[-71.03979,42.25411],[-71.03939,42.25433],[-71.03936,42.25434],[-71.03918,42.25444],[-71.03903,42.25453],[-71.03889,42.2546],[-71.03886,42.25462],[-71.03796,42.25511],[-71.03725,42.2555],[-71.03638,42.25598],[-71.03497,42.25677],[-71.03389,42.25736],[-71.03285,42.25793],[-71.03208,42.25836],[-71.0319,42.2586],[-71.03152,42.25909],[-71.03149,42.25912],[-71.03139,42.25922],[-71.03187,42.25956],[-71.03191,42.25959],[-71.03312,42.26043],[-71.03358,42.26076],[-71.03428,42.26125],[-71.03442,42.26135],[-71.03448,42.26139],[-71.03494,42.26171],[-71.03555,42.26215],[-71.03598,42.26244],[-71.03683,42.26304],[-71.03698,42.26315],[-71.0372,42.2633],[-71.03731,42.26338],[-71.03747,42.26349],[-71.03806,42.2639],[-71.03907,42.26461],[-71.03932,42.26478],[-71.04025,42.26544],[-71.04146,42.2663],[-71.04167,42.26644],[-71.04169,42.26661],[-71.04173,42.26675],[-71.04174,42.26694],[-71.04183,42.26738],[-71.04185,42.26756],[-71.04184,42.26765],[-71.04176,42.26816],[-71.04172,42.2683],[-71.04164,42.2684],[-71.04171,42.26896],[-71.04176,42.26929],[-71.04227,42.27292],[-71.04233,42.27331],[-71.04258,42.27513],[-71.04267,42.27596],[-71.04269,42.27616],[-71.04283,42.27597],[-71.04304,42.27584],[-71.04318,42.27579],[-71.04322,42.27578],[-71.04351,42.27568],[-71.04398,42.27549],[-71.04398,42.27552],[-71.04402,42.27555],[-71.04414,42.27555],[-71.04422,42.27552],[-71.04428,42.2755],[-71.0444,42.27549],[-71.04505,42.27553],[-71.04591,42.27567],[-71.04613,42.27564],[-71.04727,42.27621],[-71.04751,42.27636],[-71.04772,42.27645],[-71.04788,42.27647],[-71.04804,42.27662],[-71.04819,42.27671],[-71.04848,42.2769],[-71.04857,42.27707],[-71.04866,42.27717],[-71.04871,42.27721],[-71.04875,42.27725],[-71.04886,42.27732],[-71.0489,42.27733],[-71.04895,42.27735],[-71.04905,42.27737],[-71.04921,42.27737],[-71.04927,42.27735],[-71.04931,42.27733],[-71.04989,42.2773],[-71.04995,42.27735]]],[[[-71.06525,42.27082],[-71.06528,42.27085],[-71.06533,42.27082],[-71.0653,42.2708],[-71.06525,42.27082]]]]}}
