{"type":"Feature","properties":{"jurisdiction":"rockland-ma","name":"Rockland","source":"MassGIS, Census 2020 Towns (AGOL/Census2020_Towns, layer 2)","sourceUrl":"https://arcgisserver.digital.mass.gov/arcgisserver/rest/services/AGOL/Census2020_Towns/FeatureServer/2","sourceQuery":"TOWN20='ROCKLAND'","geoid":"2502357775","townId":251,"landAreaSqM":25975560,"waterAreaSqM":238552,"interiorPoint":[-70.9087358,42.1292512],"retrieved":"2026-09-03","crs":"EPSG:4326","coordinatePrecision":5,"note":"Verbatim from the source apart from coordinate rounding."},"geometry":{"type":"MultiPolygon","coordinates":[[[[-70.88431,42.15373],[-70.88663,42.16071],[-70.88747,42.16326],[-70.88761,42.16371],[-70.88777,42.16414],[-70.88801,42.16485],[-70.88802,42.16494],[-70.88818,42.16539],[-70.88824,42.16557],[-70.88842,42.16611],[-70.88845,42.16621],[-70.88877,42.16715],[-70.88885,42.16742],[-70.88899,42.16783],[-70.89021,42.17152],[-70.89029,42.17174],[-70.89137,42.1711],[-70.89352,42.16982],[-70.89358,42.1698],[-70.89651,42.16865],[-70.89714,42.16841],[-70.89816,42.16801],[-70.89866,42.16782],[-70.90251,42.16631],[-70.90327,42.16602],[-70.90498,42.16535],[-70.9051,42.1653],[-70.91046,42.16321],[-70.91193,42.16264],[-70.91289,42.16226],[-70.91375,42.16193],[-70.91414,42.16178],[-70.9206,42.15927],[-70.92461,42.15771],[-70.92488,42.15759],[-70.92515,42.15748],[-70.92548,42.15736],[-70.92657,42.15693],[-70.92779,42.15645],[-70.92829,42.15625],[-70.92846,42.15619],[-70.9291,42.15594],[-70.93025,42.15549],[-70.93457,42.1538],[-70.93988,42.15172],[-70.94056,42.15145],[-70.9407,42.1514],[-70.94077,42.15137],[-70.94075,42.15133],[-70.93726,42.13822],[-70.93672,42.1362],[-70.93666,42.13598],[-70.93658,42.13566],[-70.93638,42.13492],[-70.93617,42.13414],[-70.93585,42.13294],[-70.93499,42.12971],[-70.93492,42.12945],[-70.93463,42.12836],[-70.93409,42.12633],[-70.93397,42.1259],[-70.93396,42.12584],[-70.9339,42.12561],[-70.93303,42.12233],[-70.93275,42.12128],[-70.93269,42.12106],[-70.93201,42.11851],[-70.93153,42.1167],[-70.93149,42.11656],[-70.93144,42.11651],[-70.93141,42.11647],[-70.93078,42.11581],[-70.92947,42.11443],[-70.92909,42.11403],[-70.92893,42.11386],[-70.9277,42.11257],[-70.92387,42.10852],[-70.92359,42.10823],[-70.92303,42.10765],[-70.92269,42.10729],[-70.91591,42.10013],[-70.90241,42.08591],[-70.90239,42.08591],[-70.90165,42.086],[-70.90157,42.08601],[-70.89487,42.08694],[-70.8876,42.08796],[-70.88755,42.08797],[-70.88772,42.09059],[-70.88838,42.10099],[-70.88879,42.10739],[-70.88903,42.11132],[-70.88913,42.11274],[-70.88927,42.11492],[-70.88936,42.11647],[-70.88947,42.11804],[-70.88964,42.11859],[-70.88992,42.11949],[-70.89003,42.11983],[-70.89037,42.12089],[-70.89067,42.12185],[-70.89094,42.12274],[-70.89227,42.12691],[-70.89245,42.12751],[-70.89306,42.12946],[-70.89373,42.13158],[-70.89406,42.13263],[-70.8956,42.13751],[-70.89572,42.13797],[-70.89602,42.13886],[-70.89657,42.14057],[-70.89835,42.14616],[-70.89965,42.15024],[-70.90012,42.15175],[-70.89449,42.15246],[-70.89039,42.15297],[-70.88879,42.15317],[-70.88809,42.15326],[-70.88431,42.15373]]]]}}
