{"type":"Feature","properties":{"jurisdiction":"scituate-ma","name":"Scituate","source":"MassGIS, Census 2020 Towns (AGOL/Census2020_Towns, layer 2)","sourceUrl":"https://arcgisserver.digital.mass.gov/arcgisserver/rest/services/AGOL/Census2020_Towns/FeatureServer/2","sourceQuery":"TOWN20='SCITUATE'","geoid":"2502360330","townId":264,"landAreaSqM":44579684,"waterAreaSqM":37872085,"interiorPoint":[-70.7429781,42.2050615],"retrieved":"2026-08-29","crs":"EPSG:4326","coordinatePrecision":5,"note":"Verbatim from the source apart from coordinate rounding."},"geometry":{"type":"MultiPolygon","coordinates":[[[[-70.76931,42.25403],[-70.7693,42.25409],[-70.7692,42.2542],[-70.7691,42.2543],[-70.76908,42.25438],[-70.76915,42.25444],[-70.7693,42.25445],[-70.76934,42.25445],[-70.76957,42.25431],[-70.7697,42.25417],[-70.76974,42.25407],[-70.76974,42.25387],[-70.76972,42.2538],[-70.76972,42.25362],[-70.76978,42.25349],[-70.76985,42.25344],[-70.76997,42.25339],[-70.77036,42.25334],[-70.77045,42.25331],[-70.77061,42.25313],[-70.7707,42.25306],[-70.77081,42.25303],[-70.77087,42.25298],[-70.77096,42.25299],[-70.77132,42.25305],[-70.77151,42.25312],[-70.77157,42.25317],[-70.77158,42.25322],[-70.77161,42.25322],[-70.77167,42.25327],[-70.77171,42.25338],[-70.77172,42.25345],[-70.77174,42.25348],[-70.77175,42.2537],[-70.77178,42.25384],[-70.77184,42.25391],[-70.77199,42.25396],[-70.77214,42.25397],[-70.77219,42.25396],[-70.77231,42.25385],[-70.77231,42.25377],[-70.77227,42.25372],[-70.77212,42.25367],[-70.77211,42.25361],[-70.77216,42.25354],[-70.77241,42.25348],[-70.77245,42.25346],[-70.77248,42.25344],[-70.77253,42.25336],[-70.77255,42.25328],[-70.77257,42.25315],[-70.77262,42.25303],[-70.77266,42.25283],[-70.77248,42.25272],[-70.77222,42.25261],[-70.77212,42.25254],[-70.77204,42.25245],[-70.77191,42.25237],[-70.77187,42.25231],[-70.77184,42.25221],[-70.77177,42.25212],[-70.7715,42.25185],[-70.77142,42.25176],[-70.77138,42.25166],[-70.77135,42.25155],[-70.77132,42.25152],[-70.77129,42.25144],[-70.77119,42.25125],[-70.77112,42.25104],[-70.7711,42.25073],[-70.77108,42.25063],[-70.77102,42.25055],[-70.77095,42.25048],[-70.77088,42.25039],[-70.77076,42.2503],[-70.77058,42.25017],[-70.77056,42.25011],[-70.77057,42.24988],[-70.77057,42.24977],[-70.77064,42.24963],[-70.77067,42.24952],[-70.77074,42.24942],[-70.77091,42.2494],[-70.77107,42.24935],[-70.77118,42.24927],[-70.77124,42.2492],[-70.77122,42.24915],[-70.77086,42.24888],[-70.77078,42.24878],[-70.77074,42.24874],[-70.7707,42.24866],[-70.77067,42.24863],[-70.77064,42.24853],[-70.77064,42.2483],[-70.77101,42.24773],[-70.77106,42.24761],[-70.77104,42.24742],[-70.77098,42.24732],[-70.77081,42.24717],[-70.77065,42.2471],[-70.77055,42.24708],[-70.77024,42.24706],[-70.76998,42.24697],[-70.76978,42.2469],[-70.76964,42.2468],[-70.76958,42.24672],[-70.76956,42.24662],[-70.76963,42.24649],[-70.7702,42.24636],[-70.77007,42.24648],[-70.77003,42.24657],[-70.77006,42.24668],[-70.77017,42.24677],[-70.77029,42.24682],[-70.77044,42.24682],[-70.77067,42.24679],[-70.77081,42.24672],[-70.771,42.24658],[-70.77108,42.24656],[-70.77121,42.24665],[-70.77144,42.24665],[-70.7715,42.24673],[-70.77157,42.24681],[-70.77165,42.24682],[-70.77169,42.24682],[-70.77175,42.24678],[-70.77189,42.24664],[-70.77203,42.24656],[-70.7721,42.24646],[-70.77214,42.24642],[-70.77225,42.24638],[-70.7723,42.24642],[-70.77238,42.24651],[-70.77254,42.24664],[-70.77265,42.24665],[-70.77271,42.24662],[-70.77273,42.24653],[-70.77271,42.24643],[-70.77264,42.24624],[-70.7725,42.24608],[-70.77248,42.24604],[-70.77244,42.24601],[-70.77238,42.24593],[-70.77238,42.24583],[-70.77241,42.24578],[-70.77257,42.24569],[-70.77255,42.24555],[-70.77234,42.24538],[-70.77227,42.24535],[-70.77227,42.24534],[-70.77215,42.2452],[-70.77203,42.24504],[-70.772,42.24498],[-70.77199,42.24492],[-70.77197,42.2449],[-70.77195,42.24481],[-70.77192,42.24473],[-70.77191,42.24445],[-70.77195,42.24417],[-70.7719,42.24401],[-70.77185,42.24393],[-70.77165,42.24371],[-70.77162,42.24359],[-70.77163,42.24345],[-70.77167,42.24339],[-70.77174,42.24321],[-70.77175,42.24308],[-70.77172,42.24295],[-70.77172,42.24282],[-70.77175,42.24278],[-70.77187,42.24273],[-70.77191,42.24267],[-70.77192,42.2426],[-70.77187,42.24254],[-70.77185,42.24246],[-70.77182,42.24244],[-70.77185,42.24228],[-70.7719,42.24219],[-70.77192,42.24217],[-70.77199,42.24214],[-70.77225,42.24212],[-70.7723,42.24211],[-70.77237,42.24206],[-70.7724,42.24193],[-70.77249,42.24184],[-70.77271,42.24171],[-70.77279,42.24162],[-70.7728,42.24154],[-70.77276,42.24146],[-70.77266,42.24137],[-70.77243,42.24119],[-70.77229,42.24115],[-70.77211,42.24113],[-70.77203,42.24116],[-70.77196,42.24122],[-70.77196,42.24134],[-70.77197,42.24142],[-70.77203,42.24152],[-70.77184,42.24162],[-70.77168,42.24139],[-70.77165,42.24137],[-70.77159,42.24124],[-70.77158,42.241],[-70.77166,42.24088],[-70.77176,42.24081],[-70.77189,42.24077],[-70.7723,42.24072],[-70.7725,42.24074],[-70.77279,42.24075],[-70.77283,42.24072],[-70.77287,42.24064],[-70.77288,42.24043],[-70.77282,42.24032],[-70.77272,42.24024],[-70.77246,42.24019],[-70.77234,42.24014],[-70.77209,42.2399],[-70.77202,42.23973],[-70.77198,42.23971],[-70.77187,42.23967],[-70.77178,42.23968],[-70.77166,42.23975],[-70.77158,42.23988],[-70.77176,42.23944],[-70.77184,42.23952],[-70.77206,42.23955],[-70.7722,42.2396],[-70.77226,42.23967],[-70.77228,42.23989],[-70.7723,42.2399],[-70.7723,42.23993],[-70.77233,42.23996],[-70.77243,42.24002],[-70.77275,42.24006],[-70.77288,42.2401],[-70.77298,42.2402],[-70.77301,42.24025],[-70.77305,42.24047],[-70.77319,42.24048],[-70.77322,42.24048],[-70.77328,42.24041],[-70.77339,42.24028],[-70.77346,42.24014],[-70.77356,42.23998],[-70.77366,42.23989],[-70.77383,42.23974],[-70.77385,42.23969],[-70.7738,42.2395],[-70.77377,42.23947],[-70.77359,42.23939],[-70.77358,42.23935],[-70.77357,42.23931],[-70.7735,42.23928],[-70.77337,42.23934],[-70.77322,42.23936],[-70.77311,42.23945],[-70.77303,42.23946],[-70.77302,42.23941],[-70.77308,42.23932],[-70.77309,42.2393],[-70.77307,42.23928],[-70.77307,42.2392],[-70.77328,42.23919],[-70.77332,42.23917],[-70.77338,42.23913],[-70.77347,42.239],[-70.77355,42.23893],[-70.77369,42.23888],[-70.77369,42.23878],[-70.77367,42.23875],[-70.7736,42.23871],[-70.77357,42.23867],[-70.77356,42.23863],[-70.77347,42.23859],[-70.77333,42.23856],[-70.77326,42.2385],[-70.77325,42.23823],[-70.77328,42.23818],[-70.77337,42.23813],[-70.77344,42.23807],[-70.77344,42.23796],[-70.77335,42.23778],[-70.77334,42.2376],[-70.77338,42.23752],[-70.77345,42.23747],[-70.7736,42.23744],[-70.77367,42.23763],[-70.7736,42.23761],[-70.77356,42.23768],[-70.77358,42.23784],[-70.7736,42.23785],[-70.77363,42.23797],[-70.77364,42.23814],[-70.77358,42.23823],[-70.77348,42.23831],[-70.7735,42.23836],[-70.77357,42.23838],[-70.77367,42.23842],[-70.77373,42.23849],[-70.77377,42.23857],[-70.7738,42.23862],[-70.7738,42.23865],[-70.77384,42.23869],[-70.77383,42.23874],[-70.77386,42.23875],[-70.7739,42.23889],[-70.7739,42.23909],[-70.77401,42.23917],[-70.77403,42.23921],[-70.77401,42.23943],[-70.77409,42.23948],[-70.7742,42.23954],[-70.7744,42.23955],[-70.77457,42.2395],[-70.7747,42.2395],[-70.7749,42.23962],[-70.77503,42.23962],[-70.77512,42.23955],[-70.77518,42.23954],[-70.7752,42.23971],[-70.77527,42.23978],[-70.77533,42.23977],[-70.77543,42.23964],[-70.77557,42.23955],[-70.77567,42.23953],[-70.7758,42.23952],[-70.77609,42.2396],[-70.77631,42.23965],[-70.7765,42.23965],[-70.7766,42.23962],[-70.77667,42.23956],[-70.77694,42.23965],[-70.7768,42.23974],[-70.7768,42.23976],[-70.7767,42.23982],[-70.77646,42.23983],[-70.77588,42.23977],[-70.77582,42.2398],[-70.77578,42.23982],[-70.77575,42.23987],[-70.77572,42.24003],[-70.7757,42.24018],[-70.77607,42.24039],[-70.77611,42.24046],[-70.77617,42.24051],[-70.77625,42.24054],[-70.77633,42.24061],[-70.77637,42.24078],[-70.77643,42.2409],[-70.77625,42.24096],[-70.77618,42.24086],[-70.77615,42.24075],[-70.77605,42.24067],[-70.7758,42.24053],[-70.77573,42.24046],[-70.77557,42.24037],[-70.77507,42.24039],[-70.77456,42.24067],[-70.77452,42.24073],[-70.77448,42.2408],[-70.7745,42.24092],[-70.77458,42.24106],[-70.77463,42.24109],[-70.77466,42.24112],[-70.77474,42.24125],[-70.77476,42.24134],[-70.77479,42.2414],[-70.77486,42.24149],[-70.77502,42.24176],[-70.77502,42.24186],[-70.77504,42.24187],[-70.77504,42.2419],[-70.77509,42.24197],[-70.77533,42.24212],[-70.7755,42.2422],[-70.77633,42.24245],[-70.77644,42.24251],[-70.77659,42.24269],[-70.77675,42.24282],[-70.77683,42.24286],[-70.777,42.24284],[-70.7778,42.24269],[-70.77838,42.24263],[-70.77867,42.24257],[-70.77929,42.24241],[-70.77956,42.24237],[-70.78041,42.24237],[-70.78087,42.24238],[-70.78179,42.24236],[-70.78234,42.24232],[-70.78297,42.24233],[-70.78317,42.24237],[-70.78345,42.2425],[-70.78354,42.24253],[-70.78371,42.24251],[-70.78407,42.24234],[-70.7843,42.24227],[-70.78445,42.24225],[-70.78456,42.24225],[-70.78508,42.24233],[-70.78514,42.24237],[-70.7858,42.2436],[-70.78583,42.24364],[-70.78598,42.24372],[-70.78601,42.24359],[-70.78597,42.24356],[-70.78587,42.2434],[-70.78584,42.24338],[-70.78584,42.24336],[-70.78578,42.24327],[-70.78571,42.24315],[-70.78571,42.24301],[-70.78566,42.24291],[-70.78564,42.24285],[-70.78551,42.24266],[-70.78548,42.24243],[-70.78551,42.24222],[-70.78557,42.24213],[-70.78571,42.24204],[-70.78583,42.24196],[-70.78591,42.2418],[-70.78594,42.24176],[-70.78594,42.24174],[-70.78604,42.24157],[-70.7862,42.24143],[-70.78644,42.24124],[-70.78664,42.24112],[-70.78683,42.24102],[-70.78728,42.2409],[-70.78741,42.2408],[-70.78761,42.24063],[-70.78791,42.2404],[-70.78835,42.24018],[-70.78852,42.24003],[-70.78853,42.23996],[-70.78849,42.2399],[-70.78843,42.23986],[-70.78817,42.23979],[-70.78777,42.23979],[-70.78745,42.23989],[-70.7871,42.24003],[-70.78668,42.24004],[-70.78617,42.24022],[-70.7856,42.24039],[-70.78531,42.24052],[-70.78513,42.24062],[-70.78493,42.24077],[-70.78488,42.24079],[-70.7848,42.24079],[-70.78466,42.24075],[-70.78451,42.24075],[-70.78418,42.24089],[-70.78403,42.24092],[-70.78357,42.24091],[-70.78347,42.24098],[-70.78335,42.24108],[-70.78328,42.24109],[-70.78327,42.24095],[-70.78322,42.24082],[-70.78312,42.24074],[-70.78279,42.24064],[-70.78264,42.24063],[-70.78251,42.24069],[-70.78242,42.24054],[-70.7825,42.24048],[-70.78263,42.24046],[-70.78279,42.24047],[-70.78286,42.24042],[-70.78291,42.24036],[-70.78308,42.24032],[-70.78311,42.2403],[-70.78316,42.24026],[-70.78323,42.23992],[-70.78323,42.23968],[-70.78319,42.23961],[-70.78301,42.23952],[-70.783,42.23949],[-70.78304,42.23945],[-70.78321,42.2394],[-70.78328,42.2393],[-70.78328,42.23924],[-70.78332,42.23916],[-70.78348,42.23898],[-70.78353,42.23895],[-70.78358,42.2389],[-70.78358,42.23881],[-70.78356,42.23876],[-70.78356,42.23862],[-70.78371,42.2384],[-70.78373,42.23831],[-70.78373,42.23821],[-70.78371,42.2382],[-70.78371,42.23817],[-70.78368,42.23813],[-70.78346,42.23801],[-70.78346,42.23796],[-70.78373,42.23787],[-70.78377,42.23784],[-70.78373,42.23769],[-70.78339,42.23739],[-70.7829,42.23715],[-70.78269,42.2371],[-70.78208,42.23662],[-70.78197,42.23644],[-70.78193,42.2364],[-70.78192,42.23638],[-70.78197,42.23637],[-70.78204,42.23638],[-70.78215,42.23627],[-70.78333,42.23547],[-70.78446,42.23473],[-70.78448,42.23472],[-70.78451,42.2347],[-70.78645,42.23411],[-70.78658,42.23411],[-70.78674,42.23371],[-70.78685,42.23354],[-70.787,42.23347],[-70.78703,42.23343],[-70.78706,42.23335],[-70.78716,42.23327],[-70.78714,42.2332],[-70.78712,42.23318],[-70.78712,42.23316],[-70.7871,42.23315],[-70.7871,42.23307],[-70.78716,42.233],[-70.78727,42.23291],[-70.78771,42.23269],[-70.78801,42.2325],[-70.78819,42.23234],[-70.78826,42.23212],[-70.78826,42.23195],[-70.78809,42.23149],[-70.78809,42.23129],[-70.78811,42.23119],[-70.78837,42.23086],[-70.7884,42.23079],[-70.78838,42.23061],[-70.78816,42.23008],[-70.78814,42.23007],[-70.78814,42.23005],[-70.78812,42.23003],[-70.78808,42.22993],[-70.78799,42.22974],[-70.7879,42.22972],[-70.78778,42.22971],[-70.7875,42.22977],[-70.78711,42.2298],[-70.78673,42.22976],[-70.78643,42.22972],[-70.78634,42.22971],[-70.78607,42.22969],[-70.78596,42.22974],[-70.7859,42.22985],[-70.78579,42.22992],[-70.78569,42.22993],[-70.78563,42.22991],[-70.78552,42.22984],[-70.78549,42.22979],[-70.78544,42.22961],[-70.78543,42.22926],[-70.78541,42.22917],[-70.78535,42.22903],[-70.78532,42.229],[-70.7853,42.22894],[-70.78527,42.2289],[-70.78526,42.22886],[-70.78521,42.22876],[-70.78508,42.22834],[-70.78504,42.2283],[-70.78484,42.22828],[-70.78462,42.22829],[-70.78466,42.2284],[-70.78463,42.22842],[-70.78464,42.22845],[-70.7845,42.22846],[-70.78442,42.22843],[-70.78433,42.22837],[-70.78426,42.22826],[-70.7842,42.22807],[-70.7842,42.22788],[-70.78418,42.22767],[-70.78415,42.22753],[-70.78415,42.2274],[-70.78408,42.22737],[-70.78401,42.22736],[-70.78373,42.22744],[-70.78407,42.22715],[-70.78422,42.22716],[-70.78428,42.22724],[-70.78428,42.2273],[-70.78431,42.22737],[-70.78449,42.22748],[-70.78453,42.22756],[-70.78453,42.22776],[-70.78463,42.22783],[-70.78471,42.22784],[-70.78478,42.22778],[-70.78481,42.22772],[-70.78491,42.22764],[-70.78507,42.22756],[-70.78531,42.22754],[-70.78539,42.22756],[-70.78544,42.22762],[-70.78543,42.22779],[-70.78547,42.22782],[-70.78556,42.22774],[-70.78558,42.2277],[-70.7856,42.22768],[-70.7856,42.22765],[-70.78562,42.22761],[-70.78563,42.22738],[-70.78559,42.22725],[-70.78555,42.22717],[-70.78553,42.22709],[-70.78546,42.2269],[-70.78544,42.22645],[-70.78543,42.22643],[-70.78543,42.22641],[-70.7853,42.22634],[-70.7851,42.22631],[-70.78485,42.2262],[-70.78433,42.22621],[-70.78407,42.22619],[-70.7837,42.2261],[-70.7835,42.226],[-70.78324,42.22591],[-70.7831,42.22583],[-70.7829,42.22567],[-70.78287,42.22563],[-70.78278,42.22552],[-70.78275,42.22547],[-70.78274,42.22546],[-70.7827,42.22542],[-70.78264,42.22541],[-70.78248,42.2254],[-70.7822,42.22549],[-70.7822,42.22557],[-70.78224,42.22559],[-70.78224,42.22561],[-70.7823,42.22565],[-70.78243,42.22578],[-70.78253,42.22591],[-70.78233,42.22594],[-70.78211,42.22575],[-70.78211,42.22573],[-70.78208,42.22571],[-70.78208,42.22569],[-70.78203,42.22564],[-70.78186,42.22557],[-70.78157,42.2255],[-70.78153,42.22553],[-70.78155,42.22563],[-70.78153,42.22566],[-70.78133,42.22567],[-70.7811,42.22565],[-70.77994,42.22564],[-70.77935,42.22574],[-70.77911,42.22575],[-70.77904,42.22573],[-70.779,42.22568],[-70.779,42.2256],[-70.77901,42.22555],[-70.77907,42.22545],[-70.77919,42.22532],[-70.77949,42.22511],[-70.77975,42.22497],[-70.77998,42.22491],[-70.78021,42.22489],[-70.78047,42.22497],[-70.78059,42.22503],[-70.78091,42.22515],[-70.78101,42.22515],[-70.78102,42.22512],[-70.78079,42.22495],[-70.78059,42.22482],[-70.78033,42.22473],[-70.7801,42.22468],[-70.77995,42.22467],[-70.77978,42.2247],[-70.77965,42.22474],[-70.77943,42.22485],[-70.7787,42.22519],[-70.7786,42.22523],[-70.77856,42.22525],[-70.77825,42.22537],[-70.77795,42.22543],[-70.77767,42.22532],[-70.77768,42.22527],[-70.77776,42.2252],[-70.77807,42.22518],[-70.77833,42.22514],[-70.77871,42.22494],[-70.77901,42.22477],[-70.7791,42.2247],[-70.77916,42.22461],[-70.77917,42.2246],[-70.77914,42.22456],[-70.77897,42.22442],[-70.77894,42.22439],[-70.77894,42.22424],[-70.77919,42.22392],[-70.7792,42.22381],[-70.77915,42.22368],[-70.77914,42.22351],[-70.77915,42.22347],[-70.77939,42.2233],[-70.77942,42.22325],[-70.7794,42.22315],[-70.7793,42.22304],[-70.7793,42.22303],[-70.77927,42.223],[-70.7792,42.22289],[-70.77918,42.22278],[-70.7792,42.22272],[-70.77934,42.22262],[-70.77943,42.22258],[-70.77958,42.22248],[-70.77957,42.2224],[-70.77945,42.22223],[-70.77942,42.22221],[-70.7794,42.22218],[-70.77936,42.22213],[-70.77933,42.22205],[-70.77926,42.22199],[-70.77912,42.22193],[-70.77888,42.22181],[-70.7788,42.22185],[-70.77867,42.22187],[-70.77836,42.22183],[-70.77809,42.2217],[-70.77797,42.22165],[-70.77783,42.22161],[-70.77782,42.22155],[-70.77787,42.22141],[-70.77779,42.22136],[-70.77801,42.22134],[-70.77801,42.22145],[-70.77799,42.22149],[-70.77809,42.22159],[-70.77818,42.22163],[-70.77821,42.22165],[-70.77861,42.22175],[-70.77874,42.22174],[-70.77888,42.22162],[-70.77892,42.22162],[-70.77896,42.22164],[-70.77903,42.22177],[-70.77922,42.22174],[-70.77927,42.22176],[-70.77928,42.22179],[-70.77931,42.22182],[-70.77931,42.22186],[-70.77977,42.22251],[-70.77976,42.22259],[-70.77966,42.22268],[-70.77961,42.22271],[-70.77956,42.22277],[-70.77953,42.22283],[-70.77953,42.22302],[-70.77957,42.22316],[-70.77962,42.22322],[-70.77967,42.2233],[-70.77967,42.22333],[-70.77969,42.22334],[-70.77967,42.22343],[-70.77957,42.22358],[-70.77959,42.2237],[-70.77967,42.22383],[-70.77966,42.22392],[-70.77946,42.22408],[-70.77945,42.22415],[-70.77959,42.22419],[-70.78007,42.22422],[-70.78028,42.22419],[-70.78034,42.22414],[-70.78037,42.22411],[-70.78037,42.22408],[-70.78039,42.22407],[-70.78044,42.22384],[-70.78045,42.22383],[-70.78054,42.22351],[-70.78059,42.22344],[-70.78068,42.22344],[-70.78077,42.2235],[-70.7809,42.22367],[-70.7811,42.22384],[-70.78113,42.2239],[-70.78107,42.22395],[-70.78097,42.22399],[-70.78083,42.22411],[-70.78059,42.22415],[-70.78052,42.2242],[-70.78052,42.22431],[-70.78055,42.22434],[-70.78077,42.22452],[-70.78101,42.22462],[-70.78138,42.22471],[-70.78157,42.22483],[-70.78168,42.22486],[-70.78203,42.22478],[-70.78252,42.2246],[-70.78277,42.2245],[-70.7828,42.22446],[-70.78281,42.22441],[-70.78277,42.22436],[-70.78261,42.22426],[-70.78368,42.22423],[-70.7837,42.22427],[-70.78375,42.2244],[-70.78374,42.22445],[-70.78372,42.22447],[-70.78363,42.22446],[-70.78357,42.22445],[-70.78347,42.22443],[-70.78334,42.22444],[-70.78321,42.2245],[-70.78315,42.22456],[-70.78318,42.22468],[-70.78321,42.2248],[-70.78327,42.22486],[-70.78332,42.2249],[-70.78355,42.22506],[-70.78362,42.22512],[-70.78362,42.22513],[-70.78377,42.22528],[-70.78388,42.22531],[-70.784,42.2253],[-70.78415,42.22526],[-70.78501,42.22544],[-70.78508,42.22528],[-70.78562,42.2251],[-70.78623,42.22525],[-70.78638,42.22529],[-70.78695,42.22583],[-70.78817,42.22584],[-70.7883,42.22578],[-70.78871,42.22559],[-70.78874,42.22557],[-70.78876,42.22557],[-70.78894,42.22548],[-70.78887,42.22475],[-70.78863,42.22374],[-70.78858,42.22365],[-70.78841,42.22354],[-70.78836,42.22346],[-70.78827,42.22336],[-70.78824,42.22332],[-70.78827,42.22328],[-70.78833,42.22328],[-70.78834,42.22328],[-70.78843,42.22323],[-70.78864,42.22311],[-70.78914,42.22282],[-70.7901,42.22226],[-70.79012,42.22225],[-70.79137,42.22152],[-70.79148,42.22146],[-70.79216,42.22106],[-70.79242,42.22091],[-70.7925,42.2209],[-70.79299,42.2206],[-70.7937,42.22021],[-70.7942,42.21988],[-70.79711,42.21818],[-70.79763,42.21788],[-70.80541,42.21331],[-70.80785,42.21189],[-70.81277,42.20908],[-70.81396,42.20838],[-70.81764,42.20625],[-70.82004,42.20485],[-70.82174,42.20386],[-70.82182,42.20381],[-70.82244,42.20345],[-70.82268,42.20332],[-70.82329,42.20296],[-70.82497,42.20198],[-70.827,42.2008],[-70.82702,42.20079],[-70.82926,42.19966],[-70.8333,42.19762],[-70.83454,42.197],[-70.83613,42.19619],[-70.83802,42.19524],[-70.8388,42.19484],[-70.83886,42.19481],[-70.83879,42.19482],[-70.83799,42.19483],[-70.83652,42.19487],[-70.83376,42.19495],[-70.82623,42.1951],[-70.82611,42.1951],[-70.82578,42.19511],[-70.82464,42.19513],[-70.82368,42.19515],[-70.82263,42.19518],[-70.82168,42.1952],[-70.82058,42.19522],[-70.81953,42.19525],[-70.81846,42.19527],[-70.81619,42.19532],[-70.81388,42.19537],[-70.8135,42.19538],[-70.81342,42.19535],[-70.81233,42.195],[-70.81119,42.19463],[-70.81006,42.19427],[-70.80891,42.1939],[-70.80784,42.19355],[-70.80668,42.19318],[-70.80557,42.19282],[-70.80499,42.19263],[-70.80459,42.1925],[-70.80407,42.19233],[-70.80353,42.19216],[-70.80313,42.19203],[-70.80269,42.19189],[-70.80121,42.19139],[-70.79708,42.19009],[-70.79367,42.18899],[-70.78945,42.18762],[-70.783,42.18554],[-70.77886,42.1842],[-70.77786,42.18386],[-70.77713,42.18329],[-70.77485,42.18152],[-70.77142,42.17885],[-70.76741,42.17573],[-70.76633,42.17489],[-70.76357,42.17274],[-70.76271,42.17207],[-70.76172,42.1713],[-70.76066,42.17048],[-70.75988,42.16987],[-70.75981,42.16981],[-70.75962,42.16967],[-70.75872,42.16897],[-70.75849,42.16879],[-70.75798,42.16839],[-70.75705,42.16766],[-70.756,42.16684],[-70.75499,42.16606],[-70.75423,42.16547],[-70.75321,42.16464],[-70.75267,42.1642],[-70.75264,42.16417],[-70.75239,42.16395],[-70.75221,42.16402],[-70.75027,42.1649],[-70.74982,42.16502],[-70.74946,42.16504],[-70.74919,42.16501],[-70.74892,42.16522],[-70.74858,42.16515],[-70.74823,42.16499],[-70.74785,42.16476],[-70.74747,42.1644],[-70.74711,42.16393],[-70.74685,42.16355],[-70.74668,42.16327],[-70.74655,42.16308],[-70.74651,42.16291],[-70.74633,42.16252],[-70.74606,42.16226],[-70.74563,42.16202],[-70.74507,42.16179],[-70.74398,42.16154],[-70.74256,42.16139],[-70.74237,42.16144],[-70.7414,42.1617],[-70.74119,42.16187],[-70.7412,42.16198],[-70.74108,42.16208],[-70.74085,42.16216],[-70.74055,42.16246],[-70.74039,42.16252],[-70.74013,42.16285],[-70.7399,42.16294],[-70.73922,42.16329],[-70.73846,42.16357],[-70.73837,42.16361],[-70.73766,42.16382],[-70.73735,42.16376],[-70.7369,42.16366],[-70.73626,42.16376],[-70.73595,42.16374],[-70.73558,42.16356],[-70.7352,42.16324],[-70.73508,42.16284],[-70.73476,42.16267],[-70.73462,42.16223],[-70.73396,42.16186],[-70.73322,42.16207],[-70.73315,42.16212],[-70.73285,42.16232],[-70.73279,42.16237],[-70.73274,42.16268],[-70.73269,42.16286],[-70.73271,42.1631],[-70.73266,42.16321],[-70.73243,42.16339],[-70.73233,42.16375],[-70.73231,42.16384],[-70.73213,42.16402],[-70.73203,42.16423],[-70.73137,42.16474],[-70.73124,42.16501],[-70.73116,42.16513],[-70.73093,42.16528],[-70.73068,42.16541],[-70.73051,42.1656],[-70.73,42.16572],[-70.72987,42.16596],[-70.72947,42.16605],[-70.72925,42.16617],[-70.7291,42.16636],[-70.72899,42.16663],[-70.72869,42.16684],[-70.72848,42.16698],[-70.72838,42.16701],[-70.72789,42.16688],[-70.72771,42.16693],[-70.72725,42.16717],[-70.72533,42.16729],[-70.7252,42.16741],[-70.7252,42.16758],[-70.72519,42.1678],[-70.72529,42.16801],[-70.72536,42.16834],[-70.72548,42.1685],[-70.72561,42.16856],[-70.72588,42.16867],[-70.72599,42.1687],[-70.72606,42.1687],[-70.72658,42.16874],[-70.72698,42.16883],[-70.72771,42.1689],[-70.72791,42.16885],[-70.72801,42.16875],[-70.72809,42.16849],[-70.72844,42.16844],[-70.72864,42.16839],[-70.72887,42.16836],[-70.72995,42.16804],[-70.73033,42.16812],[-70.73062,42.16828],[-70.73092,42.16866],[-70.73215,42.17086],[-70.73238,42.17108],[-70.73247,42.17134],[-70.7328,42.17172],[-70.73296,42.17198],[-70.73296,42.17224],[-70.73299,42.17232],[-70.73309,42.17237],[-70.73316,42.17232],[-70.73321,42.17228],[-70.73327,42.17214],[-70.73332,42.172],[-70.73324,42.17183],[-70.73302,42.17152],[-70.73287,42.17128],[-70.73285,42.17089],[-70.73306,42.17066],[-70.73349,42.17042],[-70.73363,42.17042],[-70.73383,42.17071],[-70.73373,42.17073],[-70.73361,42.17079],[-70.73343,42.17094],[-70.73333,42.17108],[-70.73332,42.17142],[-70.73352,42.17185],[-70.7337,42.17201],[-70.73364,42.17233],[-70.73391,42.1725],[-70.73381,42.17274],[-70.73376,42.17302],[-70.73365,42.17314],[-70.73353,42.17313],[-70.73346,42.17289],[-70.73338,42.17283],[-70.73329,42.1729],[-70.73358,42.17342],[-70.73377,42.17362],[-70.73388,42.17372],[-70.73425,42.17378],[-70.7345,42.17384],[-70.73482,42.17379],[-70.73512,42.17388],[-70.73548,42.17404],[-70.73578,42.17423],[-70.73592,42.17443],[-70.73607,42.17496],[-70.73614,42.17511],[-70.73622,42.17518],[-70.73639,42.17519],[-70.73679,42.17502],[-70.73762,42.17482],[-70.73804,42.17497],[-70.73837,42.17513],[-70.7387,42.17535],[-70.73879,42.17541],[-70.73882,42.17549],[-70.73881,42.1757],[-70.7379,42.17521],[-70.73752,42.17515],[-70.73735,42.17514],[-70.73699,42.17519],[-70.73689,42.17528],[-70.73682,42.17551],[-70.73679,42.17562],[-70.73624,42.17565],[-70.73614,42.17577],[-70.7358,42.17577],[-70.73556,42.17523],[-70.73539,42.17516],[-70.73481,42.17506],[-70.73463,42.17499],[-70.73439,42.17499],[-70.73409,42.17489],[-70.73389,42.17477],[-70.73369,42.17423],[-70.73298,42.17336],[-70.73273,42.17281],[-70.73249,42.1725],[-70.73221,42.17218],[-70.73214,42.17183],[-70.73187,42.17157],[-70.73162,42.17143],[-70.73133,42.1707],[-70.73089,42.17005],[-70.73064,42.16974],[-70.73049,42.16913],[-70.73035,42.16891],[-70.73024,42.16873],[-70.73012,42.16861],[-70.72977,42.16853],[-70.72967,42.16851],[-70.72944,42.16856],[-70.72882,42.16902],[-70.72844,42.16919],[-70.72801,42.16936],[-70.72765,42.16943],[-70.72683,42.16937],[-70.72608,42.1693],[-70.7257,42.16926],[-70.72525,42.16908],[-70.72493,42.16901],[-70.72441,42.16817],[-70.72439,42.16762],[-70.72421,42.16744],[-70.72391,42.16726],[-70.72378,42.16727],[-70.72324,42.16732],[-70.72256,42.16719],[-70.72221,42.1672],[-70.72202,42.1673],[-70.72196,42.16751],[-70.72169,42.16767],[-70.72164,42.16792],[-70.72161,42.16801],[-70.72089,42.16863],[-70.72076,42.16886],[-70.72074,42.16899],[-70.72082,42.16905],[-70.72099,42.16904],[-70.72111,42.16922],[-70.72163,42.16915],[-70.72208,42.1692],[-70.72236,42.16935],[-70.72264,42.16951],[-70.7225,42.16959],[-70.7222,42.16955],[-70.72189,42.16942],[-70.72162,42.16944],[-70.72163,42.16958],[-70.72127,42.16963],[-70.72115,42.16943],[-70.72096,42.16936],[-70.72073,42.16937],[-70.72044,42.16897],[-70.72036,42.16838],[-70.72104,42.16686],[-70.72031,42.16663],[-70.71948,42.1663],[-70.71873,42.16609],[-70.71794,42.16598],[-70.71686,42.16619],[-70.71684,42.16619],[-70.71646,42.16669],[-70.71593,42.16724],[-70.71571,42.16757],[-70.7156,42.1678],[-70.71552,42.16815],[-70.71552,42.16851],[-70.71547,42.16948],[-70.71574,42.17076],[-70.71585,42.1711],[-70.71589,42.1715],[-70.71591,42.17194],[-70.71581,42.17222],[-70.71553,42.17243],[-70.71515,42.17252],[-70.71513,42.17269],[-70.71513,42.17318],[-70.71502,42.17347],[-70.71468,42.17371],[-70.71447,42.17392],[-70.71445,42.17404],[-70.71449,42.17438],[-70.71449,42.17494],[-70.71453,42.17587],[-70.7147,42.17655],[-70.71481,42.17693],[-70.71509,42.1775],[-70.7153,42.17793],[-70.71536,42.17837],[-70.71538,42.1788],[-70.71543,42.17903],[-70.71576,42.17992],[-70.71617,42.18054],[-70.71644,42.18081],[-70.71678,42.18125],[-70.71715,42.18172],[-70.71757,42.18221],[-70.71793,42.18267],[-70.71825,42.18315],[-70.71836,42.18349],[-70.71846,42.18382],[-70.71882,42.1843],[-70.71907,42.18475],[-70.71913,42.18483],[-70.71924,42.18538],[-70.7193,42.18621],[-70.71925,42.18699],[-70.71923,42.18771],[-70.71909,42.18839],[-70.71875,42.18892],[-70.71828,42.1894],[-70.71795,42.18962],[-70.71769,42.18961],[-70.71729,42.18951],[-70.71696,42.18943],[-70.71665,42.18941],[-70.7164,42.18941],[-70.71582,42.18968],[-70.71546,42.19012],[-70.71536,42.19041],[-70.71533,42.19064],[-70.71533,42.19071],[-70.71542,42.19107],[-70.71572,42.19169],[-70.71596,42.19224],[-70.7161,42.19275],[-70.71629,42.19319],[-70.71639,42.19367],[-70.71642,42.19421],[-70.71641,42.19506],[-70.71635,42.19555],[-70.71625,42.1963],[-70.71608,42.19685],[-70.71581,42.19706],[-70.71553,42.19724],[-70.71505,42.19735],[-70.71444,42.19781],[-70.71422,42.19818],[-70.71419,42.19844],[-70.71428,42.1992],[-70.71439,42.1996],[-70.71459,42.19992],[-70.71489,42.20012],[-70.71541,42.20031],[-70.7157,42.20041],[-70.71589,42.20053],[-70.716,42.20063],[-70.71607,42.20074],[-70.7161,42.20081],[-70.71626,42.20099],[-70.71652,42.20089],[-70.71674,42.20076],[-70.71688,42.20067],[-70.71712,42.20051],[-70.71732,42.2004],[-70.71755,42.20025],[-70.71781,42.20009],[-70.71806,42.1999],[-70.7183,42.19978],[-70.71845,42.19976],[-70.71864,42.19973],[-70.71884,42.19961],[-70.71902,42.19947],[-70.71908,42.19937],[-70.7191,42.19927],[-70.7191,42.19919],[-70.71909,42.1991],[-70.71914,42.19902],[-70.71922,42.199],[-70.71927,42.199],[-70.71955,42.1992],[-70.71971,42.19902],[-70.71946,42.19885],[-70.71936,42.19882],[-70.71929,42.19877],[-70.71928,42.1987],[-70.7194,42.19845],[-70.71956,42.1982],[-70.71973,42.19812],[-70.72011,42.19806],[-70.72088,42.19798],[-70.72232,42.19776],[-70.72249,42.19766],[-70.72252,42.19758],[-70.72249,42.19749],[-70.72245,42.19734],[-70.7223,42.19714],[-70.72217,42.19697],[-70.72203,42.19685],[-70.72173,42.19649],[-70.72152,42.19636],[-70.72152,42.19628],[-70.72149,42.19626],[-70.72149,42.19624],[-70.72146,42.19622],[-70.72145,42.19619],[-70.72137,42.19615],[-70.72137,42.19608],[-70.72131,42.19605],[-70.72132,42.19603],[-70.72129,42.196],[-70.72126,42.19588],[-70.72124,42.19587],[-70.72113,42.1957],[-70.72103,42.19568],[-70.72102,42.19567],[-70.72095,42.19564],[-70.7208,42.19565],[-70.72036,42.19574],[-70.72025,42.19578],[-70.71965,42.19594],[-70.71965,42.19598],[-70.71931,42.19606],[-70.71931,42.19603],[-70.71906,42.19605],[-70.71872,42.196],[-70.71843,42.19595],[-70.71823,42.19592],[-70.71821,42.19583],[-70.71818,42.19576],[-70.71816,42.19575],[-70.71812,42.19564],[-70.71812,42.19554],[-70.71814,42.19549],[-70.71816,42.19533],[-70.71813,42.19526],[-70.71799,42.19504],[-70.71807,42.19504],[-70.71823,42.19502],[-70.71842,42.19495],[-70.71883,42.19456],[-70.7192,42.19429],[-70.71954,42.19395],[-70.71952,42.19391],[-70.71967,42.19383],[-70.71994,42.19367],[-70.72043,42.19334],[-70.72057,42.19334],[-70.72091,42.19337],[-70.72125,42.19341],[-70.72139,42.19341],[-70.72155,42.19344],[-70.72163,42.1934],[-70.72165,42.19338],[-70.72165,42.19325],[-70.72162,42.19314],[-70.72159,42.19308],[-70.72146,42.19295],[-70.72125,42.19288],[-70.72121,42.19284],[-70.7212,42.19278],[-70.72118,42.19277],[-70.72116,42.19266],[-70.72115,42.19264],[-70.7209,42.19247],[-70.72092,42.19244],[-70.72103,42.19244],[-70.72109,42.19245],[-70.72123,42.19244],[-70.72135,42.1924],[-70.72135,42.19231],[-70.72136,42.19217],[-70.72133,42.19212],[-70.7213,42.19209],[-70.72124,42.19201],[-70.72123,42.19187],[-70.72125,42.1918],[-70.72134,42.19168],[-70.72158,42.19146],[-70.72162,42.19141],[-70.72163,42.19127],[-70.72161,42.19124],[-70.72154,42.19117],[-70.72138,42.19114],[-70.72121,42.19115],[-70.7211,42.19109],[-70.72108,42.19085],[-70.72107,42.19083],[-70.72107,42.1908],[-70.72104,42.19075],[-70.721,42.19073],[-70.72091,42.19069],[-70.72079,42.19068],[-70.72072,42.19072],[-70.72062,42.19074],[-70.72048,42.19063],[-70.72042,42.19061],[-70.72032,42.19056],[-70.72025,42.19043],[-70.72025,42.19038],[-70.7203,42.19037],[-70.72033,42.19039],[-70.72053,42.19051],[-70.72055,42.19055],[-70.72058,42.19057],[-70.72066,42.19057],[-70.72066,42.19022],[-70.72068,42.19019],[-70.72074,42.19019],[-70.72076,42.19021],[-70.72077,42.19034],[-70.72082,42.19039],[-70.7209,42.19041],[-70.72098,42.19047],[-70.721,42.19055],[-70.72109,42.19061],[-70.72122,42.19067],[-70.7213,42.19074],[-70.72132,42.19091],[-70.72139,42.19095],[-70.72165,42.19098],[-70.72174,42.19101],[-70.72188,42.19111],[-70.72196,42.19119],[-70.72214,42.1913],[-70.72224,42.1913],[-70.7223,42.19128],[-70.72234,42.19122],[-70.72234,42.19112],[-70.72234,42.19104],[-70.72231,42.19101],[-70.7223,42.19096],[-70.722,42.19053],[-70.72197,42.19046],[-70.72195,42.19044],[-70.72191,42.19031],[-70.72182,42.19013],[-70.72181,42.19008],[-70.72175,42.19002],[-70.72174,42.18999],[-70.72171,42.1899],[-70.72168,42.18986],[-70.72164,42.18976],[-70.72157,42.18969],[-70.72158,42.18965],[-70.72153,42.18957],[-70.72153,42.18955],[-70.72149,42.18951],[-70.72139,42.18945],[-70.72097,42.18934],[-70.72077,42.18924],[-70.72057,42.18912],[-70.72045,42.18898],[-70.72045,42.18895],[-70.72043,42.18894],[-70.7204,42.18887],[-70.72041,42.1887],[-70.7205,42.18849],[-70.7205,42.18836],[-70.72047,42.18831],[-70.72034,42.18819],[-70.72005,42.188],[-70.72003,42.18797],[-70.72031,42.18795],[-70.72044,42.18801],[-70.72056,42.188],[-70.72064,42.18806],[-70.72067,42.18818],[-70.72068,42.1882],[-70.72072,42.18831],[-70.72074,42.18831],[-70.72078,42.18843],[-70.72079,42.18848],[-70.72081,42.1885],[-70.72089,42.18885],[-70.72107,42.18909],[-70.72124,42.18918],[-70.72156,42.18928],[-70.72175,42.18937],[-70.72185,42.18945],[-70.72186,42.18947],[-70.72188,42.1895],[-70.72213,42.18979],[-70.72216,42.18985],[-70.7223,42.18993],[-70.72235,42.19003],[-70.7224,42.19005],[-70.7225,42.19006],[-70.72252,42.19005],[-70.72255,42.18997],[-70.7226,42.18993],[-70.72295,42.18986],[-70.72305,42.18979],[-70.72301,42.18968],[-70.72273,42.18946],[-70.72304,42.18951],[-70.72314,42.18959],[-70.72318,42.1896],[-70.72327,42.18958],[-70.7233,42.18952],[-70.72336,42.18944],[-70.72343,42.18956],[-70.7233,42.18978],[-70.72314,42.18999],[-70.72304,42.19007],[-70.72275,42.19024],[-70.72268,42.19036],[-70.72265,42.19048],[-70.72266,42.19058],[-70.72274,42.19069],[-70.72275,42.19073],[-70.72282,42.19081],[-70.72291,42.19096],[-70.72294,42.19098],[-70.72295,42.19104],[-70.72297,42.19106],[-70.72295,42.19114],[-70.7229,42.19125],[-70.72285,42.19128],[-70.72284,42.19131],[-70.72278,42.19135],[-70.72274,42.19144],[-70.72271,42.19147],[-70.72266,42.19155],[-70.72248,42.1917],[-70.72241,42.19183],[-70.72222,42.192],[-70.72211,42.19205],[-70.72174,42.19206],[-70.72161,42.19208],[-70.72154,42.19213],[-70.72152,42.19218],[-70.72153,42.1923],[-70.72153,42.1924],[-70.72165,42.19249],[-70.72191,42.19268],[-70.72203,42.19284],[-70.72208,42.193],[-70.7221,42.19309],[-70.72214,42.19326],[-70.72216,42.19329],[-70.72226,42.19329],[-70.72239,42.19326],[-70.72267,42.19304],[-70.72281,42.19298],[-70.72304,42.19293],[-70.72319,42.19286],[-70.72356,42.19285],[-70.72369,42.19284],[-70.72401,42.19282],[-70.72419,42.19274],[-70.72431,42.19274],[-70.72439,42.19275],[-70.7248,42.19285],[-70.72511,42.19287],[-70.72535,42.19284],[-70.72565,42.19276],[-70.72581,42.19277],[-70.72582,42.19279],[-70.72579,42.19284],[-70.72574,42.19289],[-70.72547,42.19297],[-70.72473,42.19315],[-70.72447,42.19324],[-70.72388,42.19344],[-70.72353,42.19358],[-70.72329,42.19374],[-70.72315,42.19394],[-70.72305,42.1942],[-70.72304,42.1946],[-70.7231,42.19475],[-70.72314,42.195],[-70.72317,42.19503],[-70.72339,42.19508],[-70.72368,42.19509],[-70.72387,42.19514],[-70.72388,42.19519],[-70.72382,42.19588],[-70.7238,42.19601],[-70.72379,42.1961],[-70.72379,42.19617],[-70.72369,42.19633],[-70.72362,42.1964],[-70.72343,42.19651],[-70.72342,42.1966],[-70.7235,42.1967],[-70.72353,42.19676],[-70.72361,42.1968],[-70.72375,42.19682],[-70.72408,42.1968],[-70.72414,42.1968],[-70.72428,42.19684],[-70.72438,42.19693],[-70.72447,42.19705],[-70.72449,42.1971],[-70.72468,42.19732],[-70.72479,42.1974],[-70.72494,42.19743],[-70.72501,42.1975],[-70.72506,42.1976],[-70.72504,42.19766],[-70.72467,42.19776],[-70.72463,42.19781],[-70.72465,42.19792],[-70.72468,42.19796],[-70.72475,42.19797],[-70.72511,42.19794],[-70.72511,42.198],[-70.72518,42.19817],[-70.7253,42.19824],[-70.72547,42.19836],[-70.72557,42.19839],[-70.7258,42.19835],[-70.72597,42.19856],[-70.726,42.19871],[-70.72604,42.19876],[-70.72609,42.19879],[-70.72617,42.19881],[-70.72618,42.19888],[-70.72626,42.19902],[-70.72632,42.19905],[-70.72646,42.1992],[-70.72663,42.19922],[-70.72665,42.19928],[-70.72675,42.19939],[-70.72671,42.19942],[-70.72671,42.19951],[-70.72666,42.19961],[-70.72668,42.19963],[-70.72663,42.19978],[-70.72665,42.19983],[-70.72667,42.19984],[-70.72664,42.20006],[-70.72665,42.20056],[-70.72669,42.20057],[-70.72669,42.20072],[-70.72666,42.20075],[-70.72662,42.20079],[-70.72646,42.20082],[-70.72642,42.20091],[-70.72639,42.20098],[-70.72636,42.20102],[-70.72595,42.20149],[-70.72562,42.20174],[-70.72505,42.2021],[-70.72478,42.20226],[-70.7245,42.2024],[-70.72436,42.20242],[-70.72376,42.20263],[-70.72378,42.20274],[-70.72371,42.20287],[-70.72366,42.20297],[-70.72357,42.20313],[-70.72354,42.20323],[-70.72352,42.20337],[-70.72357,42.20353],[-70.72362,42.20362],[-70.72381,42.20393],[-70.72391,42.20424],[-70.72393,42.2045],[-70.72395,42.20466],[-70.72397,42.20474],[-70.72397,42.20486],[-70.72396,42.20527],[-70.72391,42.20557],[-70.72365,42.20605],[-70.7236,42.20623],[-70.72346,42.20642],[-70.72305,42.20679],[-70.72253,42.20709],[-70.72217,42.2072],[-70.72192,42.20724],[-70.72156,42.20726],[-70.72134,42.20727],[-70.72086,42.20718],[-70.72013,42.20704],[-70.71956,42.20695],[-70.71929,42.20687],[-70.71901,42.20667],[-70.71887,42.20651],[-70.71873,42.20629],[-70.7186,42.20609],[-70.7182,42.20564],[-70.71759,42.20516],[-70.71699,42.20485],[-70.71659,42.20462],[-70.71647,42.20458],[-70.7164,42.20458],[-70.7163,42.20459],[-70.71615,42.20457],[-70.71605,42.20449],[-70.71526,42.20445],[-70.71532,42.20458],[-70.71536,42.20474],[-70.7154,42.20491],[-70.71543,42.20507],[-70.71545,42.20528],[-70.71547,42.20539],[-70.71556,42.20559],[-70.71562,42.20576],[-70.71567,42.20595],[-70.71572,42.20608],[-70.71584,42.20629],[-70.7159,42.20641],[-70.716,42.20661],[-70.71611,42.20682],[-70.71626,42.20705],[-70.71641,42.20722],[-70.71673,42.20757],[-70.71692,42.20776],[-70.71718,42.20798],[-70.71755,42.20828],[-70.71778,42.20842],[-70.71794,42.20851],[-70.7182,42.2086],[-70.71842,42.20867],[-70.71879,42.20878],[-70.71895,42.20878],[-70.7191,42.20877],[-70.71926,42.20875],[-70.71947,42.20867],[-70.71957,42.20863],[-70.72006,42.20829],[-70.72042,42.20798],[-70.72062,42.20787],[-70.72078,42.20787],[-70.72152,42.20797],[-70.72196,42.2081],[-70.72274,42.20848],[-70.72328,42.20883],[-70.72389,42.20923],[-70.72518,42.20984],[-70.72607,42.21012],[-70.72716,42.21032],[-70.72782,42.21041],[-70.72878,42.21074],[-70.72921,42.21086],[-70.73015,42.2112],[-70.7312,42.21162],[-70.73216,42.21215],[-70.73352,42.21302],[-70.73417,42.21354],[-70.73445,42.21385],[-70.7353,42.21443],[-70.73597,42.21502],[-70.73667,42.21576],[-70.73727,42.21651],[-70.73791,42.21731],[-70.73863,42.21791],[-70.73942,42.21842],[-70.74026,42.2189],[-70.74068,42.21906],[-70.74103,42.21924],[-70.74141,42.21935],[-70.74198,42.21946],[-70.74249,42.21957],[-70.74331,42.21977],[-70.74409,42.22006],[-70.74501,42.22036],[-70.74529,42.22052],[-70.74535,42.22051],[-70.74549,42.22052],[-70.74581,42.22058],[-70.74597,42.22064],[-70.74603,42.22067],[-70.7461,42.2207],[-70.7464,42.22078],[-70.74658,42.22087],[-70.74693,42.22109],[-70.74723,42.22131],[-70.74758,42.22172],[-70.74769,42.22187],[-70.7479,42.2221],[-70.74796,42.22217],[-70.74794,42.2222],[-70.74799,42.22222],[-70.74799,42.22227],[-70.74824,42.22253],[-70.74827,42.22258],[-70.74838,42.22272],[-70.74853,42.22285],[-70.74892,42.22323],[-70.74894,42.22327],[-70.74949,42.22327],[-70.74977,42.22366],[-70.75009,42.22402],[-70.75009,42.22404],[-70.75014,42.22408],[-70.75021,42.22416],[-70.75034,42.22428],[-70.75034,42.22431],[-70.75056,42.22449],[-70.75093,42.22476],[-70.75115,42.2249],[-70.75163,42.22523],[-70.75226,42.2256],[-70.75269,42.22589],[-70.75306,42.22617],[-70.75346,42.22651],[-70.75362,42.22669],[-70.75402,42.22704],[-70.75433,42.22738],[-70.75434,42.22742],[-70.75439,42.22747],[-70.75439,42.22749],[-70.75455,42.22765],[-70.75473,42.22794],[-70.7548,42.22804],[-70.75482,42.22805],[-70.75482,42.22807],[-70.75495,42.2282],[-70.75501,42.22829],[-70.75513,42.22842],[-70.75513,42.22844],[-70.7552,42.2285],[-70.75522,42.22854],[-70.75525,42.22856],[-70.75525,42.22858],[-70.75535,42.22866],[-70.75542,42.22878],[-70.75555,42.2289],[-70.75555,42.22892],[-70.7558,42.22917],[-70.75602,42.22943],[-70.7561,42.22951],[-70.75615,42.22959],[-70.75625,42.22969],[-70.75631,42.2298],[-70.75636,42.22983],[-70.75641,42.22991],[-70.75644,42.22994],[-70.7565,42.23003],[-70.7566,42.23016],[-70.75661,42.23021],[-70.7569,42.23062],[-70.75704,42.23084],[-70.75715,42.23097],[-70.75715,42.231],[-70.75725,42.23115],[-70.75725,42.23118],[-70.75731,42.23123],[-70.75743,42.23142],[-70.75752,42.23153],[-70.75752,42.23154],[-70.75759,42.23169],[-70.75775,42.23191],[-70.75775,42.23193],[-70.7578,42.23198],[-70.7578,42.23201],[-70.75782,42.23202],[-70.75782,42.23206],[-70.7579,42.23216],[-70.75795,42.23226],[-70.75809,42.23246],[-70.75824,42.23264],[-70.75834,42.2328],[-70.75857,42.23312],[-70.75883,42.23351],[-70.75897,42.23375],[-70.759,42.23379],[-70.75901,42.23381],[-70.75908,42.23402],[-70.75917,42.23418],[-70.7593,42.23453],[-70.75935,42.23458],[-70.75945,42.23493],[-70.75946,42.23495],[-70.75966,42.2354],[-70.75966,42.23546],[-70.75972,42.23554],[-70.75973,42.23558],[-70.75976,42.2356],[-70.75979,42.23571],[-70.75981,42.23573],[-70.75981,42.23575],[-70.75983,42.23577],[-70.75986,42.23586],[-70.75989,42.23587],[-70.75991,42.23595],[-70.75999,42.23614],[-70.75999,42.23617],[-70.76003,42.23618],[-70.7602,42.2367],[-70.7602,42.23678],[-70.76023,42.23681],[-70.76024,42.23688],[-70.76029,42.23698],[-70.7603,42.23707],[-70.76033,42.23712],[-70.76035,42.23721],[-70.76038,42.23729],[-70.76039,42.23747],[-70.76039,42.23754],[-70.76039,42.23762],[-70.76042,42.23766],[-70.76045,42.23801],[-70.76049,42.23835],[-70.7605,42.23837],[-70.76054,42.23863],[-70.76053,42.23886],[-70.76055,42.23941],[-70.76058,42.23948],[-70.76063,42.24007],[-70.76066,42.24031],[-70.76065,42.24062],[-70.76055,42.2408],[-70.76045,42.24091],[-70.76039,42.24094],[-70.76037,42.24095],[-70.7603,42.24105],[-70.76031,42.24114],[-70.76035,42.2412],[-70.76051,42.24124],[-70.76068,42.24125],[-70.7608,42.24121],[-70.76095,42.24109],[-70.76104,42.24105],[-70.76111,42.24105],[-70.76134,42.24112],[-70.76148,42.24123],[-70.76155,42.2413],[-70.76155,42.24132],[-70.76156,42.24133],[-70.76158,42.2414],[-70.76157,42.24153],[-70.76152,42.24164],[-70.76142,42.24173],[-70.76128,42.24178],[-70.76116,42.24182],[-70.76096,42.24198],[-70.76096,42.24204],[-70.76103,42.24208],[-70.76104,42.24213],[-70.76078,42.24223],[-70.76078,42.24227],[-70.76084,42.24229],[-70.76129,42.24229],[-70.76143,42.24234],[-70.76158,42.24243],[-70.76162,42.24248],[-70.76168,42.24256],[-70.76169,42.24263],[-70.76172,42.24266],[-70.76172,42.24268],[-70.76174,42.2427],[-70.76184,42.2427],[-70.76198,42.24263],[-70.76201,42.24256],[-70.762,42.24253],[-70.76179,42.24237],[-70.76174,42.2423],[-70.76175,42.24223],[-70.76183,42.24219],[-70.76193,42.24225],[-70.76211,42.24245],[-70.76225,42.2425],[-70.76251,42.24249],[-70.76258,42.24245],[-70.76261,42.24235],[-70.76266,42.24211],[-70.76268,42.24206],[-70.76288,42.24204],[-70.76303,42.24204],[-70.76314,42.24208],[-70.76319,42.24213],[-70.76319,42.24222],[-70.76341,42.24237],[-70.76373,42.24254],[-70.76401,42.24275],[-70.76424,42.24295],[-70.76424,42.24296],[-70.76441,42.24312],[-70.76456,42.24328],[-70.76465,42.24336],[-70.76466,42.24338],[-70.76468,42.24339],[-70.76488,42.24364],[-70.76514,42.24394],[-70.76533,42.24405],[-70.76539,42.24413],[-70.76541,42.24422],[-70.76542,42.24432],[-70.76539,42.24437],[-70.76516,42.24442],[-70.76513,42.24447],[-70.76509,42.24464],[-70.76507,42.24467],[-70.76507,42.24484],[-70.76509,42.24485],[-70.76512,42.24493],[-70.76524,42.2451],[-70.76526,42.24511],[-70.76527,42.24516],[-70.76529,42.24518],[-70.76532,42.24535],[-70.76526,42.24546],[-70.7651,42.24553],[-70.76507,42.24558],[-70.76507,42.24564],[-70.76512,42.2457],[-70.76514,42.24576],[-70.76513,42.2459],[-70.76508,42.246],[-70.76497,42.24612],[-70.76496,42.2462],[-70.76507,42.24632],[-70.76506,42.24644],[-70.76522,42.24645],[-70.76527,42.24647],[-70.7653,42.24656],[-70.76519,42.24671],[-70.76501,42.24684],[-70.76497,42.2469],[-70.76496,42.24701],[-70.765,42.2471],[-70.76507,42.24717],[-70.76518,42.24726],[-70.76517,42.24733],[-70.7651,42.2474],[-70.76501,42.24747],[-70.76498,42.24753],[-70.76495,42.24765],[-70.76487,42.24777],[-70.76446,42.24793],[-70.76439,42.248],[-70.76437,42.24806],[-70.76433,42.24813],[-70.76406,42.24826],[-70.76397,42.24839],[-70.76398,42.24854],[-70.76403,42.2486],[-70.76406,42.24861],[-70.76409,42.24866],[-70.76409,42.24875],[-70.76383,42.24901],[-70.76365,42.24917],[-70.76359,42.24922],[-70.76358,42.24937],[-70.76352,42.24946],[-70.76353,42.24964],[-70.76358,42.24982],[-70.76359,42.2499],[-70.76348,42.25004],[-70.76336,42.25012],[-70.76335,42.25017],[-70.7634,42.25032],[-70.76338,42.2504],[-70.76334,42.25046],[-70.76332,42.25051],[-70.76331,42.25055],[-70.76334,42.25059],[-70.76337,42.25062],[-70.76347,42.25063],[-70.76357,42.25067],[-70.76357,42.25074],[-70.7635,42.25082],[-70.76342,42.25087],[-70.76337,42.25089],[-70.76334,42.25092],[-70.7633,42.25099],[-70.7633,42.25108],[-70.76341,42.25111],[-70.76367,42.2511],[-70.7638,42.25113],[-70.76394,42.25112],[-70.76398,42.2511],[-70.76423,42.25102],[-70.76466,42.25102],[-70.76506,42.25089],[-70.76532,42.25085],[-70.76579,42.25083],[-70.76618,42.25086],[-70.76644,42.25082],[-70.76668,42.25073],[-70.76684,42.25072],[-70.76692,42.25074],[-70.76699,42.25078],[-70.76718,42.2508],[-70.76752,42.25078],[-70.76764,42.25082],[-70.76773,42.25089],[-70.76784,42.25104],[-70.76795,42.25115],[-70.76797,42.25118],[-70.768,42.25121],[-70.76799,42.25129],[-70.76797,42.25135],[-70.76784,42.25149],[-70.76781,42.25156],[-70.76787,42.25163],[-70.76807,42.25165],[-70.76811,42.25168],[-70.76811,42.25174],[-70.76806,42.25181],[-70.76797,42.25183],[-70.76777,42.25185],[-70.76764,42.2519],[-70.76757,42.25199],[-70.76749,42.25214],[-70.7675,42.2523],[-70.76754,42.25241],[-70.76751,42.25258],[-70.7673,42.253],[-70.76723,42.25312],[-70.76689,42.25348],[-70.76673,42.25375],[-70.76673,42.2539],[-70.76677,42.25394],[-70.7669,42.25402],[-70.76713,42.25411],[-70.76723,42.25415],[-70.76734,42.2542],[-70.76754,42.25418],[-70.76765,42.25412],[-70.76771,42.25406],[-70.76773,42.25405],[-70.76774,42.25403],[-70.76783,42.25399],[-70.768,42.25399],[-70.76813,42.25404],[-70.76824,42.25409],[-70.76838,42.25413],[-70.76849,42.25412],[-70.76872,42.25405],[-70.7689,42.25395],[-70.76897,42.25395],[-70.7691,42.25399],[-70.76931,42.25403]]],[[[-70.70482,42.16128],[-70.70485,42.16134],[-70.70489,42.16139],[-70.70489,42.16142],[-70.70494,42.16149],[-70.7049,42.16149],[-70.70469,42.16166],[-70.7046,42.16174],[-70.70458,42.16186],[-70.70459,42.16214],[-70.70467,42.16241],[-70.70466,42.16256],[-70.70449,42.16268],[-70.70417,42.16294],[-70.70404,42.16306],[-70.70403,42.16312],[-70.70405,42.16328],[-70.70405,42.16335],[-70.70407,42.16342],[-70.70434,42.16368],[-70.70484,42.16392],[-70.7053,42.16426],[-70.70557,42.16436],[-70.70571,42.16438],[-70.70598,42.16432],[-70.70624,42.16422],[-70.70653,42.16401],[-70.70687,42.16364],[-70.70711,42.16338],[-70.7072,42.1633],[-70.70749,42.16288],[-70.70763,42.16264],[-70.70782,42.16207],[-70.70785,42.16194],[-70.70786,42.1619],[-70.70787,42.16185],[-70.70791,42.16177],[-70.70804,42.16143],[-70.70838,42.16118],[-70.70857,42.16111],[-70.70888,42.1611],[-70.70926,42.16112],[-70.70989,42.16111],[-70.71005,42.16109],[-70.71027,42.16104],[-70.71065,42.16087],[-70.71104,42.16056],[-70.71126,42.16053],[-70.71153,42.16047],[-70.7119,42.16023],[-70.71205,42.1601],[-70.7121,42.16002],[-70.71214,42.15993],[-70.71214,42.15963],[-70.71212,42.15952],[-70.71208,42.15942],[-70.71204,42.15938],[-70.71204,42.15931],[-70.71195,42.15918],[-70.71194,42.15916],[-70.71187,42.15903],[-70.7118,42.15895],[-70.7118,42.15893],[-70.71178,42.1589],[-70.71178,42.15888],[-70.71174,42.15885],[-70.71174,42.15883],[-70.7117,42.15882],[-70.71171,42.15879],[-70.71168,42.15868],[-70.71167,42.15866],[-70.71166,42.15864],[-70.71163,42.15858],[-70.71106,42.15835],[-70.71095,42.15826],[-70.71086,42.15806],[-70.71065,42.15743],[-70.71058,42.15734],[-70.71017,42.15729],[-70.70992,42.1573],[-70.70982,42.15734],[-70.70949,42.15756],[-70.70875,42.1576],[-70.70834,42.15766],[-70.70814,42.15776],[-70.70798,42.1579],[-70.70786,42.15808],[-70.70771,42.15819],[-70.70702,42.1582],[-70.70684,42.1581],[-70.70674,42.15804],[-70.70636,42.15758],[-70.70566,42.15703],[-70.70551,42.15681],[-70.70533,42.1566],[-70.70465,42.15612],[-70.70445,42.15606],[-70.70369,42.15595],[-70.70329,42.15574],[-70.70314,42.15567],[-70.70295,42.15561],[-70.7027,42.15536],[-70.70246,42.1549],[-70.7022,42.15464],[-70.70175,42.15399],[-70.70128,42.15354],[-70.70086,42.15333],[-70.70058,42.15311],[-70.6985,42.14957],[-70.69851,42.14949],[-70.69807,42.14897],[-70.698,42.14885],[-70.69778,42.14827],[-70.69673,42.14671],[-70.69663,42.14654],[-70.69636,42.14485],[-70.69646,42.14404],[-70.6964,42.14375],[-70.69621,42.14357],[-70.69581,42.14332],[-70.69589,42.14332],[-70.69599,42.1427],[-70.69587,42.14251],[-70.69561,42.14238],[-70.69534,42.14239],[-70.69491,42.14185],[-70.69478,42.14154],[-70.69473,42.14138],[-70.69448,42.14098],[-70.69425,42.14061],[-70.6941,42.14036],[-70.69383,42.13998],[-70.69365,42.14002],[-70.69343,42.13994],[-70.69337,42.1397],[-70.69311,42.13949],[-70.69303,42.13921],[-70.69282,42.13896],[-70.69273,42.13885],[-70.69256,42.13866],[-70.69249,42.13851],[-70.69242,42.13832],[-70.69228,42.13803],[-70.69223,42.13762],[-70.69237,42.13755],[-70.69256,42.1374],[-70.69256,42.13718],[-70.6925,42.13707],[-70.69238,42.13706],[-70.6923,42.13714],[-70.69222,42.13723],[-70.69211,42.13723],[-70.69204,42.13717],[-70.69203,42.13712],[-70.69201,42.13705],[-70.69196,42.13693],[-70.6919,42.13668],[-70.69188,42.13659],[-70.69183,42.13633],[-70.69181,42.13616],[-70.6918,42.13604],[-70.69169,42.1357],[-70.69149,42.13537],[-70.6914,42.13529],[-70.69122,42.13513],[-70.69098,42.13495],[-70.69075,42.13484],[-70.69048,42.13476],[-70.69027,42.13466],[-70.69013,42.13454],[-70.69005,42.1344],[-70.68979,42.13425],[-70.68949,42.13413],[-70.68927,42.13402],[-70.68916,42.13396],[-70.68888,42.13379],[-70.6885,42.13365],[-70.68815,42.1335],[-70.68798,42.1334],[-70.6878,42.13325],[-70.68764,42.13319],[-70.68744,42.13306],[-70.68734,42.13288],[-70.68742,42.1326],[-70.68745,42.13239],[-70.68737,42.13227],[-70.68758,42.13216],[-70.68759,42.13211],[-70.6876,42.13184],[-70.68746,42.13167],[-70.68729,42.13139],[-70.68722,42.13126],[-70.6872,42.13117],[-70.68713,42.13104],[-70.68703,42.13078],[-70.68689,42.13062],[-70.68681,42.13048],[-70.68657,42.13035],[-70.68641,42.13027],[-70.68634,42.13023],[-70.68618,42.13009],[-70.68606,42.12991],[-70.68595,42.1297],[-70.68587,42.12952],[-70.68572,42.12934],[-70.68562,42.12928],[-70.68555,42.12923],[-70.68544,42.12917],[-70.68517,42.12906],[-70.68487,42.12892],[-70.68401,42.12771],[-70.68377,42.12723],[-70.68367,42.12703],[-70.68297,42.1265],[-70.68267,42.1262],[-70.6826,42.12603],[-70.68261,42.12536],[-70.68253,42.12541],[-70.68005,42.12635],[-70.6799,42.12613],[-70.67777,42.12687],[-70.67783,42.12693],[-70.67807,42.12714],[-70.67908,42.12788],[-70.67955,42.12831],[-70.67968,42.12844],[-70.67968,42.12845],[-70.67972,42.12849],[-70.67972,42.12851],[-70.67985,42.12864],[-70.67986,42.12866],[-70.67994,42.12873],[-70.67995,42.12877],[-70.68,42.12883],[-70.68,42.12884],[-70.68005,42.12889],[-70.68014,42.12904],[-70.68017,42.12907],[-70.68024,42.12917],[-70.68031,42.12928],[-70.6804,42.1294],[-70.68044,42.12947],[-70.68081,42.12993],[-70.68084,42.12996],[-70.68088,42.13004],[-70.68092,42.1301],[-70.68095,42.13013],[-70.68098,42.13015],[-70.68103,42.13022],[-70.6811,42.13029],[-70.68111,42.13032],[-70.68114,42.13035],[-70.68114,42.13039],[-70.68121,42.13043],[-70.68123,42.13048],[-70.6813,42.13055],[-70.6813,42.13057],[-70.68135,42.13062],[-70.6814,42.1307],[-70.68144,42.13073],[-70.68145,42.13076],[-70.6815,42.13081],[-70.68167,42.13104],[-70.6817,42.13106],[-70.68175,42.13114],[-70.68178,42.13116],[-70.6818,42.13123],[-70.68184,42.13124],[-70.68185,42.13127],[-70.68191,42.13132],[-70.68191,42.13134],[-70.68194,42.13136],[-70.682,42.13146],[-70.68204,42.13148],[-70.68204,42.1315],[-70.68212,42.13159],[-70.68213,42.13161],[-70.68217,42.13166],[-70.68217,42.13168],[-70.6822,42.13171],[-70.68224,42.13176],[-70.68234,42.13189],[-70.68237,42.13191],[-70.68237,42.13194],[-70.68244,42.132],[-70.68245,42.13202],[-70.6825,42.13206],[-70.6825,42.13208],[-70.68255,42.13213],[-70.68255,42.13216],[-70.6826,42.1322],[-70.68265,42.13229],[-70.68272,42.13236],[-70.6827,42.13239],[-70.68274,42.13241],[-70.68281,42.13247],[-70.68284,42.13253],[-70.68287,42.13255],[-70.68287,42.13257],[-70.68292,42.13262],[-70.68293,42.13267],[-70.68303,42.13275],[-70.68306,42.13282],[-70.6833,42.13312],[-70.68369,42.1336],[-70.68375,42.13365],[-70.68376,42.13369],[-70.68384,42.13378],[-70.68387,42.13385],[-70.68412,42.13412],[-70.6842,42.13422],[-70.68421,42.13424],[-70.68427,42.1343],[-70.68432,42.13438],[-70.68455,42.13464],[-70.68469,42.13479],[-70.68469,42.13481],[-70.68475,42.13486],[-70.68475,42.13488],[-70.68478,42.1349],[-70.68479,42.13492],[-70.6849,42.13503],[-70.68494,42.13507],[-70.68494,42.13509],[-70.68499,42.13511],[-70.68499,42.13513],[-70.68506,42.1352],[-70.68508,42.13524],[-70.68519,42.13535],[-70.68528,42.13543],[-70.68564,42.13572],[-70.68564,42.13573],[-70.68579,42.13587],[-70.6859,42.13597],[-70.68601,42.13609],[-70.68608,42.13615],[-70.68607,42.13617],[-70.68615,42.13622],[-70.68615,42.13624],[-70.6863,42.13639],[-70.68633,42.13644],[-70.68645,42.13656],[-70.68667,42.1368],[-70.68667,42.13682],[-70.68677,42.13693],[-70.68677,42.13695],[-70.68687,42.13703],[-70.68694,42.13713],[-70.68699,42.13717],[-70.68702,42.13723],[-70.68707,42.1373],[-70.68712,42.13736],[-70.68724,42.13752],[-70.68739,42.13772],[-70.68741,42.13777],[-70.68754,42.13792],[-70.68756,42.13796],[-70.68773,42.13817],[-70.68773,42.1382],[-70.68778,42.13823],[-70.68777,42.13825],[-70.68783,42.13831],[-70.68786,42.13836],[-70.6879,42.13842],[-70.68797,42.13848],[-70.68797,42.13851],[-70.68799,42.13852],[-70.688,42.13856],[-70.68806,42.1386],[-70.68817,42.13874],[-70.68817,42.13876],[-70.68825,42.13887],[-70.6883,42.13895],[-70.68843,42.13909],[-70.68844,42.13913],[-70.68855,42.13926],[-70.68856,42.13927],[-70.68857,42.13931],[-70.68904,42.14],[-70.68906,42.14003],[-70.6891,42.14009],[-70.68923,42.14027],[-70.68929,42.14034],[-70.68939,42.1405],[-70.68949,42.14062],[-70.68952,42.14067],[-70.68962,42.14081],[-70.68973,42.14095],[-70.68979,42.14103],[-70.6898,42.14106],[-70.68991,42.14119],[-70.68993,42.14126],[-70.68997,42.14128],[-70.68999,42.14134],[-70.69004,42.14139],[-70.69006,42.14143],[-70.69009,42.14145],[-70.69013,42.14151],[-70.69022,42.14164],[-70.69032,42.14177],[-70.69042,42.14193],[-70.69048,42.14199],[-70.6905,42.14204],[-70.69061,42.14221],[-70.69064,42.14223],[-70.69075,42.14241],[-70.69078,42.14243],[-70.69081,42.14248],[-70.69083,42.14253],[-70.69086,42.14255],[-70.69088,42.14261],[-70.691,42.14278],[-70.6912,42.14309],[-70.69135,42.14327],[-70.69135,42.1433],[-70.69137,42.14333],[-70.69156,42.14361],[-70.69157,42.14363],[-70.69163,42.1437],[-70.69175,42.1439],[-70.6918,42.14393],[-70.69181,42.14397],[-70.69187,42.14401],[-70.69189,42.14407],[-70.69197,42.14417],[-70.69195,42.14419],[-70.69212,42.14437],[-70.69212,42.1444],[-70.69217,42.14446],[-70.69229,42.14462],[-70.69229,42.14465],[-70.69235,42.1447],[-70.69237,42.14477],[-70.69241,42.1448],[-70.69241,42.14482],[-70.69263,42.14513],[-70.69265,42.14515],[-70.69269,42.14521],[-70.69272,42.14523],[-70.69272,42.14525],[-70.69274,42.14527],[-70.69276,42.1453],[-70.69313,42.14581],[-70.69313,42.14583],[-70.69318,42.14588],[-70.69325,42.14599],[-70.69334,42.1461],[-70.69337,42.14616],[-70.6934,42.14618],[-70.69339,42.14621],[-70.6935,42.14632],[-70.6935,42.14636],[-70.69354,42.1464],[-70.69354,42.14642],[-70.6936,42.14649],[-70.69364,42.14654],[-70.69367,42.14657],[-70.69368,42.14661],[-70.69379,42.14674],[-70.69379,42.14676],[-70.69415,42.14729],[-70.69415,42.14732],[-70.6943,42.14753],[-70.69442,42.14772],[-70.69444,42.14773],[-70.69445,42.14777],[-70.69456,42.14792],[-70.69457,42.14795],[-70.69463,42.14799],[-70.69463,42.14803],[-70.69467,42.14808],[-70.69467,42.14812],[-70.69475,42.14821],[-70.69477,42.14825],[-70.6948,42.14827],[-70.6948,42.14828],[-70.69483,42.14831],[-70.69483,42.14835],[-70.69503,42.14864],[-70.69503,42.14866],[-70.69507,42.14868],[-70.69507,42.14871],[-70.6951,42.14875],[-70.69511,42.1488],[-70.69526,42.14899],[-70.69527,42.14904],[-70.69534,42.14914],[-70.69534,42.14916],[-70.69541,42.14927],[-70.69543,42.14935],[-70.69545,42.14937],[-70.69545,42.14939],[-70.6955,42.14944],[-70.69553,42.14952],[-70.69556,42.14955],[-70.69556,42.14957],[-70.69566,42.14972],[-70.69566,42.14975],[-70.6957,42.14979],[-70.69571,42.14983],[-70.69576,42.14994],[-70.69576,42.14996],[-70.69583,42.15002],[-70.69583,42.15005],[-70.69613,42.15044],[-70.69613,42.15052],[-70.69627,42.15062],[-70.69627,42.15065],[-70.6963,42.15067],[-70.6963,42.1507],[-70.69638,42.15078],[-70.69638,42.15082],[-70.69644,42.15085],[-70.69645,42.15087],[-70.69653,42.15095],[-70.69653,42.15097],[-70.69659,42.15104],[-70.69665,42.15113],[-70.69673,42.1512],[-70.69674,42.15124],[-70.69677,42.15126],[-70.69677,42.15128],[-70.69686,42.15138],[-70.69686,42.1514],[-70.69695,42.15147],[-70.69695,42.15149],[-70.69704,42.15159],[-70.69714,42.15174],[-70.6972,42.15178],[-70.69729,42.1519],[-70.69732,42.15193],[-70.69739,42.15203],[-70.69739,42.15205],[-70.69754,42.15222],[-70.69752,42.15225],[-70.69759,42.15229],[-70.69759,42.15231],[-70.69772,42.15248],[-70.69782,42.15263],[-70.69783,42.15265],[-70.69786,42.15267],[-70.69796,42.15281],[-70.69797,42.15284],[-70.69802,42.15287],[-70.69802,42.15289],[-70.69811,42.15298],[-70.69811,42.153],[-70.6982,42.1531],[-70.69821,42.15314],[-70.69827,42.15321],[-70.69827,42.15323],[-70.69833,42.15327],[-70.69833,42.1533],[-70.69843,42.15344],[-70.69848,42.15347],[-70.69862,42.15373],[-70.69869,42.15382],[-70.69869,42.15385],[-70.69872,42.15385],[-70.69872,42.15387],[-70.69875,42.1539],[-70.69875,42.15394],[-70.69878,42.15395],[-70.69876,42.15397],[-70.69879,42.15399],[-70.6988,42.15402],[-70.69882,42.15404],[-70.69882,42.15406],[-70.69887,42.15411],[-70.69892,42.15423],[-70.69911,42.15448],[-70.69912,42.15452],[-70.69912,42.15454],[-70.69912,42.15456],[-70.69918,42.15461],[-70.69925,42.15475],[-70.6993,42.1548],[-70.69932,42.15488],[-70.69935,42.15491],[-70.6994,42.15498],[-70.69942,42.15501],[-70.69945,42.15506],[-70.69948,42.1551],[-70.69955,42.15522],[-70.69958,42.15524],[-70.69985,42.15572],[-70.69989,42.15573],[-70.69989,42.15576],[-70.69992,42.1558],[-70.69995,42.15585],[-70.69998,42.15591],[-70.69998,42.15593],[-70.70002,42.15596],[-70.70001,42.15598],[-70.70008,42.15604],[-70.70008,42.15606],[-70.70011,42.15608],[-70.70015,42.15617],[-70.70018,42.1562],[-70.70019,42.15625],[-70.70028,42.15636],[-70.7003,42.1564],[-70.70047,42.15664],[-70.70056,42.15682],[-70.70069,42.15704],[-70.70082,42.15721],[-70.70086,42.15729],[-70.7009,42.15733],[-70.7009,42.15735],[-70.70095,42.15737],[-70.70093,42.15742],[-70.70101,42.15749],[-70.70101,42.15752],[-70.70111,42.15763],[-70.70115,42.15769],[-70.70113,42.15772],[-70.70122,42.15779],[-70.70124,42.15782],[-70.70128,42.15786],[-70.70128,42.15791],[-70.70133,42.15795],[-70.70138,42.15804],[-70.70145,42.15813],[-70.70145,42.15816],[-70.70148,42.15818],[-70.70148,42.1582],[-70.70153,42.15827],[-70.70151,42.15829],[-70.70158,42.15836],[-70.70163,42.15846],[-70.70166,42.15847],[-70.70168,42.15858],[-70.70171,42.15862],[-70.70178,42.15869],[-70.70181,42.15877],[-70.70192,42.15896],[-70.70195,42.15899],[-70.70195,42.15902],[-70.70199,42.15905],[-70.70202,42.15912],[-70.70207,42.15915],[-70.70207,42.15918],[-70.70228,42.15948],[-70.70227,42.15949],[-70.70262,42.16002],[-70.70269,42.16007],[-70.70271,42.16011],[-70.70287,42.16025],[-70.70305,42.1604],[-70.70321,42.1605],[-70.70341,42.16055],[-70.70373,42.16061],[-70.70403,42.16061],[-70.70436,42.16057],[-70.70445,42.16057],[-70.70447,42.1606],[-70.70452,42.16071],[-70.70458,42.16079],[-70.70462,42.16091],[-70.70465,42.16093],[-70.70464,42.16095],[-70.70469,42.16105],[-70.70474,42.1611],[-70.70479,42.16124],[-70.70482,42.16128]]],[[[-70.70543,42.15368],[-70.70542,42.1539],[-70.70548,42.15428],[-70.70553,42.15465],[-70.70596,42.15506],[-70.70647,42.1555],[-70.70748,42.15587],[-70.70812,42.15608],[-70.70848,42.15622],[-70.70869,42.15625],[-70.70885,42.15629],[-70.70904,42.15611],[-70.70915,42.15587],[-70.70918,42.15571],[-70.70904,42.15548],[-70.70901,42.15508],[-70.70898,42.15465],[-70.7091,42.15424],[-70.70936,42.15401],[-70.70947,42.15389],[-70.70945,42.15374],[-70.7091,42.15346],[-70.70844,42.15319],[-70.70763,42.15308],[-70.70661,42.15306],[-70.70601,42.15306],[-70.70542,42.15301],[-70.70543,42.15341],[-70.70543,42.15368]]],[[[-70.69751,42.14415],[-70.69743,42.1442],[-70.69725,42.14439],[-70.69719,42.14473],[-70.6972,42.14484],[-70.69711,42.14526],[-70.69708,42.14552],[-70.69709,42.1458],[-70.6972,42.14599],[-70.69766,42.14673],[-70.698,42.14732],[-70.69813,42.1476],[-70.69825,42.14771],[-70.6986,42.14781],[-70.69896,42.14765],[-70.69937,42.14745],[-70.69967,42.1472],[-70.69993,42.14699],[-70.70002,42.14679],[-70.70004,42.14635],[-70.70003,42.14599],[-70.69987,42.14547],[-70.69964,42.14506],[-70.69939,42.14483],[-70.69891,42.14463],[-70.69857,42.14446],[-70.69794,42.14425],[-70.69768,42.14415],[-70.69751,42.14415]]],[[[-70.75135,42.24131],[-70.75127,42.24142],[-70.75123,42.24159],[-70.7512,42.24166],[-70.7512,42.24177],[-70.75123,42.24183],[-70.75136,42.24201],[-70.75148,42.24212],[-70.75162,42.24221],[-70.75186,42.24228],[-70.75214,42.24227],[-70.75236,42.24225],[-70.75238,42.24221],[-70.75253,42.24214],[-70.75256,42.24208],[-70.75261,42.24207],[-70.75269,42.24203],[-70.7527,42.24195],[-70.75267,42.24192],[-70.7525,42.24186],[-70.75234,42.24179],[-70.75232,42.24173],[-70.75237,42.24171],[-70.75245,42.2417],[-70.75285,42.24177],[-70.753,42.24183],[-70.753,42.24196],[-70.75285,42.24215],[-70.75285,42.24217],[-70.75277,42.24226],[-70.75277,42.24236],[-70.75281,42.24241],[-70.75282,42.24244],[-70.75286,42.2425],[-70.753,42.24261],[-70.75323,42.24269],[-70.7534,42.24271],[-70.7535,42.24267],[-70.75361,42.24259],[-70.75368,42.24247],[-70.75369,42.2424],[-70.7537,42.24237],[-70.75371,42.24201],[-70.75369,42.24189],[-70.75367,42.24187],[-70.75366,42.24185],[-70.75363,42.24183],[-70.75363,42.24181],[-70.7536,42.24175],[-70.75357,42.24166],[-70.75361,42.24163],[-70.75363,42.24146],[-70.75361,42.2414],[-70.7535,42.24134],[-70.75344,42.24133],[-70.75339,42.24133],[-70.75331,42.24127],[-70.75331,42.24122],[-70.75314,42.24112],[-70.75296,42.24108],[-70.7528,42.24109],[-70.75271,42.24114],[-70.75267,42.24126],[-70.75264,42.24132],[-70.75259,42.24135],[-70.75248,42.24135],[-70.75231,42.2413],[-70.75207,42.24118],[-70.75185,42.2412],[-70.7517,42.24124],[-70.7516,42.24126],[-70.7514,42.24131],[-70.75135,42.24131]]],[[[-70.76804,42.25797],[-70.7682,42.25793],[-70.76826,42.25791],[-70.76836,42.25783],[-70.76845,42.25784],[-70.7685,42.25788],[-70.7686,42.25788],[-70.76889,42.25789],[-70.76905,42.25784],[-70.76911,42.2578],[-70.76922,42.25773],[-70.76932,42.25768],[-70.76943,42.2576],[-70.76956,42.25738],[-70.7696,42.25718],[-70.76963,42.25713],[-70.76966,42.25694],[-70.76976,42.25682],[-70.76993,42.2567],[-70.77013,42.25662],[-70.77028,42.25652],[-70.77032,42.25649],[-70.77036,42.25643],[-70.77037,42.25639],[-70.77032,42.25635],[-70.76996,42.25639],[-70.76975,42.25648],[-70.76935,42.25656],[-70.76909,42.25658],[-70.76893,42.25652],[-70.76883,42.25647],[-70.76867,42.25644],[-70.76856,42.25644],[-70.76843,42.25647],[-70.76818,42.25666],[-70.76812,42.25673],[-70.76812,42.25699],[-70.76809,42.25706],[-70.76811,42.25723],[-70.76809,42.25749],[-70.76796,42.25771],[-70.76793,42.2579],[-70.76798,42.25795],[-70.76804,42.25797]]],[[[-70.70545,42.15218],[-70.70528,42.15233],[-70.70509,42.15258],[-70.70532,42.15265],[-70.70556,42.15269],[-70.70594,42.15271],[-70.7064,42.15271],[-70.70686,42.15269],[-70.70744,42.15266],[-70.70777,42.15262],[-70.70793,42.15239],[-70.70764,42.15219],[-70.70734,42.15209],[-70.70688,42.15211],[-70.70647,42.15204],[-70.70599,42.15208],[-70.70545,42.15218]]],[[[-70.75135,42.24131],[-70.75135,42.2412],[-70.75139,42.24118],[-70.75137,42.24101],[-70.7514,42.24096],[-70.75149,42.24096],[-70.75167,42.24098],[-70.75178,42.24098],[-70.75189,42.24094],[-70.7519,42.24091],[-70.75205,42.24081],[-70.75206,42.24076],[-70.75202,42.24072],[-70.75157,42.24049],[-70.75141,42.24043],[-70.7512,42.24045],[-70.75104,42.24048],[-70.75084,42.24059],[-70.75078,42.24067],[-70.75073,42.2407],[-70.75062,42.24084],[-70.75055,42.24095],[-70.7505,42.24107],[-70.7505,42.24116],[-70.75047,42.2412],[-70.75047,42.24123],[-70.75033,42.24126],[-70.75034,42.24134],[-70.7503,42.24139],[-70.75028,42.24144],[-70.75028,42.24155],[-70.75031,42.2416],[-70.75043,42.2417],[-70.7506,42.24178],[-70.75086,42.24172],[-70.75094,42.24163],[-70.75096,42.24157],[-70.75098,42.24142],[-70.75103,42.2414],[-70.7511,42.24132],[-70.75111,42.24127],[-70.75135,42.24131]]],[[[-70.70431,42.15152],[-70.70469,42.15146],[-70.70513,42.15128],[-70.70532,42.15094],[-70.70514,42.151],[-70.70489,42.15116],[-70.70472,42.15121],[-70.70462,42.15128],[-70.70434,42.15136],[-70.7042,42.15136],[-70.70407,42.15131],[-70.704,42.15131],[-70.70389,42.15134],[-70.70366,42.15131],[-70.70345,42.15121],[-70.70343,42.15115],[-70.70346,42.15107],[-70.70342,42.15102],[-70.7032,42.15096],[-70.70304,42.15088],[-70.70277,42.15087],[-70.70263,42.15073],[-70.70252,42.15077],[-70.7025,42.15095],[-70.70246,42.15099],[-70.7024,42.151],[-70.70227,42.15096],[-70.70219,42.15108],[-70.70209,42.15108],[-70.70209,42.15104],[-70.70207,42.15093],[-70.70212,42.15081],[-70.70209,42.15064],[-70.7022,42.15033],[-70.7022,42.15027],[-70.70211,42.15015],[-70.70211,42.1501],[-70.70226,42.14997],[-70.70207,42.14993],[-70.70199,42.15009],[-70.70196,42.15033],[-70.70196,42.15036],[-70.70194,42.1506],[-70.70191,42.15085],[-70.702,42.1512],[-70.70223,42.15122],[-70.70245,42.15111],[-70.70265,42.15101],[-70.70275,42.15107],[-70.70262,42.15122],[-70.70243,42.1513],[-70.70253,42.15138],[-70.70281,42.15141],[-70.70318,42.15141],[-70.70356,42.15152],[-70.70377,42.15154],[-70.70431,42.15152]]],[[[-70.74901,42.23722],[-70.74838,42.23734],[-70.74828,42.23739],[-70.74816,42.23748],[-70.74806,42.23758],[-70.74809,42.23771],[-70.7481,42.23773],[-70.74828,42.2378],[-70.74857,42.23776],[-70.74878,42.23773],[-70.74904,42.23765],[-70.74919,42.23762],[-70.74936,42.23756],[-70.74939,42.2375],[-70.74938,42.23727],[-70.74931,42.2372],[-70.74926,42.23719],[-70.74901,42.23722]]],[[[-70.74989,42.24263],[-70.74981,42.24272],[-70.74977,42.24281],[-70.7497,42.24302],[-70.74969,42.24311],[-70.74976,42.24317],[-70.74998,42.24326],[-70.75019,42.24329],[-70.75042,42.24326],[-70.75042,42.24324],[-70.75048,42.24324],[-70.75053,42.24322],[-70.75053,42.24319],[-70.75057,42.24317],[-70.7506,42.24311],[-70.7506,42.24293],[-70.75057,42.24287],[-70.75054,42.24285],[-70.75053,42.24283],[-70.75036,42.2427],[-70.75016,42.24263],[-70.74989,42.24263]]],[[[-70.74403,42.22744],[-70.7439,42.22745],[-70.74346,42.22768],[-70.7434,42.22774],[-70.7434,42.22788],[-70.74344,42.22793],[-70.74348,42.22797],[-70.74368,42.22796],[-70.7439,42.22793],[-70.74409,42.22785],[-70.74418,42.2278],[-70.74432,42.22765],[-70.74434,42.22759],[-70.74429,42.22752],[-70.74408,42.22744],[-70.74403,42.22744]]],[[[-70.7602,42.2517],[-70.76016,42.25178],[-70.76011,42.25189],[-70.76004,42.25196],[-70.75982,42.25216],[-70.75981,42.25222],[-70.75983,42.25227],[-70.75988,42.25229],[-70.75996,42.25231],[-70.76001,42.2523],[-70.76039,42.25223],[-70.76042,42.25221],[-70.76043,42.25208],[-70.7604,42.25202],[-70.76041,42.25177],[-70.76029,42.25169],[-70.7602,42.2517]]]]}}
