{"type":"Feature","properties":{"jurisdiction":"waltham-ma","name":"Waltham","source":"MassGIS, Census 2020 Towns (AGOL/Census2020_Towns, layer 2)","sourceUrl":"https://arcgisserver.digital.mass.gov/arcgisserver/rest/services/AGOL/Census2020_Towns/FeatureServer/2","sourceQuery":"TOWN20='WALTHAM'","geoid":"2501772600","townId":308,"landAreaSqM":33005148,"waterAreaSqM":2634630,"interiorPoint":[-71.2422678,42.3889211],"retrieved":"2026-09-03","crs":"EPSG:4326","coordinatePrecision":5,"note":"Verbatim from the source apart from coordinate rounding."},"geometry":{"type":"MultiPolygon","coordinates":[[[[-71.21126,42.40608],[-71.21219,42.40639],[-71.21236,42.40644],[-71.21307,42.40668],[-71.21336,42.40677],[-71.21341,42.40679],[-71.21346,42.40681],[-71.21359,42.40685],[-71.21499,42.4073],[-71.21591,42.40761],[-71.21644,42.40778],[-71.2169,42.40793],[-71.21711,42.408],[-71.2182,42.40836],[-71.21937,42.40875],[-71.22039,42.40908],[-71.22306,42.40995],[-71.22339,42.41006],[-71.2243,42.41036],[-71.22455,42.41044],[-71.22565,42.41081],[-71.22701,42.41125],[-71.22846,42.41173],[-71.22957,42.4121],[-71.22993,42.41222],[-71.23039,42.41236],[-71.23067,42.41245],[-71.23147,42.41272],[-71.2322,42.41296],[-71.23261,42.41308],[-71.23292,42.41318],[-71.23626,42.41427],[-71.23829,42.41493],[-71.23837,42.41494],[-71.24876,42.41838],[-71.25154,42.4193],[-71.25699,42.42109],[-71.25728,42.42119],[-71.25732,42.4212],[-71.25822,42.42149],[-71.25826,42.42151],[-71.25831,42.42152],[-71.25939,42.42188],[-71.25946,42.4219],[-71.26251,42.4229],[-71.26253,42.42291],[-71.26577,42.42397],[-71.26677,42.4243],[-71.26692,42.42435],[-71.26723,42.42445],[-71.26729,42.42435],[-71.26937,42.42083],[-71.26994,42.41988],[-71.27177,42.41678],[-71.27086,42.41651],[-71.27268,42.41313],[-71.27338,42.41182],[-71.27387,42.41091],[-71.27442,42.40989],[-71.27883,42.41134],[-71.28027,42.41181],[-71.28142,42.41219],[-71.28225,42.41072],[-71.28362,42.40832],[-71.28565,42.40477],[-71.28603,42.40411],[-71.28121,42.4027],[-71.28219,42.4009],[-71.28283,42.39974],[-71.28249,42.39965],[-71.28007,42.39891],[-71.27958,42.39876],[-71.27843,42.39679],[-71.27617,42.39292],[-71.27587,42.39283],[-71.27533,42.39265],[-71.2739,42.39218],[-71.27113,42.39126],[-71.27088,42.39118],[-71.26776,42.39015],[-71.269,42.388],[-71.26907,42.38789],[-71.27109,42.3844],[-71.27149,42.3837],[-71.2715,42.38368],[-71.27151,42.38367],[-71.27163,42.38345],[-71.27174,42.38325],[-71.27442,42.37862],[-71.27459,42.37833],[-71.27514,42.37737],[-71.27599,42.3759],[-71.27643,42.37514],[-71.27652,42.37497],[-71.27634,42.37489],[-71.27625,42.37485],[-71.27601,42.37471],[-71.27589,42.37464],[-71.27578,42.37459],[-71.27572,42.37457],[-71.27568,42.37458],[-71.27562,42.3746],[-71.27555,42.37462],[-71.27545,42.37464],[-71.27535,42.37466],[-71.27525,42.37465],[-71.27519,42.37462],[-71.27513,42.37455],[-71.27506,42.37446],[-71.27477,42.37426],[-71.27469,42.37422],[-71.27463,42.37419],[-71.27447,42.37416],[-71.27432,42.37409],[-71.27401,42.37395],[-71.27382,42.37384],[-71.27369,42.37378],[-71.27362,42.37374],[-71.2736,42.37369],[-71.27362,42.37359],[-71.27362,42.37354],[-71.27362,42.37352],[-71.27361,42.37345],[-71.27358,42.37342],[-71.27355,42.3734],[-71.27351,42.37337],[-71.27335,42.37335],[-71.27326,42.37328],[-71.27323,42.37315],[-71.2732,42.37308],[-71.27316,42.37306],[-71.27313,42.37303],[-71.27313,42.373],[-71.27313,42.37295],[-71.27304,42.37288],[-71.27301,42.37283],[-71.27303,42.37272],[-71.27303,42.37263],[-71.27305,42.37255],[-71.27304,42.3725],[-71.27297,42.37246],[-71.27287,42.37245],[-71.27277,42.37241],[-71.27271,42.3724],[-71.27265,42.37238],[-71.27263,42.37235],[-71.27262,42.37225],[-71.27258,42.37222],[-71.27249,42.37221],[-71.27238,42.37218],[-71.27234,42.37213],[-71.27228,42.37198],[-71.27215,42.37179],[-71.27215,42.37177],[-71.27214,42.37169],[-71.27214,42.37163],[-71.27217,42.3716],[-71.27222,42.37157],[-71.2723,42.37156],[-71.27235,42.37155],[-71.27238,42.37152],[-71.27234,42.37148],[-71.2723,42.37145],[-71.27217,42.37142],[-71.27197,42.37138],[-71.27188,42.37135],[-71.2718,42.37131],[-71.27176,42.37124],[-71.27171,42.37114],[-71.27169,42.37109],[-71.2717,42.37105],[-71.27176,42.37098],[-71.27178,42.37096],[-71.27184,42.37091],[-71.27189,42.37084],[-71.27188,42.37079],[-71.27184,42.37077],[-71.27182,42.37075],[-71.27168,42.37069],[-71.27159,42.37062],[-71.27145,42.37045],[-71.27124,42.37017],[-71.27103,42.36991],[-71.2709,42.36973],[-71.27075,42.36952],[-71.2707,42.36946],[-71.27068,42.36943],[-71.27046,42.3689],[-71.27033,42.36863],[-71.27029,42.36853],[-71.27028,42.36845],[-71.27027,42.3684],[-71.27023,42.36837],[-71.27022,42.36828],[-71.27027,42.36818],[-71.27035,42.36811],[-71.27042,42.36804],[-71.27052,42.36785],[-71.27062,42.36768],[-71.27065,42.36763],[-71.27077,42.36749],[-71.27095,42.36741],[-71.27116,42.36735],[-71.2713,42.36729],[-71.27137,42.36725],[-71.2714,42.36723],[-71.27141,42.36722],[-71.27146,42.36718],[-71.27154,42.36715],[-71.27158,42.36715],[-71.27165,42.36715],[-71.27178,42.36714],[-71.27191,42.36713],[-71.27199,42.3671],[-71.27234,42.36701],[-71.27271,42.36687],[-71.2728,42.36682],[-71.27285,42.36681],[-71.27287,42.36678],[-71.27295,42.36674],[-71.27314,42.36657],[-71.27349,42.36611],[-71.27357,42.36591],[-71.27358,42.36568],[-71.27354,42.36552],[-71.27352,42.36546],[-71.27351,42.36543],[-71.27348,42.36538],[-71.27345,42.3653],[-71.27342,42.36524],[-71.2732,42.365],[-71.27262,42.36447],[-71.27241,42.3643],[-71.27128,42.36338],[-71.27096,42.36325],[-71.27066,42.36312],[-71.27059,42.3631],[-71.27032,42.36304],[-71.27012,42.363],[-71.26994,42.36296],[-71.26979,42.36292],[-71.26959,42.36287],[-71.26952,42.36285],[-71.26931,42.36265],[-71.2693,42.3626],[-71.26926,42.36248],[-71.2692,42.36231],[-71.26922,42.36224],[-71.26923,42.36215],[-71.26924,42.36208],[-71.26925,42.36203],[-71.26922,42.36179],[-71.26922,42.36154],[-71.2692,42.36125],[-71.26919,42.36087],[-71.26919,42.36081],[-71.26919,42.36076],[-71.26918,42.36058],[-71.26916,42.36055],[-71.26914,42.36039],[-71.26892,42.35989],[-71.26862,42.35953],[-71.26836,42.35925],[-71.26794,42.35884],[-71.26742,42.35819],[-71.2669,42.35756],[-71.26669,42.35732],[-71.266,42.35634],[-71.26587,42.35621],[-71.26578,42.35613],[-71.26567,42.35602],[-71.26518,42.35553],[-71.26494,42.35527],[-71.26492,42.35525],[-71.26488,42.35522],[-71.26474,42.35512],[-71.26463,42.35504],[-71.26438,42.3549],[-71.26431,42.35486],[-71.26406,42.35477],[-71.26373,42.35464],[-71.26346,42.35453],[-71.26335,42.35447],[-71.26313,42.35435],[-71.26311,42.35434],[-71.26289,42.35424],[-71.26272,42.35421],[-71.2626,42.35422],[-71.26251,42.3542],[-71.26246,42.35418],[-71.26242,42.35416],[-71.26233,42.35413],[-71.26187,42.35389],[-71.26163,42.35381],[-71.2614,42.35374],[-71.26133,42.35373],[-71.26125,42.3537],[-71.26121,42.35369],[-71.26118,42.35369],[-71.26104,42.35366],[-71.26102,42.35366],[-71.26078,42.35365],[-71.26058,42.35365],[-71.26039,42.35364],[-71.26036,42.35367],[-71.25929,42.35403],[-71.25915,42.35408],[-71.25856,42.35426],[-71.25825,42.35436],[-71.25777,42.35451],[-71.25764,42.35455],[-71.25647,42.35491],[-71.25647,42.35449],[-71.25646,42.35442],[-71.25644,42.35423],[-71.25639,42.3541],[-71.25636,42.35402],[-71.2563,42.35398],[-71.25611,42.35383],[-71.25573,42.35376],[-71.25522,42.35394],[-71.25481,42.35421],[-71.25476,42.35424],[-71.25467,42.35431],[-71.25447,42.35444],[-71.25409,42.35474],[-71.25407,42.35475],[-71.25406,42.35476],[-71.25403,42.35478],[-71.254,42.35481],[-71.25374,42.35505],[-71.25356,42.35525],[-71.25341,42.35545],[-71.25326,42.35566],[-71.25315,42.35591],[-71.25293,42.35597],[-71.25244,42.35611],[-71.25138,42.35643],[-71.25115,42.3565],[-71.25101,42.35654],[-71.24943,42.35701],[-71.24916,42.35709],[-71.24904,42.35712],[-71.24851,42.35728],[-71.24766,42.35753],[-71.24615,42.35798],[-71.24548,42.35818],[-71.24491,42.35835],[-71.2443,42.35852],[-71.24337,42.3588],[-71.24308,42.35888],[-71.24178,42.35927],[-71.24101,42.3595],[-71.24068,42.3596],[-71.24023,42.35973],[-71.23933,42.36],[-71.2389,42.36013],[-71.23883,42.36015],[-71.23821,42.36033],[-71.23804,42.36038],[-71.23762,42.36051],[-71.23659,42.36081],[-71.23649,42.36084],[-71.23626,42.36091],[-71.23571,42.36107],[-71.23547,42.36114],[-71.23468,42.36139],[-71.2337,42.36164],[-71.23331,42.36179],[-71.2329,42.36191],[-71.23148,42.36233],[-71.23103,42.36246],[-71.23016,42.36272],[-71.22905,42.36305],[-71.22864,42.36317],[-71.22845,42.36322],[-71.22732,42.36356],[-71.22664,42.36376],[-71.22623,42.36388],[-71.22497,42.36425],[-71.22431,42.36445],[-71.22274,42.3649],[-71.22255,42.36497],[-71.22184,42.36517],[-71.22131,42.36534],[-71.22106,42.3654],[-71.22058,42.36554],[-71.22018,42.36566],[-71.21944,42.36588],[-71.21837,42.3662],[-71.2174,42.36649],[-71.21734,42.36651],[-71.21719,42.36654],[-71.21718,42.36655],[-71.21706,42.36658],[-71.21704,42.3666],[-71.21702,42.36662],[-71.21627,42.36725],[-71.21552,42.3679],[-71.2154,42.368],[-71.21496,42.36837],[-71.21391,42.36926],[-71.21382,42.36934],[-71.21364,42.36949],[-71.21284,42.37017],[-71.21149,42.37132],[-71.21018,42.37243],[-71.20852,42.37386],[-71.20781,42.37445],[-71.20762,42.37461],[-71.20596,42.37602],[-71.20559,42.37633],[-71.20536,42.37653],[-71.2029,42.37862],[-71.20224,42.37918],[-71.20221,42.37921],[-71.20211,42.37929],[-71.20207,42.37933],[-71.20201,42.37938],[-71.20173,42.37961],[-71.20167,42.37967],[-71.20162,42.37971],[-71.20074,42.38046],[-71.2007,42.38049],[-71.20065,42.38054],[-71.20008,42.38101],[-71.19958,42.38144],[-71.19861,42.38227],[-71.19835,42.38249],[-71.19799,42.3828],[-71.19702,42.38362],[-71.19661,42.38397],[-71.19575,42.3847],[-71.19543,42.38497],[-71.19476,42.38554],[-71.19464,42.38564],[-71.19439,42.38586],[-71.19422,42.386],[-71.19418,42.38604],[-71.19435,42.38621],[-71.19446,42.38633],[-71.19454,42.38641],[-71.19474,42.38661],[-71.19486,42.38674],[-71.19508,42.38696],[-71.19512,42.387],[-71.19514,42.38702],[-71.19536,42.38724],[-71.19543,42.3873],[-71.19553,42.38741],[-71.19544,42.38747],[-71.19543,42.38754],[-71.19546,42.38761],[-71.19544,42.38768],[-71.19541,42.38773],[-71.19517,42.38784],[-71.19495,42.388],[-71.19489,42.38806],[-71.19488,42.38818],[-71.19495,42.38828],[-71.19508,42.38835],[-71.19517,42.38836],[-71.19525,42.3884],[-71.19537,42.38854],[-71.19557,42.38876],[-71.19569,42.38891],[-71.19589,42.3891],[-71.19607,42.38924],[-71.19625,42.38935],[-71.19632,42.38941],[-71.19646,42.38949],[-71.19652,42.38957],[-71.19666,42.38965],[-71.19674,42.3897],[-71.19682,42.38974],[-71.19685,42.38983],[-71.19685,42.38987],[-71.19682,42.39005],[-71.1968,42.39033],[-71.19678,42.39042],[-71.19674,42.39053],[-71.19674,42.39055],[-71.19672,42.39066],[-71.19676,42.39073],[-71.19693,42.39081],[-71.19697,42.39085],[-71.19699,42.39092],[-71.19696,42.391],[-71.19695,42.3912],[-71.19699,42.39139],[-71.19699,42.39141],[-71.19696,42.39156],[-71.197,42.39167],[-71.19701,42.39173],[-71.19702,42.39188],[-71.19703,42.39198],[-71.19707,42.39208],[-71.19716,42.39215],[-71.19721,42.39218],[-71.19725,42.39219],[-71.19729,42.39219],[-71.19735,42.39218],[-71.19741,42.39219],[-71.19745,42.39224],[-71.19752,42.39227],[-71.19758,42.39229],[-71.19762,42.39232],[-71.19766,42.39238],[-71.1977,42.39246],[-71.19777,42.39257],[-71.1978,42.39259],[-71.19785,42.3926],[-71.1979,42.39263],[-71.19793,42.39265],[-71.19796,42.39269],[-71.19797,42.39274],[-71.19794,42.39279],[-71.19789,42.39283],[-71.19781,42.39289],[-71.19776,42.39294],[-71.19774,42.39309],[-71.19765,42.39318],[-71.19762,42.3932],[-71.19758,42.39322],[-71.19722,42.39347],[-71.19668,42.39379],[-71.19666,42.3938],[-71.19655,42.39384],[-71.19643,42.39392],[-71.19633,42.39404],[-71.19628,42.39432],[-71.19628,42.39434],[-71.19628,42.39437],[-71.1963,42.39441],[-71.19648,42.39493],[-71.19656,42.39508],[-71.19663,42.39524],[-71.19678,42.39543],[-71.19682,42.39546],[-71.19693,42.39549],[-71.19698,42.39553],[-71.19703,42.39557],[-71.1972,42.39563],[-71.19732,42.39571],[-71.19822,42.39613],[-71.19823,42.39617],[-71.19823,42.39619],[-71.19826,42.39623],[-71.19828,42.39625],[-71.19829,42.39625],[-71.19833,42.39627],[-71.19841,42.39631],[-71.19844,42.39634],[-71.19849,42.39638],[-71.19857,42.39646],[-71.19863,42.39653],[-71.19868,42.39659],[-71.19871,42.39662],[-71.19877,42.39667],[-71.19883,42.39673],[-71.19886,42.39675],[-71.19892,42.39682],[-71.19896,42.39685],[-71.19903,42.39694],[-71.19905,42.39695],[-71.19907,42.39697],[-71.1991,42.39699],[-71.19914,42.39703],[-71.19917,42.39706],[-71.19922,42.39711],[-71.19924,42.39714],[-71.19926,42.39717],[-71.19928,42.3972],[-71.19931,42.39724],[-71.19935,42.39727],[-71.19941,42.39731],[-71.19943,42.39733],[-71.19943,42.39734],[-71.19944,42.39736],[-71.19944,42.39737],[-71.19945,42.39739],[-71.19947,42.39742],[-71.19949,42.39744],[-71.19951,42.39747],[-71.19951,42.39749],[-71.19952,42.39751],[-71.19952,42.39757],[-71.19952,42.3976],[-71.19952,42.39761],[-71.19954,42.39765],[-71.19955,42.39766],[-71.19958,42.39773],[-71.19959,42.39775],[-71.19959,42.39777],[-71.19959,42.39779],[-71.19959,42.39781],[-71.19959,42.39782],[-71.19959,42.39783],[-71.19959,42.39785],[-71.19958,42.39786],[-71.19958,42.39789],[-71.19957,42.3979],[-71.19957,42.39791],[-71.19957,42.39793],[-71.19955,42.39797],[-71.19955,42.39799],[-71.19954,42.39802],[-71.19954,42.39805],[-71.19953,42.39809],[-71.19954,42.3981],[-71.19954,42.39813],[-71.19955,42.39816],[-71.19955,42.3982],[-71.19955,42.39822],[-71.19956,42.39824],[-71.19957,42.39825],[-71.19958,42.39826],[-71.19959,42.39828],[-71.19959,42.39829],[-71.19961,42.39832],[-71.19963,42.39835],[-71.19966,42.39838],[-71.19968,42.39841],[-71.19969,42.39844],[-71.1997,42.39844],[-71.19971,42.39845],[-71.19971,42.39846],[-71.19972,42.39847],[-71.19973,42.39847],[-71.19975,42.39848],[-71.19976,42.39849],[-71.19977,42.39849],[-71.19978,42.3985],[-71.19979,42.39851],[-71.1998,42.39851],[-71.19982,42.39853],[-71.19983,42.39853],[-71.19984,42.39854],[-71.19986,42.39855],[-71.19989,42.39855],[-71.1999,42.39856],[-71.19992,42.39855],[-71.19993,42.39855],[-71.19995,42.39855],[-71.20008,42.39864],[-71.20008,42.39865],[-71.20009,42.39867],[-71.20009,42.39869],[-71.2001,42.3987],[-71.20011,42.39871],[-71.20012,42.39873],[-71.20012,42.39873],[-71.20015,42.39876],[-71.20015,42.39877],[-71.20016,42.39878],[-71.20016,42.39879],[-71.20017,42.39881],[-71.20017,42.39882],[-71.20017,42.39883],[-71.20017,42.39885],[-71.20017,42.39887],[-71.20017,42.3989],[-71.20017,42.39891],[-71.20017,42.39892],[-71.20017,42.39896],[-71.20018,42.39897],[-71.20019,42.39898],[-71.20021,42.39899],[-71.20022,42.399],[-71.20023,42.39901],[-71.20023,42.39902],[-71.20024,42.39903],[-71.20025,42.39905],[-71.20025,42.39906],[-71.20026,42.39907],[-71.20026,42.39908],[-71.20026,42.3991],[-71.20026,42.39912],[-71.20025,42.39913],[-71.20025,42.39915],[-71.20024,42.39918],[-71.20023,42.39919],[-71.20022,42.39922],[-71.20022,42.39924],[-71.20022,42.39925],[-71.20022,42.39927],[-71.20023,42.39929],[-71.20023,42.3993],[-71.20024,42.39931],[-71.20025,42.39932],[-71.20026,42.39934],[-71.20029,42.39937],[-71.20045,42.39942],[-71.20062,42.39947],[-71.20064,42.39949],[-71.20074,42.39966],[-71.20078,42.39971],[-71.20092,42.39988],[-71.20119,42.4001],[-71.20151,42.40039],[-71.20161,42.40057],[-71.20163,42.4006],[-71.20163,42.40083],[-71.20161,42.40088],[-71.20162,42.40091],[-71.20167,42.40098],[-71.20171,42.40106],[-71.20173,42.40117],[-71.20176,42.40125],[-71.2018,42.4013],[-71.2018,42.40138],[-71.20178,42.4014],[-71.20174,42.40147],[-71.20166,42.40157],[-71.20165,42.40158],[-71.20158,42.40166],[-71.20157,42.4017],[-71.20159,42.40174],[-71.20162,42.40178],[-71.20182,42.40202],[-71.20183,42.40204],[-71.20185,42.40208],[-71.20184,42.40214],[-71.20182,42.40221],[-71.20179,42.40228],[-71.2017,42.40243],[-71.20172,42.40248],[-71.20176,42.40252],[-71.20182,42.40258],[-71.20181,42.40262],[-71.20191,42.40273],[-71.20197,42.40279],[-71.20204,42.40282],[-71.20219,42.40288],[-71.20226,42.40296],[-71.20234,42.40303],[-71.20236,42.40308],[-71.2024,42.40312],[-71.20246,42.40316],[-71.20254,42.40323],[-71.2026,42.40338],[-71.20261,42.40346],[-71.20262,42.40351],[-71.20258,42.40359],[-71.20259,42.40365],[-71.20263,42.40371],[-71.20268,42.40372],[-71.20429,42.40417],[-71.20533,42.40445],[-71.20693,42.40489],[-71.20815,42.40522],[-71.21086,42.40598],[-71.21126,42.40608]]]]}}
