{"type":"Feature","properties":{"jurisdiction":"weymouth-ma","name":"Weymouth","source":"MassGIS, Census 2020 Towns (AGOL/Census2020_Towns, layer 2)","sourceUrl":"https://arcgisserver.digital.mass.gov/arcgisserver/rest/services/AGOL/Census2020_Towns/FeatureServer/2","sourceQuery":"TOWN20='WEYMOUTH'","geoid":"2502178972","townId":336,"landAreaSqM":43420939,"waterAreaSqM":12454758,"interiorPoint":[-70.943687,42.2072998],"retrieved":"2026-08-29","crs":"EPSG:4326","coordinatePrecision":5,"note":"Verbatim from the source apart from coordinate rounding."},"geometry":{"type":"MultiPolygon","coordinates":[[[[-70.92027,42.25714],[-70.92047,42.25734],[-70.92055,42.25739],[-70.92101,42.25777],[-70.92105,42.25782],[-70.92154,42.25823],[-70.92224,42.25876],[-70.92231,42.25886],[-70.92248,42.25969],[-70.92259,42.26046],[-70.92269,42.26104],[-70.92267,42.26116],[-70.92265,42.26118],[-70.92264,42.26126],[-70.92259,42.26141],[-70.92254,42.2615],[-70.92241,42.26172],[-70.92237,42.26185],[-70.92237,42.26198],[-70.92242,42.26211],[-70.92252,42.26223],[-70.9228,42.26248],[-70.92312,42.26272],[-70.9233,42.26286],[-70.92343,42.263],[-70.92368,42.26321],[-70.92387,42.26331],[-70.92417,42.2634],[-70.92436,42.26341],[-70.92471,42.26339],[-70.92484,42.26334],[-70.925,42.26321],[-70.92498,42.26313],[-70.92487,42.26303],[-70.9244,42.26286],[-70.92417,42.26269],[-70.92404,42.26255],[-70.92403,42.26252],[-70.92397,42.26247],[-70.92394,42.26243],[-70.92388,42.26236],[-70.92382,42.26228],[-70.92358,42.26205],[-70.92345,42.26193],[-70.92345,42.26191],[-70.92341,42.26187],[-70.92335,42.26171],[-70.92336,42.26163],[-70.92341,42.26147],[-70.92345,42.26142],[-70.92351,42.26127],[-70.92361,42.26109],[-70.92365,42.26106],[-70.92368,42.26101],[-70.92381,42.26091],[-70.92418,42.26065],[-70.92434,42.26057],[-70.92468,42.26044],[-70.92593,42.26032],[-70.92672,42.26019],[-70.9271,42.26008],[-70.92738,42.25997],[-70.92749,42.25988],[-70.92757,42.25976],[-70.92757,42.25954],[-70.92754,42.25943],[-70.92745,42.25933],[-70.92742,42.25932],[-70.92739,42.25929],[-70.92722,42.25922],[-70.92672,42.25913],[-70.92484,42.25886],[-70.92448,42.25875],[-70.92417,42.25858],[-70.92403,42.25843],[-70.92399,42.25837],[-70.924,42.25824],[-70.92407,42.25815],[-70.92419,42.25803],[-70.92444,42.25787],[-70.92445,42.25783],[-70.92447,42.25783],[-70.92463,42.25768],[-70.92475,42.25764],[-70.92494,42.2576],[-70.92518,42.25758],[-70.92529,42.25754],[-70.92547,42.25742],[-70.92551,42.25741],[-70.9258,42.25717],[-70.92587,42.25714],[-70.926,42.25715],[-70.9263,42.2572],[-70.9264,42.25727],[-70.92652,42.25732],[-70.92656,42.25732],[-70.92677,42.25739],[-70.92698,42.25743],[-70.92713,42.25747],[-70.92751,42.25746],[-70.92757,42.25744],[-70.92797,42.25741],[-70.92869,42.25734],[-70.92896,42.25733],[-70.92932,42.25731],[-70.92952,42.25733],[-70.93051,42.25733],[-70.93084,42.25736],[-70.93133,42.25739],[-70.93152,42.25743],[-70.9316,42.25744],[-70.93172,42.2574],[-70.93249,42.25732],[-70.9327,42.25725],[-70.93317,42.2572],[-70.9336,42.25718],[-70.93378,42.25715],[-70.93401,42.25714],[-70.93422,42.25713],[-70.9344,42.25713],[-70.93483,42.2572],[-70.93528,42.25724],[-70.93554,42.25724],[-70.93581,42.25724],[-70.93652,42.25723],[-70.93722,42.25714],[-70.93743,42.25708],[-70.93746,42.25705],[-70.93747,42.25696],[-70.93737,42.25682],[-70.93711,42.25656],[-70.93691,42.25627],[-70.93687,42.25618],[-70.93685,42.25609],[-70.93683,42.25606],[-70.9368,42.2557],[-70.93678,42.25568],[-70.93677,42.25553],[-70.93675,42.25549],[-70.93674,42.25479],[-70.93677,42.25468],[-70.93684,42.25454],[-70.93693,42.2544],[-70.93699,42.25433],[-70.93727,42.25405],[-70.93737,42.25396],[-70.93768,42.25375],[-70.93799,42.25361],[-70.93805,42.25356],[-70.93821,42.25347],[-70.93847,42.2534],[-70.93888,42.25324],[-70.94017,42.25286],[-70.9407,42.25278],[-70.94102,42.25271],[-70.94146,42.25262],[-70.94165,42.25261],[-70.94168,42.25259],[-70.94259,42.25254],[-70.94261,42.25232],[-70.94296,42.25224],[-70.94358,42.25207],[-70.94389,42.25195],[-70.94412,42.25189],[-70.94437,42.25177],[-70.94445,42.25169],[-70.94452,42.25159],[-70.94453,42.25157],[-70.94453,42.25154],[-70.94464,42.25139],[-70.9447,42.25132],[-70.94489,42.25122],[-70.94512,42.25106],[-70.94538,42.25084],[-70.94551,42.25067],[-70.9456,42.2506],[-70.94583,42.25048],[-70.94617,42.25038],[-70.94646,42.25034],[-70.94686,42.25033],[-70.94696,42.25031],[-70.94701,42.25028],[-70.94712,42.25011],[-70.94718,42.25007],[-70.94728,42.25006],[-70.94748,42.25012],[-70.94779,42.25022],[-70.94792,42.25019],[-70.94796,42.25017],[-70.94806,42.25019],[-70.94818,42.25021],[-70.94868,42.25018],[-70.94896,42.25011],[-70.94922,42.24997],[-70.94931,42.24993],[-70.94965,42.24963],[-70.95025,42.24893],[-70.95048,42.24869],[-70.95062,42.24857],[-70.95066,42.24855],[-70.95074,42.24851],[-70.95135,42.24852],[-70.95154,42.2485],[-70.95187,42.24845],[-70.95258,42.24824],[-70.95325,42.248],[-70.95375,42.24784],[-70.95408,42.24777],[-70.95457,42.24764],[-70.95484,42.24757],[-70.95492,42.24756],[-70.95545,42.24747],[-70.95612,42.24746],[-70.95632,42.24748],[-70.95736,42.24763],[-70.95743,42.24761],[-70.95756,42.24749],[-70.9576,42.24744],[-70.95768,42.24729],[-70.95769,42.24722],[-70.95774,42.24712],[-70.95783,42.24702],[-70.95802,42.24686],[-70.95813,42.24679],[-70.95823,42.24669],[-70.95831,42.24664],[-70.95839,42.24651],[-70.95841,42.24648],[-70.95842,42.24644],[-70.9584,42.24622],[-70.95836,42.24612],[-70.95833,42.2461],[-70.95833,42.24608],[-70.95829,42.24603],[-70.95829,42.24601],[-70.95819,42.24596],[-70.95807,42.24595],[-70.95791,42.246],[-70.95775,42.246],[-70.95767,42.24595],[-70.95759,42.24586],[-70.95759,42.24581],[-70.95758,42.24579],[-70.95756,42.24569],[-70.95751,42.24554],[-70.95746,42.24526],[-70.95742,42.24513],[-70.95742,42.2449],[-70.95746,42.24461],[-70.95755,42.24441],[-70.95768,42.24415],[-70.95773,42.2441],[-70.95775,42.24406],[-70.95792,42.24394],[-70.95799,42.24391],[-70.95805,42.24389],[-70.95807,42.24386],[-70.95887,42.24362],[-70.96002,42.24336],[-70.96087,42.24319],[-70.96125,42.24317],[-70.9615,42.24321],[-70.96183,42.2433],[-70.96196,42.24339],[-70.96199,42.24345],[-70.962,42.24348],[-70.96203,42.2435],[-70.96209,42.24367],[-70.96212,42.24371],[-70.96213,42.24424],[-70.96212,42.24443],[-70.96208,42.24457],[-70.96206,42.24474],[-70.96205,42.24489],[-70.96201,42.24504],[-70.96198,42.24514],[-70.96197,42.2452],[-70.96195,42.24522],[-70.96191,42.24532],[-70.96189,42.24534],[-70.9619,42.24537],[-70.96188,42.24539],[-70.96184,42.24548],[-70.9618,42.24559],[-70.96177,42.24565],[-70.96176,42.24569],[-70.96175,42.24574],[-70.96172,42.24577],[-70.9617,42.2458],[-70.96307,42.24593],[-70.96348,42.24598],[-70.96387,42.2458],[-70.96423,42.24565],[-70.96435,42.24577],[-70.96439,42.24577],[-70.96503,42.24552],[-70.96518,42.24546],[-70.96525,42.24543],[-70.96625,42.24503],[-70.96619,42.24496],[-70.96618,42.24493],[-70.96627,42.24461],[-70.96595,42.24446],[-70.96596,42.24415],[-70.96596,42.244],[-70.96596,42.24394],[-70.96596,42.24389],[-70.96596,42.24385],[-70.966,42.24369],[-70.96609,42.24355],[-70.96616,42.24347],[-70.96629,42.24335],[-70.96636,42.24329],[-70.96654,42.24317],[-70.96666,42.24311],[-70.96666,42.24309],[-70.96649,42.24296],[-70.96658,42.2425],[-70.96664,42.24206],[-70.96666,42.24194],[-70.96672,42.24152],[-70.96688,42.2415],[-70.96683,42.24128],[-70.96685,42.24124],[-70.96681,42.24119],[-70.96673,42.24085],[-70.96672,42.24073],[-70.96667,42.24055],[-70.96667,42.24042],[-70.96671,42.24026],[-70.96678,42.24014],[-70.96682,42.24009],[-70.96691,42.24005],[-70.96698,42.23985],[-70.967,42.23974],[-70.96363,42.23894],[-70.96355,42.23934],[-70.96341,42.24049],[-70.96338,42.24051],[-70.96336,42.24052],[-70.96315,42.24054],[-70.96293,42.24048],[-70.96254,42.24042],[-70.96221,42.24038],[-70.96155,42.24037],[-70.96131,42.24033],[-70.96043,42.24033],[-70.9604,42.24033],[-70.96028,42.24031],[-70.96018,42.24026],[-70.95998,42.24011],[-70.95976,42.24],[-70.95961,42.23995],[-70.95937,42.23988],[-70.95881,42.23983],[-70.95865,42.23982],[-70.95854,42.23984],[-70.95846,42.23987],[-70.95838,42.2399],[-70.95814,42.24002],[-70.95779,42.24014],[-70.95746,42.24016],[-70.95725,42.24014],[-70.95689,42.24002],[-70.95583,42.23959],[-70.95561,42.2395],[-70.9553,42.2394],[-70.95486,42.23934],[-70.95473,42.23928],[-70.9544,42.23905],[-70.9539,42.23878],[-70.95346,42.23858],[-70.95314,42.23844],[-70.95314,42.23842],[-70.95302,42.23839],[-70.95269,42.2383],[-70.95256,42.23829],[-70.95233,42.23827],[-70.95218,42.23823],[-70.95201,42.23812],[-70.95191,42.23803],[-70.95178,42.23792],[-70.95176,42.23788],[-70.95159,42.23774],[-70.9515,42.2377],[-70.95132,42.2376],[-70.95121,42.23757],[-70.95119,42.23757],[-70.95084,42.23755],[-70.9508,42.23754],[-70.95073,42.23748],[-70.95046,42.23746],[-70.95031,42.23744],[-70.95024,42.23749],[-70.95023,42.23755],[-70.95012,42.23767],[-70.95012,42.23779],[-70.95021,42.23802],[-70.95023,42.2381],[-70.95027,42.23816],[-70.9503,42.23836],[-70.95053,42.23854],[-70.9505,42.23865],[-70.95043,42.23867],[-70.95014,42.2386],[-70.95004,42.23856],[-70.94997,42.23849],[-70.94995,42.23842],[-70.94993,42.23841],[-70.94993,42.23835],[-70.94992,42.2383],[-70.94986,42.23827],[-70.94978,42.23825],[-70.94992,42.23806],[-70.94993,42.23799],[-70.94971,42.2378],[-70.94969,42.2377],[-70.94971,42.23765],[-70.94972,42.23753],[-70.94931,42.23716],[-70.94925,42.23706],[-70.94926,42.23698],[-70.9493,42.23689],[-70.94931,42.23688],[-70.94931,42.2368],[-70.94928,42.2367],[-70.94928,42.23662],[-70.94933,42.23655],[-70.94956,42.23634],[-70.94975,42.23622],[-70.94999,42.23631],[-70.95006,42.23633],[-70.95087,42.23623],[-70.9511,42.23629],[-70.95153,42.23653],[-70.95163,42.23655],[-70.9517,42.23655],[-70.95176,42.23651],[-70.95189,42.23649],[-70.952,42.23652],[-70.9521,42.23652],[-70.95212,42.23648],[-70.95206,42.23641],[-70.95206,42.23638],[-70.95203,42.23636],[-70.95197,42.23628],[-70.95198,42.23618],[-70.95201,42.23614],[-70.95202,42.23607],[-70.95197,42.23604],[-70.95184,42.236],[-70.95174,42.23594],[-70.95162,42.23583],[-70.9516,42.23575],[-70.95165,42.2357],[-70.95186,42.23567],[-70.9521,42.2356],[-70.95215,42.23555],[-70.95219,42.23544],[-70.95213,42.2354],[-70.9518,42.2355],[-70.95158,42.23552],[-70.95151,42.2355],[-70.95148,42.23545],[-70.95146,42.23532],[-70.9513,42.23522],[-70.95122,42.23493],[-70.95127,42.23484],[-70.95144,42.23473],[-70.95153,42.23469],[-70.95158,42.23462],[-70.95154,42.23451],[-70.95154,42.23437],[-70.95149,42.23431],[-70.9514,42.23418],[-70.95131,42.23411],[-70.95121,42.234],[-70.9512,42.23391],[-70.95124,42.23387],[-70.95122,42.23379],[-70.95116,42.23373],[-70.95115,42.23365],[-70.95126,42.23355],[-70.95127,42.23349],[-70.95122,42.23343],[-70.95109,42.23333],[-70.95088,42.23312],[-70.9508,42.23308],[-70.95079,42.2331],[-70.95063,42.23299],[-70.95054,42.23293],[-70.95038,42.2329],[-70.95033,42.23283],[-70.95027,42.23281],[-70.95008,42.2328],[-70.95005,42.23276],[-70.95006,42.23267],[-70.95006,42.23261],[-70.94999,42.23249],[-70.94998,42.23236],[-70.95004,42.23229],[-70.95042,42.23229],[-70.95059,42.23223],[-70.95059,42.2321],[-70.95058,42.23208],[-70.95053,42.23194],[-70.95036,42.23164],[-70.95047,42.23148],[-70.95057,42.2315],[-70.95064,42.23146],[-70.95068,42.23141],[-70.95072,42.23137],[-70.95085,42.23135],[-70.9509,42.2313],[-70.95106,42.23139],[-70.95102,42.23152],[-70.95103,42.23154],[-70.95109,42.23172],[-70.95102,42.23171],[-70.9509,42.2317],[-70.95074,42.23162],[-70.95064,42.23162],[-70.95064,42.23173],[-70.95072,42.2319],[-70.95081,42.23203],[-70.95085,42.23214],[-70.95084,42.23224],[-70.95063,42.2324],[-70.95052,42.23247],[-70.95056,42.23251],[-70.95059,42.2325],[-70.95071,42.23246],[-70.95086,42.23239],[-70.95112,42.23223],[-70.95133,42.23213],[-70.95148,42.23211],[-70.95153,42.23213],[-70.95164,42.23218],[-70.95176,42.23226],[-70.95191,42.23232],[-70.95199,42.23237],[-70.95211,42.23237],[-70.95222,42.23237],[-70.95249,42.23235],[-70.95261,42.23241],[-70.95277,42.23256],[-70.95312,42.23304],[-70.95312,42.23307],[-70.95332,42.23335],[-70.95345,42.23348],[-70.95356,42.23365],[-70.95373,42.23388],[-70.9539,42.23411],[-70.95393,42.23422],[-70.95396,42.23424],[-70.954,42.23433],[-70.95413,42.23445],[-70.95432,42.23456],[-70.95501,42.23488],[-70.95532,42.235],[-70.95547,42.23506],[-70.95585,42.23511],[-70.95606,42.2351],[-70.95614,42.23507],[-70.95623,42.23501],[-70.95628,42.23492],[-70.95628,42.23446],[-70.95626,42.23426],[-70.95623,42.23422],[-70.95623,42.23405],[-70.95626,42.23401],[-70.9563,42.23397],[-70.95693,42.23376],[-70.9572,42.23366],[-70.95797,42.23341],[-70.95834,42.23328],[-70.95849,42.2332],[-70.9586,42.23311],[-70.95875,42.23296],[-70.95892,42.23273],[-70.95896,42.23261],[-70.95897,42.23256],[-70.95899,42.23253],[-70.95904,42.23234],[-70.95906,42.23214],[-70.95909,42.23198],[-70.95909,42.23161],[-70.95914,42.23121],[-70.95917,42.23112],[-70.95929,42.23096],[-70.95938,42.23074],[-70.95941,42.23067],[-70.95941,42.23046],[-70.9594,42.2304],[-70.95932,42.23028],[-70.95912,42.2301],[-70.95924,42.2295],[-70.95925,42.22952],[-70.9593,42.22958],[-70.95942,42.22965],[-70.95962,42.22966],[-70.95972,42.2296],[-70.95983,42.22949],[-70.96007,42.22934],[-70.96013,42.22923],[-70.96015,42.2291],[-70.96019,42.22893],[-70.96035,42.22876],[-70.96038,42.22872],[-70.96054,42.22852],[-70.96054,42.22838],[-70.96051,42.22828],[-70.96044,42.22818],[-70.96041,42.22811],[-70.96041,42.22792],[-70.96044,42.22778],[-70.96033,42.2277],[-70.96029,42.22766],[-70.96026,42.22747],[-70.96029,42.22743],[-70.96035,42.22704],[-70.96036,42.22697],[-70.96049,42.22677],[-70.96048,42.22667],[-70.9605,42.22656],[-70.96063,42.22639],[-70.96068,42.22623],[-70.96075,42.22617],[-70.96109,42.22598],[-70.96119,42.22591],[-70.96128,42.22582],[-70.96138,42.22569],[-70.96145,42.22554],[-70.96146,42.22534],[-70.96151,42.22529],[-70.96159,42.22526],[-70.96174,42.22515],[-70.96201,42.22501],[-70.96214,42.22491],[-70.96229,42.22481],[-70.96244,42.22471],[-70.96265,42.22462],[-70.96283,42.22458],[-70.96305,42.22468],[-70.96335,42.22472],[-70.96361,42.22473],[-70.96373,42.2247],[-70.96391,42.22466],[-70.96394,42.22466],[-70.96401,42.22462],[-70.96403,42.2246],[-70.96407,42.22462],[-70.96415,42.22458],[-70.96418,42.22459],[-70.96428,42.22459],[-70.96434,42.22457],[-70.96474,42.22429],[-70.96498,42.22417],[-70.96541,42.22391],[-70.96548,42.22388],[-70.96567,42.22383],[-70.96587,42.22375],[-70.966,42.22369],[-70.96612,42.22364],[-70.96629,42.22358],[-70.96628,42.22355],[-70.96648,42.22358],[-70.96666,42.22358],[-70.96679,42.22353],[-70.967,42.22338],[-70.96702,42.22336],[-70.96725,42.22293],[-70.96739,42.2228],[-70.96759,42.22254],[-70.96762,42.22246],[-70.96765,42.22243],[-70.96768,42.22235],[-70.96773,42.22227],[-70.96777,42.2222],[-70.96777,42.22218],[-70.96782,42.2221],[-70.96783,42.22202],[-70.96786,42.22192],[-70.9679,42.22184],[-70.96792,42.22176],[-70.96795,42.22171],[-70.96799,42.2217],[-70.96807,42.2217],[-70.96809,42.22153],[-70.9681,42.22148],[-70.96806,42.22136],[-70.96802,42.22121],[-70.96791,42.22105],[-70.96782,42.22091],[-70.96768,42.22067],[-70.96803,42.22036],[-70.96814,42.22028],[-70.96858,42.21998],[-70.96865,42.21992],[-70.9687,42.21989],[-70.96874,42.2196],[-70.96893,42.21838],[-70.96907,42.21742],[-70.96908,42.21739],[-70.96911,42.21716],[-70.96922,42.21655],[-70.96932,42.21588],[-70.96946,42.21493],[-70.96956,42.21424],[-70.96989,42.212],[-70.96991,42.21189],[-70.96994,42.21168],[-70.9701,42.21065],[-70.9703,42.20932],[-70.97059,42.20738],[-70.9708,42.206],[-70.97096,42.20493],[-70.97113,42.20376],[-70.97133,42.20247],[-70.97164,42.2004],[-70.9717,42.20003],[-70.97172,42.19989],[-70.97201,42.19797],[-70.97215,42.19707],[-70.97224,42.19646],[-70.97264,42.19378],[-70.97305,42.19105],[-70.97322,42.18993],[-70.97331,42.18938],[-70.97364,42.1872],[-70.97367,42.187],[-70.97392,42.1853],[-70.97398,42.1849],[-70.974,42.18476],[-70.97406,42.18435],[-70.9743,42.18275],[-70.97454,42.18117],[-70.97478,42.17958],[-70.97484,42.1792],[-70.97497,42.17836],[-70.97547,42.175],[-70.97558,42.17431],[-70.9757,42.17346],[-70.97587,42.17238],[-70.97591,42.17212],[-70.97611,42.17069],[-70.97616,42.17046],[-70.97648,42.16833],[-70.9765,42.16821],[-70.97657,42.16772],[-70.97676,42.16647],[-70.97689,42.16546],[-70.97719,42.16347],[-70.97744,42.16172],[-70.97767,42.16012],[-70.97771,42.15988],[-70.9782,42.15651],[-70.97834,42.15557],[-70.97836,42.15546],[-70.97861,42.1537],[-70.97877,42.15263],[-70.97885,42.15211],[-70.97905,42.15073],[-70.98067,42.1396],[-70.9808,42.13875],[-70.98089,42.13808],[-70.98127,42.13552],[-70.98093,42.13565],[-70.98027,42.13591],[-70.97744,42.13702],[-70.97315,42.1387],[-70.97265,42.13889],[-70.97088,42.13959],[-70.96781,42.14079],[-70.95931,42.14412],[-70.9574,42.14486],[-70.95564,42.14556],[-70.95465,42.14595],[-70.95462,42.14596],[-70.95458,42.14597],[-70.9513,42.14725],[-70.94896,42.14816],[-70.94893,42.14818],[-70.94879,42.14824],[-70.9455,42.14952],[-70.94533,42.14959],[-70.94134,42.15115],[-70.94096,42.1513],[-70.94083,42.15135],[-70.94077,42.15137],[-70.9407,42.1514],[-70.94056,42.15145],[-70.93988,42.15172],[-70.93457,42.1538],[-70.93025,42.15549],[-70.9291,42.15594],[-70.92846,42.15619],[-70.92829,42.15625],[-70.92779,42.15645],[-70.92657,42.15693],[-70.92548,42.15736],[-70.92515,42.15748],[-70.92488,42.15759],[-70.92463,42.15921],[-70.92407,42.16295],[-70.92355,42.16646],[-70.92332,42.16794],[-70.92294,42.17048],[-70.92263,42.17257],[-70.92262,42.17264],[-70.92257,42.173],[-70.92214,42.17583],[-70.92197,42.177],[-70.92188,42.17758],[-70.9217,42.17878],[-70.92152,42.17994],[-70.92137,42.18099],[-70.92131,42.18137],[-70.92117,42.18231],[-70.92113,42.18256],[-70.92074,42.18517],[-70.92066,42.18568],[-70.92065,42.18578],[-70.9206,42.18608],[-70.92005,42.18976],[-70.9199,42.1908],[-70.91946,42.19371],[-70.91869,42.19887],[-70.91856,42.19969],[-70.91851,42.20006],[-70.9183,42.20146],[-70.91772,42.20533],[-70.91761,42.20607],[-70.91758,42.2063],[-70.91719,42.20881],[-70.917,42.21013],[-70.91675,42.2118],[-70.9167,42.21215],[-70.91668,42.21226],[-70.91662,42.21261],[-70.91657,42.21295],[-70.91642,42.21397],[-70.91626,42.215],[-70.91621,42.21539],[-70.91605,42.21645],[-70.9159,42.21743],[-70.91559,42.21953],[-70.91544,42.22048],[-70.91535,42.22111],[-70.91514,42.22247],[-70.91501,42.22337],[-70.91486,42.22438],[-70.91484,42.22448],[-70.91475,42.22512],[-70.91473,42.2252],[-70.91484,42.22539],[-70.9149,42.22542],[-70.9149,42.22547],[-70.91492,42.22548],[-70.91498,42.22545],[-70.91506,42.22546],[-70.91518,42.22547],[-70.9153,42.22548],[-70.91535,42.2255],[-70.91537,42.22555],[-70.9154,42.22558],[-70.91552,42.2256],[-70.91559,42.22564],[-70.91562,42.22567],[-70.91563,42.22573],[-70.91559,42.22581],[-70.9156,42.22583],[-70.91562,42.22584],[-70.91573,42.22583],[-70.91581,42.22584],[-70.91587,42.22581],[-70.91594,42.22582],[-70.91599,42.2258],[-70.91609,42.2258],[-70.91615,42.22581],[-70.91623,42.22586],[-70.91626,42.22577],[-70.91629,42.22571],[-70.91636,42.2257],[-70.91637,42.22571],[-70.91644,42.22571],[-70.91651,42.22572],[-70.91669,42.22579],[-70.91684,42.22587],[-70.91687,42.22588],[-70.91694,42.22585],[-70.91703,42.22582],[-70.91714,42.22577],[-70.91727,42.22574],[-70.91731,42.22572],[-70.91744,42.2257],[-70.91753,42.22569],[-70.91761,42.2257],[-70.91766,42.22569],[-70.91775,42.22564],[-70.91779,42.22556],[-70.91785,42.22552],[-70.91772,42.22548],[-70.91802,42.22547],[-70.91815,42.22549],[-70.9182,42.22551],[-70.91832,42.2257],[-70.9184,42.22575],[-70.91862,42.22579],[-70.9187,42.22586],[-70.91855,42.22588],[-70.9185,42.2259],[-70.91852,42.22594],[-70.91856,42.22597],[-70.9187,42.22602],[-70.91888,42.22616],[-70.91898,42.22617],[-70.91901,42.22616],[-70.91908,42.22612],[-70.91924,42.22596],[-70.91938,42.22586],[-70.91958,42.22581],[-70.91978,42.22578],[-70.91985,42.22576],[-70.92002,42.22553],[-70.92008,42.22547],[-70.92015,42.22546],[-70.92018,42.2255],[-70.92018,42.22557],[-70.92012,42.22572],[-70.92011,42.22581],[-70.92014,42.22584],[-70.92026,42.22584],[-70.92035,42.22582],[-70.92045,42.22577],[-70.92047,42.22576],[-70.92055,42.22556],[-70.92057,42.22544],[-70.92058,42.2254],[-70.92062,42.22536],[-70.92105,42.22523],[-70.92112,42.22519],[-70.92122,42.22512],[-70.9213,42.22498],[-70.92133,42.22488],[-70.92135,42.22486],[-70.92136,42.22455],[-70.92132,42.2244],[-70.92128,42.22437],[-70.92128,42.22434],[-70.92125,42.22432],[-70.92124,42.22426],[-70.92106,42.22408],[-70.92065,42.22377],[-70.92061,42.22371],[-70.92059,42.22344],[-70.92039,42.22328],[-70.92036,42.22297],[-70.9204,42.22295],[-70.92052,42.22291],[-70.92059,42.22286],[-70.92065,42.22273],[-70.92088,42.2225],[-70.92104,42.22228],[-70.92105,42.2222],[-70.92134,42.22117],[-70.92145,42.22115],[-70.92152,42.22104],[-70.92155,42.22103],[-70.9216,42.22095],[-70.92163,42.22088],[-70.92175,42.22078],[-70.92177,42.22077],[-70.92155,42.22073],[-70.92228,42.22069],[-70.92247,42.22059],[-70.92253,42.2206],[-70.92267,42.22064],[-70.92289,42.22065],[-70.92356,42.22098],[-70.92372,42.22099],[-70.92375,42.22096],[-70.92379,42.22085],[-70.92378,42.22078],[-70.92375,42.22077],[-70.92372,42.22068],[-70.92359,42.22053],[-70.92401,42.22047],[-70.92403,42.22052],[-70.92407,42.22075],[-70.92408,42.22093],[-70.9241,42.22096],[-70.92401,42.22105],[-70.92382,42.22111],[-70.92372,42.22114],[-70.92363,42.22116],[-70.92353,42.22115],[-70.92339,42.22109],[-70.92329,42.22104],[-70.92307,42.22092],[-70.92296,42.22087],[-70.92268,42.22087],[-70.92262,42.22084],[-70.92259,42.22085],[-70.92243,42.22084],[-70.9222,42.2209],[-70.92195,42.22099],[-70.9219,42.22102],[-70.92185,42.22107],[-70.92175,42.22118],[-70.92172,42.22131],[-70.92169,42.22142],[-70.92169,42.22149],[-70.92164,42.22153],[-70.92154,42.22159],[-70.92147,42.22169],[-70.92149,42.22182],[-70.92151,42.22185],[-70.92151,42.22217],[-70.92129,42.22255],[-70.9211,42.22271],[-70.92106,42.22276],[-70.92096,42.22282],[-70.92089,42.22287],[-70.92082,42.22299],[-70.92083,42.22312],[-70.92089,42.2232],[-70.92092,42.2233],[-70.92095,42.22334],[-70.92098,42.22339],[-70.92102,42.22344],[-70.92102,42.22349],[-70.9212,42.22373],[-70.92123,42.22375],[-70.92123,42.22377],[-70.92126,42.22379],[-70.92127,42.22382],[-70.92134,42.22389],[-70.92136,42.2239],[-70.92137,42.22393],[-70.9215,42.22409],[-70.92159,42.22418],[-70.92168,42.2243],[-70.92197,42.22458],[-70.92218,42.22467],[-70.92234,42.22467],[-70.92242,42.22464],[-70.92257,42.22464],[-70.92265,42.2247],[-70.92303,42.22478],[-70.92325,42.22486],[-70.92327,42.22487],[-70.92333,42.2249],[-70.92346,42.22499],[-70.92352,42.22503],[-70.92355,42.22503],[-70.92392,42.22525],[-70.92421,42.22554],[-70.92423,42.22559],[-70.92432,42.22567],[-70.92448,42.22572],[-70.92455,42.22578],[-70.92453,42.22584],[-70.92442,42.22589],[-70.92444,42.22594],[-70.92459,42.22603],[-70.9246,42.22606],[-70.9246,42.22613],[-70.92444,42.22623],[-70.92445,42.22635],[-70.92448,42.22639],[-70.92453,42.22649],[-70.92455,42.22665],[-70.92459,42.22674],[-70.92462,42.22696],[-70.92456,42.22708],[-70.92458,42.22726],[-70.92452,42.22735],[-70.92448,42.22743],[-70.92446,42.22777],[-70.92441,42.22785],[-70.92431,42.22787],[-70.92427,42.22792],[-70.92422,42.22807],[-70.92414,42.2282],[-70.92403,42.2283],[-70.9238,42.22844],[-70.92372,42.22847],[-70.92362,42.22852],[-70.9235,42.22863],[-70.9235,42.2287],[-70.9236,42.22875],[-70.92389,42.22884],[-70.92432,42.22895],[-70.92489,42.22915],[-70.92552,42.22935],[-70.92577,42.22945],[-70.92594,42.22944],[-70.92601,42.22937],[-70.92611,42.22911],[-70.92618,42.22903],[-70.92622,42.22903],[-70.92624,42.229],[-70.92637,42.22901],[-70.92632,42.22912],[-70.92628,42.22915],[-70.92624,42.22923],[-70.92625,42.22939],[-70.92626,42.2294],[-70.92626,42.22945],[-70.92645,42.22959],[-70.92648,42.22969],[-70.92657,42.22969],[-70.92665,42.22965],[-70.92674,42.22967],[-70.92687,42.22966],[-70.92693,42.22964],[-70.927,42.22959],[-70.92706,42.22959],[-70.92709,42.2296],[-70.92711,42.22966],[-70.92706,42.22976],[-70.92709,42.22979],[-70.92732,42.22981],[-70.92736,42.22984],[-70.92735,42.22987],[-70.92727,42.2299],[-70.92718,42.2299],[-70.92709,42.22989],[-70.927,42.22984],[-70.92692,42.22984],[-70.92691,42.22992],[-70.92688,42.22994],[-70.92673,42.22996],[-70.92673,42.23004],[-70.92675,42.23005],[-70.92682,42.2302],[-70.9269,42.23033],[-70.92694,42.23044],[-70.92696,42.23045],[-70.92699,42.23056],[-70.92708,42.23071],[-70.92716,42.23089],[-70.92718,42.23092],[-70.92728,42.2312],[-70.9273,42.23121],[-70.92743,42.23167],[-70.92746,42.2319],[-70.92743,42.23216],[-70.92748,42.23341],[-70.92785,42.23376],[-70.92795,42.23398],[-70.928,42.23421],[-70.92803,42.23432],[-70.92805,42.23459],[-70.92811,42.23486],[-70.92809,42.23495],[-70.92807,42.23501],[-70.92795,42.23506],[-70.92777,42.23505],[-70.92751,42.23497],[-70.92712,42.23475],[-70.92696,42.2347],[-70.9267,42.2347],[-70.92656,42.23477],[-70.92651,42.23483],[-70.92643,42.23487],[-70.92628,42.23486],[-70.92603,42.23464],[-70.92594,42.23466],[-70.92595,42.23476],[-70.92599,42.23491],[-70.92612,42.23501],[-70.92641,42.23523],[-70.92676,42.23544],[-70.92717,42.23571],[-70.92728,42.23578],[-70.92762,42.23607],[-70.92788,42.23641],[-70.92788,42.23644],[-70.92789,42.23645],[-70.92812,42.23691],[-70.92825,42.23701],[-70.92857,42.23716],[-70.92872,42.23727],[-70.92888,42.23753],[-70.92888,42.23755],[-70.92891,42.23757],[-70.92892,42.23761],[-70.92895,42.23762],[-70.92895,42.23764],[-70.92898,42.23768],[-70.92898,42.23771],[-70.92911,42.2379],[-70.92911,42.23793],[-70.92915,42.23798],[-70.9292,42.23812],[-70.92921,42.2384],[-70.92924,42.23858],[-70.92927,42.2389],[-70.92928,42.23894],[-70.9293,42.23901],[-70.92936,42.23915],[-70.92947,42.23933],[-70.92959,42.23946],[-70.92968,42.23953],[-70.92974,42.23954],[-70.93022,42.23957],[-70.93039,42.23962],[-70.93058,42.23976],[-70.93068,42.23988],[-70.93068,42.2399],[-70.9307,42.23992],[-70.93073,42.23998],[-70.93072,42.24019],[-70.93068,42.24023],[-70.93051,42.24059],[-70.93053,42.24066],[-70.93037,42.24075],[-70.9303,42.24081],[-70.93025,42.24098],[-70.93002,42.24153],[-70.92991,42.24176],[-70.92988,42.24186],[-70.92988,42.24198],[-70.92998,42.24211],[-70.92998,42.24213],[-70.93005,42.24225],[-70.93015,42.24233],[-70.93062,42.24266],[-70.93076,42.24281],[-70.93085,42.24292],[-70.93092,42.24303],[-70.93093,42.24306],[-70.93096,42.24308],[-70.93128,42.24354],[-70.93142,42.24372],[-70.93162,42.24393],[-70.93181,42.24412],[-70.93192,42.24425],[-70.93215,42.2445],[-70.93228,42.24462],[-70.93238,42.24482],[-70.93242,42.24494],[-70.93242,42.2451],[-70.93235,42.24522],[-70.93228,42.24531],[-70.93225,42.24548],[-70.93224,42.24567],[-70.9322,42.24587],[-70.93218,42.24616],[-70.93218,42.2462],[-70.93214,42.24632],[-70.93208,42.24645],[-70.93205,42.24646],[-70.93201,42.24653],[-70.93187,42.24662],[-70.93169,42.2467],[-70.93162,42.2467],[-70.93152,42.24677],[-70.93153,42.24687],[-70.93156,42.24694],[-70.93159,42.24701],[-70.93164,42.24713],[-70.93165,42.24718],[-70.93176,42.24723],[-70.93225,42.24736],[-70.93241,42.24742],[-70.93239,42.24758],[-70.93232,42.24788],[-70.93229,42.24794],[-70.93229,42.24811],[-70.93231,42.24814],[-70.93232,42.2482],[-70.93235,42.24825],[-70.9324,42.24828],[-70.93245,42.24826],[-70.93248,42.24824],[-70.93251,42.24804],[-70.93255,42.2479],[-70.93262,42.24752],[-70.93264,42.24747],[-70.93271,42.24739],[-70.9328,42.2474],[-70.93305,42.24749],[-70.93329,42.24755],[-70.93361,42.24763],[-70.93395,42.24769],[-70.93416,42.2477],[-70.93464,42.24768],[-70.93532,42.2476],[-70.93551,42.24752],[-70.93571,42.24739],[-70.93586,42.24724],[-70.93593,42.24716],[-70.93604,42.24708],[-70.93612,42.24707],[-70.93659,42.24707],[-70.93707,42.24698],[-70.93722,42.24699],[-70.93736,42.24702],[-70.93751,42.24707],[-70.93778,42.24718],[-70.93805,42.24726],[-70.93788,42.24746],[-70.93773,42.24751],[-70.9375,42.2477],[-70.9374,42.2478],[-70.93736,42.24782],[-70.93721,42.24781],[-70.93698,42.24782],[-70.93648,42.24787],[-70.9362,42.24789],[-70.93612,42.2479],[-70.93591,42.24788],[-70.9357,42.24791],[-70.93558,42.24796],[-70.93548,42.24801],[-70.93535,42.24811],[-70.93532,42.24819],[-70.93539,42.24824],[-70.93577,42.24843],[-70.93627,42.24872],[-70.93667,42.24892],[-70.93677,42.24904],[-70.93684,42.24909],[-70.937,42.24915],[-70.93719,42.24933],[-70.93726,42.24952],[-70.93722,42.25011],[-70.93716,42.25016],[-70.93712,42.25034],[-70.93707,42.25049],[-70.93691,42.25099],[-70.93697,42.25157],[-70.93687,42.25166],[-70.93682,42.25167],[-70.93657,42.25171],[-70.93645,42.25176],[-70.93607,42.25182],[-70.93591,42.25179],[-70.9358,42.25173],[-70.93575,42.2517],[-70.9356,42.25164],[-70.93543,42.25167],[-70.93538,42.25173],[-70.93538,42.2519],[-70.9354,42.25196],[-70.93542,42.25198],[-70.93545,42.25206],[-70.93572,42.25243],[-70.9358,42.2525],[-70.93582,42.25268],[-70.93576,42.25286],[-70.93568,42.25295],[-70.93567,42.25316],[-70.93447,42.25336],[-70.93427,42.25328],[-70.93411,42.25326],[-70.93383,42.25328],[-70.93358,42.25337],[-70.93352,42.25344],[-70.93349,42.25352],[-70.93352,42.25368],[-70.9335,42.25397],[-70.93343,42.25411],[-70.93339,42.25415],[-70.93327,42.25423],[-70.93268,42.25449],[-70.93254,42.25456],[-70.93203,42.25481],[-70.93176,42.25484],[-70.93098,42.25489],[-70.93081,42.25491],[-70.93036,42.25505],[-70.92994,42.25523],[-70.92973,42.25533],[-70.92932,42.25544],[-70.92893,42.25553],[-70.92874,42.25554],[-70.92847,42.25554],[-70.9281,42.25549],[-70.92779,42.25544],[-70.9276,42.25545],[-70.92752,42.25549],[-70.92749,42.25552],[-70.92725,42.25568],[-70.92713,42.25571],[-70.92707,42.25568],[-70.92706,42.25556],[-70.92699,42.25551],[-70.92686,42.25549],[-70.92628,42.25549],[-70.92593,42.25551],[-70.92577,42.25547],[-70.92564,42.25541],[-70.92557,42.25537],[-70.92553,42.25527],[-70.92547,42.2552],[-70.92532,42.25494],[-70.92531,42.25486],[-70.92528,42.25485],[-70.92521,42.25466],[-70.9252,42.25453],[-70.92519,42.25445],[-70.92522,42.2544],[-70.92523,42.25429],[-70.92506,42.25429],[-70.92473,42.25436],[-70.92448,42.25438],[-70.92441,42.25441],[-70.92426,42.25443],[-70.92389,42.25453],[-70.92365,42.25458],[-70.92347,42.2546],[-70.92288,42.25461],[-70.92211,42.25481],[-70.92206,42.25492],[-70.92191,42.255],[-70.92174,42.25507],[-70.92154,42.25524],[-70.92134,42.25559],[-70.92119,42.2557],[-70.92101,42.25576],[-70.92071,42.2558],[-70.92027,42.25578],[-70.92017,42.25585],[-70.92014,42.25592],[-70.92011,42.2562],[-70.92011,42.25661],[-70.92017,42.25694],[-70.92018,42.257],[-70.9202,42.25701],[-70.92023,42.25707],[-70.92026,42.2571],[-70.92027,42.25714]]],[[[-70.91111,42.26896],[-70.91123,42.26903],[-70.91189,42.2693],[-70.91196,42.26935],[-70.91209,42.26942],[-70.9122,42.26945],[-70.91246,42.26946],[-70.91274,42.26944],[-70.91339,42.26922],[-70.91351,42.26913],[-70.9137,42.26896],[-70.91376,42.26887],[-70.91377,42.26882],[-70.91377,42.26868],[-70.91368,42.26842],[-70.91367,42.26831],[-70.91362,42.26823],[-70.91362,42.26815],[-70.91358,42.26813],[-70.91352,42.26798],[-70.91343,42.26785],[-70.91341,42.2678],[-70.91335,42.26774],[-70.91335,42.26772],[-70.91329,42.26762],[-70.91328,42.2676],[-70.91324,42.26755],[-70.91309,42.26751],[-70.91289,42.26751],[-70.91264,42.26756],[-70.91225,42.26762],[-70.91202,42.26762],[-70.91182,42.26757],[-70.91166,42.2675],[-70.91154,42.26743],[-70.91146,42.26733],[-70.91124,42.26714],[-70.91121,42.2671],[-70.91114,42.26706],[-70.91111,42.26703],[-70.91099,42.26707],[-70.91093,42.26713],[-70.91086,42.26725],[-70.91046,42.26759],[-70.91033,42.26768],[-70.91023,42.26779],[-70.91018,42.2679],[-70.91019,42.26806],[-70.91025,42.26815],[-70.91034,42.26823],[-70.91034,42.26825],[-70.91037,42.26827],[-70.9104,42.26833],[-70.9104,42.26848],[-70.91048,42.26858],[-70.91051,42.26859],[-70.91055,42.26867],[-70.91057,42.26881],[-70.91061,42.26891],[-70.91067,42.26897],[-70.91076,42.26899],[-70.91096,42.26896],[-70.91111,42.26896]]],[[[-70.91698,42.2691],[-70.91693,42.26925],[-70.91691,42.26942],[-70.91687,42.26966],[-70.9168,42.2698],[-70.91675,42.26987],[-70.91668,42.27],[-70.91659,42.27031],[-70.91658,42.27048],[-70.91661,42.27055],[-70.91662,42.27062],[-70.91666,42.27074],[-70.91671,42.27081],[-70.91695,42.27105],[-70.91721,42.27128],[-70.91772,42.2717],[-70.91791,42.2718],[-70.91808,42.27186],[-70.9184,42.27184],[-70.91871,42.27176],[-70.91927,42.27156],[-70.91972,42.27137],[-70.9202,42.27109],[-70.92066,42.27086],[-70.92185,42.27033],[-70.92233,42.27019],[-70.92337,42.27006],[-70.92379,42.27001],[-70.92446,42.26989],[-70.92511,42.26965],[-70.92532,42.26954],[-70.92566,42.26929],[-70.92583,42.26908],[-70.92584,42.26903],[-70.92587,42.26898],[-70.92589,42.26888],[-70.92585,42.26858],[-70.92581,42.26847],[-70.92577,42.26842],[-70.92576,42.26837],[-70.92559,42.26813],[-70.92559,42.26811],[-70.92537,42.26793],[-70.92507,42.26774],[-70.92481,42.26764],[-70.92458,42.26759],[-70.92407,42.26752],[-70.92348,42.26748],[-70.9224,42.26747],[-70.92073,42.26754],[-70.92055,42.26759],[-70.92046,42.26767],[-70.92042,42.26793],[-70.92042,42.2681],[-70.92036,42.26822],[-70.92033,42.26824],[-70.92028,42.26831],[-70.92016,42.26838],[-70.9199,42.26843],[-70.91966,42.26846],[-70.91922,42.26849],[-70.91906,42.26853],[-70.9187,42.26878],[-70.91862,42.26882],[-70.91859,42.26883],[-70.91846,42.26897],[-70.9183,42.26903],[-70.91788,42.26904],[-70.91742,42.26897],[-70.91726,42.26896],[-70.91715,42.26899],[-70.91698,42.2691]]],[[[-70.92419,42.28083],[-70.9244,42.28092],[-70.92474,42.28099],[-70.92498,42.28099],[-70.92522,42.28096],[-70.92549,42.28088],[-70.92573,42.28081],[-70.92578,42.28077],[-70.9258,42.28069],[-70.92574,42.28063],[-70.92554,42.28061],[-70.92526,42.28061],[-70.925,42.28064],[-70.92477,42.28066],[-70.92454,42.28064],[-70.92427,42.28058],[-70.92401,42.28048],[-70.92386,42.28037],[-70.92371,42.28039],[-70.92352,42.28044],[-70.92332,42.28045],[-70.92313,42.28039],[-70.92268,42.28022],[-70.92251,42.28017],[-70.92244,42.28024],[-70.92252,42.28031],[-70.9227,42.28039],[-70.92303,42.28048],[-70.92335,42.28052],[-70.92352,42.28054],[-70.92387,42.28064],[-70.92419,42.28083]]]]}}
